entityid,TYPE,NAME,ADDRESS,LOCATION,LATITUDE,LONGITUDE
,ATHLETIC FIELD,HENRY JANZEN SOCCER - ATHLETIC FIELD SOCCER ATHLETIC FIELD,390 DALGLIESH DRIVE,HENRY JANZEN SOCCER,50.4904489510001,-104.656014981
,BALL DIAMOND,ST. MICHAEL SCHOOL - BALL DIAMOND BS #258,431 HAMILTON STREET,ST. MICHAEL SCHOOL,50.4712922240001,-104.608229174
,ATHLETIC FIELD,GEORGE LEE SCHOOL - ATHLETIC FIELD SOCCER ATHLETIC FIELD,180 WELLS STREET,GEORGE LEE SCHOOL,50.488620488,-104.648656049
,BALL DIAMOND,W.H. FORD PARK - BALL DIAMOND BS #195,6129 DALGLIESH DRIVE,W.H. FORD PARK,50.4893972230001,-104.670275237
,ATHLETIC FIELD,SANGSTER PARK - ATHLETIC FIELD SOCCER ATHLETIC FIELD,496 SANGSTER BOULEVARD,SANGSTER PARK,50.489806016,-104.626470177
,WASCANA CENTRE,DARKE HALL,2255 COLLEGE AVENUE,WASCANA CENTRE,50.4399389920001,-104.612242963
,BALL DIAMOND,ELSIE DORSEY PARK - BALL DIAMOND BS #10,4199 CASTLE ROAD,ELSIE DORSEY PARK,50.410065681,-104.598646449
,PUBLIC ELEMENTARY SCHOOL,W. F. READY - PUBLIC ELEMENTARY SCHOOL,2710 HELMSING STREET,W. F. READY - PUBLIC ELEMENTARY SCHOOL,50.437423654,-104.539884263
,BALL DIAMOND,IMPERIAL PARK - BALL DIAMOND BS #267,305 ROSE STREET,IMPERIAL PARK,50.4742157810001,-104.608841422
,OUTDOOR RINK SHELTER,MCNAB PARK - OUTDOOR RINK SHELTER,4802 11TH AVENUE,MCNAB PARK,50.4491663090001,-104.647019248
,PLAYGROUND,ARTHUR PARK - PLAYGROUND 4215 SHERWOOD DR,4215 SHERWOOD DRIVE,ARTHUR PARK,50.4748340950001,-104.651470265
,PUBLIC ELEMENTARY SCHOOL,REGINA HUDA - PUBLIC ELEMENTARY SCHOOL,40 SHEPPARD STREET,REGINA HUDA - PUBLIC ELEMENTARY SCHOOL,50.4809461710001,-104.624459566
,ATHLETIC FIELD,HOLY ROSARY - ATHLETIC FIELD SOCCER ATHLETIC FIELD,3118 14TH AVENUE,HOLY ROSARY,50.4442894700001,-104.627544946
,PLAYGROUND,ST. MARGUERITE BOURGEOYS SCHOOL - PLAYGROUND 2910 E SHOOTER DR,2910 E SHOOTER DRIVE,ST. MARGUERITE BOURGEOYS SCHOOL,50.4359253040001,-104.541661323
,BALL DIAMOND,DOUGLAS PARK SW - BALL DIAMOND BS #110,3025 MCDONALD STREET,DOUGLAS PARK SW,50.4273200390001,-104.582093235
,PLAYGROUND,DR. HANNA SCHOOL - PLAYGROUND 55 DAVIN CRES,55 DAVIN CRESCENT,DR. HANNA SCHOOL,50.4893981100001,-104.629077978
,PLAYGROUND,LAKERIDGE PARK N - PLAYGROUND 5560 LEIBEL CRES,5560 LEIBEL CRESCENT,LAKERIDGE PARK N,50.5023616560001,-104.658724846
,ATHLETIC FIELD,KITCHNER SCHOOL - ATHLETIC FIELD SOCCER ATHLETIC FIELD,840 ATHOL STREET,KITCHNER SCHOOL,50.4648982680001,-104.629024054
,OUTDOOR RINK BOARDED,GLEN ELM PARK - OUTDOOR RINK BOARDED,1601 BOND STREET,GLEN ELM PARK,50.452996419,-104.566825537
,BASKETBALL,MASSEY SCHOOL - BASKETBALL,131 MASSEY ROAD,MASSEY SCHOOL,50.4112579950001,-104.60774884
,SEPARATE ELEMENTARY SCHOOL,ST. MARGUERITE BOURGEOYS - SEPARATE ELEMENTARY SCHOOL,2910 E SHOOTER DRIVE,ST. MARGUERITE BOURGEOYS - SEPARATE ELEMENTARY SCHOOL,50.4360300800001,-104.541431856
,ATHLETIC FIELD,LIVINGSTONE FOOTBALL - ATHLETIC FIELD MULTI-USE ATHLETIC FIELD,750 N WINNIPEG STREET,LIVINGSTONE FOOTBALL,50.4870589060001,-104.59833384
,OUTDOOR RINK UNBOARDED,BLOCK 11B PARK - OUTDOOR RINK UNBOARDED,945 REYNOLDS STREET,BLOCK 11B PARK,50.4633195420001,-104.58898544
,OUTDOOR RINK UNBOARDED,RUTH BUCK PARK - OUTDOOR RINK UNBOARDED,6310 7TH AVENUE N,RUTH BUCK PARK,50.4763674690001,-104.672450106
,PUBLIC HIGH SCHOOL,CAMPBELL COLLEGIATE - PUBLIC HIGH SCHOOL,102 MASSEY ROAD,CAMPBELL COLLEGIATE - PUBLIC HIGH SCHOOL,50.412335333,-104.610670409
,PLAYGROUND,ARGYLE SCHOOL - PLAYGROUND 2941 LAKEVIEW AVE,2941 LAKEVIEW AVENUE,ARGYLE SCHOOL,50.421486681,-104.625425322
,PLAYGROUND,STEWART RUSSELL PARK - PLAYGROUND 1912 E 7TH AVE,1912 E 7TH AVENUE,STEWART RUSSELL PARK,50.4587407710001,-104.55593693
,PUBLIC ELEMENTARY SCHOOL,MCLURG - PUBLIC ELEMENTARY SCHOOL,125 PAYNTER CRESCENT,MCLURG - PUBLIC ELEMENTARY SCHOOL,50.4725242580001,-104.680019171
,ATHLETIC FIELD,MASSEY WEST MULTI - ATHLETIC FIELD MULTI-USE ATHLETIC FIELD,2355 PARLIAMENT AVENUE,MASSEY WEST MULTI,50.4142254860001,-104.611956622
,ATHLETIC FIELD,LITZENBERGER - ATHLETIC FIELD SOCCER ATHLETIC FIELD,100 RINK AVENUE,LITZENBERGER,50.4894696540001,-104.649658395
,ATHLETIC FIELD,ST. CATHERINE SCHOOL - ATHLETIC FIELD SOCCER ATHLETIC FIELD,150 BROTHERTON AVENUE,ST. CATHERINE SCHOOL,50.4535658120001,-104.553960359
,OUTDOOR TENNIS,GOCKI PARK - OUTDOOR TENNIS,2230 LINDSAY STREET,GOCKI PARK,50.442700007,-104.585422859
,PLAYGROUND,ST. MICHAEL SCHOOL - PLAYGROUND 431 HAMILTON ST,431 HAMILTON STREET,ST. MICHAEL SCHOOL,50.4713372610001,-104.609091658
,BALL DIAMOND,LAKEVIEW SCHOOL SW - BALL DIAMOND BS #16,3100 20TH AVENUE,LAKEVIEW SCHOOL SW,50.4319128600001,-104.626501832
,PUBLIC ELEMENTARY SCHOOL,THOMSON - PUBLIC ELEMENTARY SCHOOL,2033 TORONTO STREET,THOMSON - PUBLIC ELEMENTARY SCHOOL,50.446264924,-104.598368647
,UNIVERSITY OF REGINA,COLLEGE WEST,3769 WASCANA PARKWAY,UNIVERSITY OF REGINA,50.4174807110001,-104.591588573
,ATHLETIC FIELD,UNIVERSITY PARK/WILFRED HUNT MULTI - ATHLETIC FIELD MULTI-USE ATHLETIC FIELD,25 MICHENER DRIVE,UNIVERSITY PARK/WILFRED HUNT MULTI,50.4306872330001,-104.561056217
,BASKETBALL,PRINCE OF WALES PARK - BASKETBALL,3800 E CUMBERLAND ROAD,PRINCE OF WALES PARK,50.4374109820001,-104.528638359
,BALL DIAMOND,KAPLAN FIELD - BALL DIAMOND BS #288,750 N WINNIPEG STREET,KAPLAN FIELD,50.4879065010001,-104.601194581
,ATHLETIC FIELD,PARKDALE PARK - ATHLETIC FIELD SOCCER ATHLETIC FIELD,901 PRINCESS STREET,PARKDALE PARK,50.463518219,-104.635047171
,FIRE,FIRE HALL NO. 7,132 VICTORIA AVENUE,LOUIS YANKO FIRE HALL,50.4475327440001,-104.583396102
,PLAYGROUND,JENKINS DR. PARK - PLAYGROUND 3706 E JENKINS DR,3706 E JENKINS DRIVE,JENKINS DR. PARK,50.4651811160001,-104.530792299
,BASKETBALL,ST. JEROME SCHOOL - BASKETBALL,770 RINK AVENUE,ST. JEROME SCHOOL,50.4885353170001,-104.681444925
,OUTDOOR POOL,WASCANA - OUTDOOR POOL,2355 COLLEGE AVENUE,WASCANA,50.438530659,-104.613114172
,OUTDOOR POOL,DEWDNEY - OUTDOOR POOL,3355 8TH AVENUE,DEWDNEY,50.4563008760001,-104.62933078
,BALL DIAMOND,CENTRAL PARK - BALL DIAMOND BS #93,2231 SCARTH STREET,CENTRAL PARK,50.4437498620001,-104.609689529
,PUBLIC ELEMENTARY SCHOOL,GRANT ROAD - PUBLIC ELEMENTARY SCHOOL,2501 GRANT ROAD,GRANT ROAD - PUBLIC ELEMENTARY SCHOOL,50.4025223720001,-104.612288674
,PLAYGROUND,PARKDALE PARK - PLAYGROUND 901 PRINCESS ST,901 PRINCESS STREET,PARKDALE PARK,50.463485098,-104.634411519
,BASKETBALL,KEN JENKINS SCHOOL - BASKETBALL,5382 2ND AVENUE N,KEN JENKINS SCHOOL,50.4728004950001,-104.657690636
,PLAYGROUND,GRANT ROAD - PLAYGROUND 2501 GRANT ROAD,2501 GRANT ROAD,GRANT ROAD,50.402245345,-104.611667251
,PLAYGROUND,IMPERIAL PARK - PLAYGROUND 305 ROSE ST,305 ROSE STREET,IMPERIAL PARK,50.4734996000001,-104.607544904
,PLAYGROUND,WILLISTON PARK - PLAYGROUND 30 WILLISTON DR,30 WILLISTON DRIVE,WILLISTON PARK,50.4821863540001,-104.678314456
,BALL DIAMOND,HOLY ROSARY PARK - BALL DIAMOND,2125 ATHOL STREET,HOLY ROSARY PARK,50.4446751560001,-104.627149371
,ATHLETIC FIELD,M.J. COLDWELL - ATHLETIC FIELD SOCCER ATHLETIC FIELD,115 FAIRVIEW ROAD,M.J. COLDWELL,50.4900025250001,-104.611838996
,BASKETBALL,HAULTAIN SCHOOL - BASKETBALL,1033 EDGAR STREET,HAULTAIN SCHOOL,50.461932861,-104.587252354
,PLAYGROUND,DESHAYE SCHOOL E - PLAYGROUND 37 CAMERON CRES,37 CAMERON CRESCENT,DESHAYE SCHOOL E,50.412101502,-104.624488092
,PLAYGROUND,ASSINIBOINE PARK - PLAYGROUND 3355 ROBINSON ST,3355 ROBINSON STREET,ASSINIBOINE PARK,50.4249134720001,-104.62293959
,ATHLETIC FIELD,HAYWORTH CR. PARK - ATHLETIC FIELD SOCCER ATHLETIC FIELD,750 RINK AVENUE,HAYWORTH CR. PARK,50.4899187940001,-104.682142327
,OUTDOOR TENNIS,W.H. FORD PARK - OUTDOOR TENNIS,6129 DALGLIESH DRIVE,W.H. FORD PARK,50.4900352210001,-104.671099551
,BALL DIAMOND,MCLEOD PARK - BALL DIAMOND,3500 QUEEN STREET,MCLEOD PARK,50.4242406720001,-104.637614552
,REC_NBHD FACILITY,ARGYLE PARK COMMUNITY CENTRE - REC_NBHD FACILITY,55 DAVIN CRESCENT,ARGYLE PARK COMMUNITY CENTRE,50.4893779750001,-104.630096064
,SEPARATE ELEMENTARY SCHOOL,ST. MARY - SEPARATE ELEMENTARY SCHOOL,140 N MCINTOSH STREET,ST. MARY - SEPARATE ELEMENTARY SCHOOL,50.4781581990001,-104.654142921
,OUTDOOR TENNIS,A.E. WILSON PARK (WEST) - OUTDOOR TENNIS,1010 MCCARTHY BOULEVARD,A.E. WILSON PARK (WEST),50.4615440850001,-104.673588399
,OUTDOOR RINK SHELTER,HOLY ROSARY SCHOOL  - OUTDOOR RINK SHELTER,2160 CAMERON STREET,HOLY ROSARY SCHOOL,50.444540858,-104.626856561
,PUBLIC ELEMENTARY SCHOOL,KITCHENER - PUBLIC ELEMENTARY SCHOOL,840 ATHOL STREET,KITCHENER - PUBLIC ELEMENTARY SCHOOL,50.4654039660001,-104.629031054
,WASCANA CENTRE,SASKATCHEWAN CENTRE OF THE ARTS,200 LAKESHORE DRIVE,WASCANA CENTRE,50.4283533860001,-104.59783431
,ATHLETIC FIELD,WEEKES PARK - ATHLETIC FIELD SOCCER ATHLETIC FIELD,120 WEEKES CRESCENT,WEEKES PARK,50.4957282760001,-104.607620862
,ATHLETIC FIELD,CURRIE PRACTICE FIELD - ATHLETIC FIELD,750 N WINNIPEG STREET,CURRIE PRACTICE FIELD,50.4885539370001,-104.59552993
,PLAYGROUND,KINSMEN PARK NORTH - PLAYGROUND 750 PASQUA ST,750 PASQUA STREET,KINSMEN PARK NORTH,50.466544076,-104.641347902
,OUTDOOR RINK SHELTER,W.F. READY SCHOOL - OUTDOOR RINK SHELTER,3043 E ARENS ROAD,W.F. READY SCHOOL,50.4366360280001,-104.540054694
,BASKETBALL,ST. TIMOTHY SCHOOL - BASKETBALL,280 SANGSTER BOULEVARD,ST. TIMOTHY SCHOOL,50.4910428570001,-104.632497742
,PUBLIC ELEMENTARY SCHOOL,GLEN ELM - PUBLIC ELEMENTARY SCHOOL,1225 E 9TH AVENUE,GLEN ELM - PUBLIC ELEMENTARY SCHOOL,50.453190254,-104.56567635
,PLAYGROUND,TRANSCONA - PLAYGROUND 725 EMPRESS ST,725 EMPRESS STREET,TRANSCONA,50.4653107670001,-104.653442735
,PARK WATER FEATURE,LAKEWOOD PARK - PARK WATER FEATURE,6024 WHELAN DRIVE,LAKEWOOD PARK,50.5010738060001,-104.669859807
,BALL DIAMOND,CAMPBELL COLLEGIATE - BALL DIAMOND,102 MASSEY ROAD,CAMPBELL COLLEGIATE,50.411573343,-104.612189024
,OUTDOOR RINK UNBOARDED,SHERWOOD PARK - OUTDOOR RINK UNBOARDED,20 WAKEFIELD CRESCENT,SHERWOOD PARK,50.4793151520001,-104.648435775
,PLAYGROUND,MARION MCVEETY SCHOOL N - PLAYGROUND 38 TURGEON CRES,38 TURGEON CRESCENT,MARION MCVEETY SCHOOL N,50.4207623060001,-104.606011938
,SEASONAL WASHROOM,MOUNT PLEASANT CURRIE FIELD WASHROOM - SEASONAL WASHROOM,750 N WINNIPEG STREET,MOUNT PLEASANT CURRIE FIELD WASHROOM,50.4884111210001,-104.595884479
,OUTDOOR RINK UNBOARDED,DIEPPE SCHOOL - OUTDOOR RINK UNBOARDED,145 DOROTHY STREET,DIEPPE SCHOOL,50.4588025100001,-104.681090191
,BALL DIAMOND,DOUGLAS PARK SE - BALL DIAMOND BS #104,3025 MCDONALD STREET,DOUGLAS PARK SE,50.4270617400001,-104.581004096
,BALL DIAMOND,NORTH EAST PARK SE - BALL DIAMOND BS #278 (AKA=REGINA MINOR GIRLS BALL),444 N BROAD STREET,NORTH EAST PARK SE,50.482900257,-104.608125897
,BALL DIAMOND,MASSEY SCHOOL - BALL DIAMOND BS #20,131 MASSEY ROAD,MASSEY SCHOOL,50.4112406550001,-104.605734307
,PLAYGROUND,ST. FRANCIS SCHOOL NE - PLAYGROUND 45 MIKKELSON DR,45 MIKKELSON DRIVE,ST. FRANCIS SCHOOL NE,50.4651067190001,-104.664780399
,PUBLIC ELEMENTARY SCHOOL,HAULTAIN - PUBLIC ELEMENTARY SCHOOL,1033 EDGAR STREET,HAULTAIN - PUBLIC ELEMENTARY SCHOOL,50.4620842620001,-104.587252575
,OUTDOOR RINK BOARDED,MCVEETY PARK - OUTDOOR RINK BOARDED,1851 JUBILEE AVENUE,MCVEETY PARK,50.4204928200001,-104.60739543
,ARENA,DOUG WICKENHEISER - ARENA,1127 N ARNASON STREET,DOUG WICKENHEISER,50.4953867190001,-104.678261514
,ATHLETIC FIELD,PLAINSVIEW PARK - ATHLETIC FIELD SOCCER ATHLETIC FIELD,61 PLAINSVIEW DRIVE,PLAINSVIEW PARK,50.3984018310001,-104.621688155
,PLAYGROUND,GLENCAIRN RECREATION CENTRE - PLAYGROUND 2626 E DEWDNEY AVE,2626 E DEWDNEY AVENUE,GLENCAIRN RECREATION CENTRE,50.4557170050001,-104.543467162
,SPRAYPAD,KINSMEN PARK NORTH - SPRAYPAD 750 PASQUA ST @ 2ND AVE,750 PASQUA STREET,KINSMEN PARK NORTH,50.4667936440001,-104.641605573
,BASKETBALL,ARCOLA SCHOOL - BASKETBALL,2315 ABBOTT ROAD,ARCOLA SCHOOL,50.441747923,-104.576321766
,PLAYGROUND,ST. THERESA SCHOOL N - PLAYGROUND 2707 E 7TH AVE,2707 E 7TH AVENUE,ST. THERESA SCHOOL N,50.458552631,-104.544005898
,BASKETBALL,BALFOUR HIGH SCHOOL - BASKETBALL,1245 COLLEGE AVENUE,BALFOUR HIGH SCHOOL,50.4393953460001,-104.599836924
,SEPARATE ELEMENTARY SCHOOL,ST. ANGELA MERICI - SEPARATE ELEMENTARY SCHOOL,6823 GILLMORE DRIVE,ST. ANGELA MERICI - SEPARATE ELEMENTARY SCHOOL,50.5014979910001,-104.67888921
,PUBLIC ELEMENTARY SCHOOL,RUTH M. BUCK - PUBLIC ELEMENTARY SCHOOL,6330 7TH AVENUE N,RUTH M. BUCK - PUBLIC ELEMENTARY SCHOOL,50.4765155270001,-104.670755138
,ATHLETIC FIELD,LAKERIDGE SPORTS PARK/WINSTON MULTI - ATHLETIC FIELD MULTI-USE ATHLETIC FIELD,5451 ROCHDALE BOULEVARD,LAKERIDGE SPORTS PARK/WINSTON MULTI,50.494309554,-104.656167288
,SEPARATE ELEMENTARY SCHOOL,ST. GREGORY - SEPARATE ELEMENTARY SCHOOL,302 UPLAND DRIVE,ST. GREGORY - SEPARATE ELEMENTARY SCHOOL,50.4923886660001,-104.610506823
,OTHER SCHOOL,UNIVERSITY OF REGINA - COLLEGE AVE. CAMPUS,2155 COLLEGE AVENUE,UNIVERSITY OF REGINA - COLLEGE AVE. CAMPUS,50.4395539220001,-104.610178146
,MALL,CENTENNIAL MALL,1230 BROAD STREET,CENTENNIAL MALL,50.459174751,-104.607875695
,ATHLETIC FIELD,SHERWOOD PARK - ATHLETIC FIELD SOCCER ATHLETIC FIELD,20 WAKEFIELD CRESCENT,SHERWOOD PARK,50.4793968130001,-104.649832274
,PLAYGROUND,DEWDNEY POOL PARK - PLAYGROUND 3355 8TH AVE,3355 8TH AVENUE,DEWDNEY POOL PARK,50.4560780630001,-104.628538
,OTHER SCHOOL,CORNWALL ALTERNATIVE SCHOOL - 40 DIXON CR.,40 DIXON CRESCENT,CORNWALL ALTERNATIVE SCHOOL - 40 DIXON CR.,50.4420161780001,-104.565808407
,WASCANA CENTRE,UNIVERSITY OF REGINA COLLEGE AVE CAMPUS,2155 COLLEGE AVENUE,WASCANA CENTRE,50.440033117,-104.61099706
,UNIVERSITY OF REGINA,ADMINISTRATION HUMANITIES BUILDING,3769 WASCANA PARKWAY,UNIVERSITY OF REGINA,50.4191661,-104.589288296
,ATHLETIC FIELD,MCMURCHY PARK - ATHLETIC FIELD SOCCER ATHLETIC FIELD,250 N GARNET STREET,MCMURCHY PARK,50.480808181,-104.628045449
,REC_NBHD FACILITY,CATHEDRAL NEIGHBOURHOOD CENTRE - REC_NBHD FACILITY,2900 13TH AVENUE,CATHEDRAL NEIGHBOURHOOD CENTRE,50.445711094,-104.622820648
,BALL DIAMOND,KINSMEN PARK NORTH - BALL DIAMOND BS #186,850 PASQUA STREET,KINSMEN PARK NORTH,50.465203069,-104.642914266
,OUTDOOR TENNIS,TENNIS COURT PARK - OUTDOOR TENNIS,5401 SHERWOOD DRIVE,TENNIS COURT PARK,50.4766595940001,-104.658742743
,BALL DIAMOND,DIEPPE SCHOOL  - BALL DIAMOND BS #126,145 DOROTHY STREET,DIEPPE SCHOOL,50.4587418130001,-104.681061339
,PLAYGROUND,COVENTRY PARK - PLAYGROUND 20 COVENTRY RD,20 COVENTRY ROAD,COVENTRY PARK,50.460945435,-104.648520562
,BALL DIAMOND,MILLER HIGH SCHOOL - BALL DIAMOND,1027 COLLEGE AVENUE,MILLER HIGH SCHOOL,50.439098986,-104.59753048
,BASKETBALL,ARGYLE SCHOOL - BASKETBALL,2941 LAKEVIEW AVENUE,ARGYLE SCHOOL,50.4210449460001,-104.626525228
,PLAYGROUND,ST. THERESA SCHOOL S - PLAYGROUND 2707 E 7TH AVE,2707 E 7TH AVENUE,ST. THERESA SCHOOL S,50.4579523520001,-104.544162118
,BALL DIAMOND,PACERS SPORTS PARK  MIDGET PRACTICE - BALL DIAMOND,5000 E ARCOLA AVENUE,PACERS SPORTS PARK  MIDGET PRACTICE,50.4122590790001,-104.507298637
,SEPARATE ELEMENTARY SCHOOL,ST. DOMINIC SAVIO - SEPARATE ELEMENTARY SCHOOL,195 WINDFIELD ROAD,ST. DOMINIC SAVIO - SEPARATE ELEMENTARY SCHOOL,50.4316541790001,-104.562816427
,REC_NBHD FACILITY,SANDRA SCHMIRLER LEISURE CENTRE - REC_NBHD FACILITY,3130 E WOODHAMS DRIVE,SANDRA SCHMIRLER LEISURE CENTRE,50.4296315400001,-104.535471951
,PLAYGROUND,GARDINER PARK - PLAYGROUND 424 UNIVERSITY PARK DR,424 UNIVERSITY PARK DRIVE,GARDINER PARK,50.4375720990001,-104.553096267
,SPRAYPAD,KINSMEN PARK SOUTH - SPRAYPAD 3310 LAKEVIEW AVE,3310 LAKEVIEW AVENUE,KINSMEN PARK SOUTH,50.423874911,-104.63220347
,BALL DIAMOND,KEN JENKINS PARK - BALL DIAMOND BS #198,5440 2ND AVENUE N,KEN JENKINS PARK,50.473048405,-104.659170594
,PLAYGROUND,ST. AUGUSTINE SCHOOL/JEAN VANIER INSTITUTE - PLAYGROUND 2343 EDGAR ST,2343 EDGAR STREET,ST. AUGUSTINE SCHOOL/JEAN VANIER INSTITUTE,50.4419471670001,-104.586703229
,OTHER SCHOOL,UNIVERSITY OF REGINA - LUTHER COLLEGE,3769 WASCANA PARKWAY,UNIVERSITY OF REGINA - LUTHER COLLEGE,50.4185477190001,-104.585816187
,BALL DIAMOND,PONY PARK W - BALL DIAMOND BS #287,3202 MCKINLEY AVENUE,PONY PARK W,50.4699590690001,-104.628509281
,BALL DIAMOND,L'ARCHE PARK/ARGYLE SCHOOL - BALL DIAMOND BS #2,3215 LAKEVIEW AVENUE,L'ARCHE PARK/ARGYLE SCHOOL,50.4215359020001,-104.627013407
,PLAYGROUND,LAKEVIEW SCHOOL - PLAYGROUND 3100 20TH AVE,3100 20TH AVENUE,LAKEVIEW SCHOOL,50.432461554,-104.625641281
,BALL DIAMOND,KEN JENKINS SCHOOL - BALL DIAMOND BS #197,210 MCINTOSH STREET,KEN JENKINS SCHOOL,50.4740708370001,-104.657714047
,ATHLETIC FIELD,ST TIMOTHY SOCCER - ATHLETIC FIELD SOCCER ATHLETIC FIELD,280 SANGSTER BOULEVARD,ST TIMOTHY SOCCER,50.4906620120001,-104.633589459
,ATHLETIC FIELD,ALBERT SCHOOL - ATHLETIC FIELD SOCCER ATHLETIC FIELD,1340 ROBINSON STREET,ALBERT SCHOOL,50.4578806120001,-104.625060403
,OUTDOOR RINK SHELTER,ELSIE MIRONUCK SCHOOL - OUTDOOR RINK SHELTER,20 WAKEFIELD CRESCENT,ELSIE MIRONUCK SCHOOL,50.4792336040001,-104.64825344
,BALL DIAMOND,BIRCHWOOD PARK SE - BALL DIAMOND BS #3,10 NORRIS ROAD,BIRCHWOOD PARK SE,50.4006951590001,-104.601822029
,PLAYGROUND,IMPERIAL SCHOOL - PLAYGROUND 200 BROAD ST,200 BROAD STREET,IMPERIAL SCHOOL,50.4748204270001,-104.606902527
,PLAYGROUND,W.F. READY SCHOOL - PLAYGROUND 2710 HELMSING ST,2710 HELMSING STREET,W.F. READY SCHOOL,50.4378744990001,-104.539486989
,OUTDOOR RINK UNBOARDED,GLENCAIRN PARK - OUTDOOR RINK UNBOARDED,2626 E DEWDNEY AVENUE,GLENCAIRN PARK,50.456822355,-104.542229376
,BALL DIAMOND,LES SHERMAN PARK NORTH - BALL DIAMOND BS #152,4055 15TH AVENUE,LES SHERMAN PARK NORTH,50.442137287,-104.640392543
,BALL DIAMOND,KITCHNER SCHOOL - BALL DIAMOND,840 ATHOL STREET,KITCHNER SCHOOL,50.4647328940001,-104.628573935
,SEPARATE ELEMENTARY SCHOOL,HOLY ROSARY - SEPARATE ELEMENTARY SCHOOL,2160 CAMERON STREET,HOLY ROSARY - SEPARATE ELEMENTARY SCHOOL,50.4443120080001,-104.626136575
,PLAYGROUND,FRENCH PARK - PLAYGROUND 1055 N MCINTOSH ST,1055 N MCINTOSH STREET,FRENCH PARK,50.4929123150001,-104.652081959
,ATHLETIC FIELD,ST. JEROME MULTI - ATHLETIC FIELD MULTI-USE ATHLETIC FIELD,750 RINK AVENUE,ST. JEROME MULTI,50.488878238,-104.680377548
,PLAYGROUND,DESHAYE SCHOOL W - PLAYGROUND 37 CAMERON CRES,37 CAMERON CRESCENT,DESHAYE SCHOOL W,50.412154302,-104.625030568
,INDOOR POOL,REGINA SPORTPLEX - INDOOR POOL,1717 ELPHINSTONE STREET,REGINA SPORTPLEX,50.4514686780001,-104.630109983
,PLAYGROUND,HIND PARK - PLAYGROUND 20 HIND ST,20 HIND STREET,HIND PARK,50.4863770840001,-104.681149047
,ATHLETIC FIELD,HAULTAIN SCHOOL - ATHLETIC FIELD SOCCER ATHLETIC FIELD,1033 EDGAR STREET,HAULTAIN SCHOOL,50.4616581750001,-104.587258615
,OUTDOOR RINK UNBOARDED,UNIVERSITY PARK - OUTDOOR RINK UNBOARDED,165 WINDFIELD ROAD,UNIVERSITY PARK,50.4314022170001,-104.561793268
,SEASONAL WASHROOM,KIWANIS WATERFALL PARK - SEASONAL WASHROOM,2755 ELPHINSTONE STREET,KIWANIS WATERFALL PARK,50.4367021470001,-104.629155826
,OUTDOOR RINK SHELTER,LESLIE PARK - OUTDOOR RINK SHELTER,3820 VICTORIA AVENUE,LESLIE PARK,50.4475948190001,-104.634251584
,PLAYGROUND,ST. TIMOTHY SCHOOL - PLAYGROUND 280 SANGSTER BLVD,280 SANGSTER BOULEVARD,ST. TIMOTHY SCHOOL,50.4912782150001,-104.632405865
,SEASONAL WASHROOM,GRASSICK PARK - SEASONAL WASHROOM,5325 DEWDNEY AVENUE,GRASSICK PARK,50.4546495270001,-104.66058418
,BASKETBALL,ST. FRANCIS SCHOOL - BASKETBALL,45 MIKKELSON DRIVE,ST. FRANCIS SCHOOL,50.4651311140001,-104.665050406
,PLAYGROUND,WILFRED HUNT SCHOOL - PLAYGROUND 101 MAYFIELD RD,101 MAYFIELD ROAD,WILFRED HUNT SCHOOL,50.4299491040001,-104.562852284
,OUTDOOR TENNIS,MOUNT PLEASANT SPORT PARK - OUTDOOR TENNIS,750 N WINNIPEG STREET,MOUNT PLEASANT SPORT PARK,50.4895917860001,-104.602268245
,PUBLIC ELEMENTARY SCHOOL,MASSEY - PUBLIC ELEMENTARY SCHOOL,131 MASSEY ROAD,MASSEY - PUBLIC ELEMENTARY SCHOOL,50.4111018870001,-104.607510126
,OUTDOOR RINK BOARDED,MCMURCHY PARK - OUTDOOR RINK BOARDED,250 N GARNET STREET,MCMURCHY PARK,50.4802720050001,-104.62875801
,BASKETBALL,HERCHMER SCHOOL - BASKETBALL,1132 MCTAVISH STREET,HERCHMER SCHOOL,50.4604961900001,-104.634867561
,CURLING CLUB,TARTAN - CURLING CLUB,1464 BROADWAY AVENUE,TARTAN,50.4381490650001,-104.601899786
,BALL DIAMOND,ST. ANDREW SCHOOL W - BALL DIAMOND BS #77,535 E DOUGLAS AVENUE,ST. ANDREW SCHOOL W,50.4319639510001,-104.577196208
,OUTDOOR RINK SHELTER,DR. GEORGE FERGUSON SCHOOL - OUTDOOR RINK SHELTER,129 BROTHERTON AVENUE,DR. GEORGE FERGUSON SCHOOL,50.452204356,-104.555565798
,REC_NBHD FACILITY,ALBERT SCOTT COMMUNITY CENTRE - REC_NBHD FACILITY,3350 7TH AVENUE,ALBERT SCOTT COMMUNITY CENTRE,50.458647446,-104.629044433
,OUTDOOR TENNIS,HOWELL PARK - OUTDOOR TENNIS,2930 E 7TH AVENUE,HOWELL PARK,50.4593007510001,-104.54328427
,ATHLETIC FIELD,GRASSICK PARK SOCCER - ATHLETIC FIELD SOCCER ATHLETIC FIELD,5325 DEWDNEY AVENUE,GRASSICK PARK SOCCER,50.4540563690001,-104.66136831
,PLAYGROUND,PARKRIDGE PARK - ROSSIE FITNESS CIRCUIT - PLAYGROUND 1243 ROSSIE DRIVE,1243 ROSSIE DRIVE,PARKRIDGE PARK - ROSSIE FITNESS CIRCUIT,50.4578830010001,-104.533990583
,PLAYGROUND,HAULTAIN SCHOOL - PLAYGROUND 1033 EDGAR ST,1033 EDGAR STREET,HAULTAIN SCHOOL,50.4624952170001,-104.586853388
,BASKETBALL,MONSEIGNEUR DE LAVAL - BASKETBALL,1601 COWAN CRESCENT,MONSEIGNEUR DE LAVAL,50.4178071730001,-104.603372326
,SEPARATE ELEMENTARY SCHOOL,ST. PIUS X - SEPARATE ELEMENTARY SCHOOL,3301 GARNET STREET,ST. PIUS X - SEPARATE ELEMENTARY SCHOOL,50.426952166,-104.625432161
,BALL DIAMOND,PRINCE WILLIAM/ST. GABRIEL - BALL DIAMOND,3860 BUCKINGHAM DRIVE,PRINCE WILLIAM/ST. GABRIEL,50.4309572670001,-104.528053469
,BASKETBALL,ST. JOAN OF ARC SCHOOL - BASKETBALL,10 DEMPSEY AVENUE,ST. JOAN OF ARC SCHOOL,50.4764931180001,-104.668580991
,ATHLETIC FIELD,KINSMEN SOUTH SOCCER - ATHLETIC FIELD SOCCER ATHLETIC FIELD,3310 LAKEVIEW AVENUE,KINSMEN SOUTH SOCCER,50.4231783150001,-104.630979133
,SEPARATE ELEMENTARY SCHOOL,ST. GABRIEL - SEPARATE ELEMENTARY SCHOOL,3860 BUCKINGHAM DRIVE,ST. GABRIEL - SEPARATE ELEMENTARY SCHOOL,50.4298425300001,-104.527030094
,BALL DIAMOND,F.W. JOHNSON HIGH SCHOOL - BALL DIAMOND,400 FINES DRIVE,F.W. JOHNSON HIGH SCHOOL,50.4513686350001,-104.545904341
,PUBLIC ELEMENTARY SCHOOL,ARCOLA - PUBLIC ELEMENTARY SCHOOL,2315 ABBOTT ROAD,ARCOLA - PUBLIC ELEMENTARY SCHOOL,50.442306564,-104.576388041
,INDOOR SKATEBOARD PARK,CITY OF REGINA - INDOOR SKATEBOARD PARK,1700 ELPHINSTONE STREET,CITY OF REGINA,50.4507998080001,-104.632744714
,OUTDOOR RINK UNBOARDED,ELSIE DORSEY PARK - OUTDOOR RINK UNBOARDED,4199 CASTLE ROAD,ELSIE DORSEY PARK,50.4102343920001,-104.598094151
,OUTDOOR RINK BOARDED,WESTHILL/JOANNE GOULET - OUTDOOR RINK BOARDED,8045 KESTRAL DRIVE,WESTHILL/JOANNE GOULET,50.4778808350001,-104.696765119
,PLAYGROUND,A.E. WILSON PARK (EAST) - WALKER SCHOOL - PLAYGROUND 6102 BRUNSKILL PL,1315 CAMPBELL STREET,A.E. WILSON PARK (EAST) - WALKER SCHOOL,50.4579746950001,-104.663422557
,SPRAYPAD,REALTORS PARK - SPRAYPAD 170 SUNSET DR,4310 MONTAGUE STREET,REALTORS PARK,50.4091689360001,-104.630923135
,PLAYGROUND,THOMSON SCHOOL - PLAYGROUND 2033 TORONTO ST,2033 TORONTO STREET,THOMSON SCHOOL,50.446768041,-104.59823903
,BALL DIAMOND,RUTH BUCK PARK - BALL DIAMOND BS #193,6310 7TH AVENUE N,RUTH BUCK PARK,50.476216578,-104.672430038
,ATHLETIC FIELD,GOCKI PARK MULTI - ATHLETIC FIELD SOCCER ATHLETIC FIELD,2230 LINDSAY STREET,GOCKI PARK MULTI,50.442749888,-104.587124616
,SPRAYPAD,RICK HANSEN OPTIMIST PLAYGROUND - SPRAYPAD 1010 MCCARTHY BLVD,1010 MCCARTHY BOULEVARD,RICK HANSEN OPTIMIST PLAYGROUND,50.4600769450001,-104.675256892
,PLAYGROUND,W.H. FORD SCHOOL - PLAYGROUND 480 RINK AVE,480 RINK AVENUE,W.H. FORD SCHOOL,50.4881228900001,-104.669901766
,ATHLETIC FIELD,CONNAUGHT SCHOOL - ATHLETIC FIELD SOCCER ATHLETIC FIELD,2124 ELPHINSTONE STREET,CONNAUGHT SCHOOL,50.4443468570001,-104.631860727
,PUBLIC ELEMENTARY SCHOOL,DR. GEORGE FERGUSON - PUBLIC ELEMENTARY SCHOOL,117 BROTHERTON AVENUE,DR. GEORGE FERGUSON - PUBLIC ELEMENTARY SCHOOL,50.4513468600001,-104.55644403
,BALL DIAMOND,A.C.T. BALL PARK SW - BALL DIAMOND BS #269,460 ELPHINSTONE STREET,A.C.T. BALL PARK SW,50.4721126000001,-104.63454849
,OUTDOOR TENNIS,LAKEVIEW PAR 3 GOLF COURSE - OUTDOOR TENNIS,3100 KINGS ROAD,LAKEVIEW PAR 3 GOLF COURSE,50.429876634,-104.63842366
,ATHLETIC FIELD,DR. A.E. PERRY PARK - ATHLETIC FIELD SOCCER ATHLETIC FIELD,40 COWIE ROAD,DR. A.E. PERRY PARK,50.4014311720001,-104.631944399
,PLAYGROUND,VARSITY PARK - PLAYGROUND 2635 E PHILIP RD,2635 E PHILIP ROAD,VARSITY PARK,50.422917554,-104.546516331
,ARENA,MURRAY BALFOUR - ARENA,70 MASSEY ROAD,MURRAY BALFOUR,50.4140436000001,-104.610667838
,PLAYGROUND,MILFORD PARK - PLAYGROUND 220 CAMBRIDGE AVE,220 CAMBRIDGE AVENUE,MILFORD PARK,50.4510215010001,-104.551423713
,BALL DIAMOND,LAKERIDGE SPORTS PARK/WINSTON - BALL DIAMOND BS #219,5451 ROCHDALE BOULEVARD,LAKERIDGE SPORTS PARK/WINSTON,50.494787456,-104.658736684
,WASCANA CENTRE,PROVINCIAL OFFICE BUILDING AND LABORATORY,3211 ALBERT STREET,WASCANA CENTRE,50.4272858370001,-104.615141852
,PLAYGROUND,LORIMER PARK - PLAYGROUND 19 LORIMER CRES,19 LORIMER CRESCENT,LORIMER PARK,50.4808710500001,-104.637310787
,BALL DIAMOND,PACERS SPORTS PARK  PEEWEE - BALL DIAMOND,5000 E ARCOLA AVENUE,PACERS SPORTS PARK  PEEWEE,50.4135065670001,-104.507856021
,PUBLIC ELEMENTARY SCHOOL,GEORGE LEE - PUBLIC ELEMENTARY SCHOOL,180 WELLS STREET,GEORGE LEE - PUBLIC ELEMENTARY SCHOOL,50.488723151,-104.647798473
,BALL DIAMOND,COLUMBUS PARK NNE - BALL DIAMOND BS #51,2940 PASQUA STREET,COLUMBUS PARK NNE,50.433174604,-104.641665527
,PLAYGROUND,CORONATION PARK SCHOOL - PLAYGROUND 3105 4TH AVE N,3105 4TH AVENUE N,CORONATION PARK SCHOOL,50.475144394,-104.625149363
,ATHLETIC FIELD,DOUGLAS PARK EAST SOCCER  - ATHLETIC FIELD SOCCER ATHLETIC FIELD,3025 MCDONALD STREET,DOUGLAS PARK EAST SOCCER,50.4309337710001,-104.580267495
,SPRAYPAD,MAPLE RIDGE PARK - A - SPRAYPAD 6918 MAPLE BROOK CRES,6918 MAPLE BROOK CRESCENT,MAPLE RIDGE PARK - A,50.503034444,-104.678870496
,PLAYGROUND,LESLIE PARK - PLAYGROUND 3820 VICTORIA AVE,3820 VICTORIA AVENUE,LESLIE PARK,50.447434415,-104.635126987
,ATHLETIC FIELD,W.H. FORD MULTI - ATHLETIC FIELD MULTI-USE ATHLETIC FIELD,6129 DALGLIESH DRIVE,W.H. FORD MULTI,50.489090741,-104.671163317
,BASKETBALL,LAKERIDGE PARK - BASKETBALL,5560 LEIBEL CRESCENT,LAKERIDGE PARK,50.5017020660001,-104.659101414
,BASKETBALL,JACK MACKENZIE - BASKETBALL,3860 BUCKINGHAM DRIVE,JACK MACKENZIE,50.429930895,-104.528423
,BALL DIAMOND,RAMBLER PARK  SLO PITCH SE - BALL DIAMOND,5215 13TH AVENUE,RAMBLER PARK  SLO PITCH SE,50.4429657840001,-104.658820332
,OUTDOOR RINK SHELTER,LITZENBERGER PARK - OUTDOOR RINK SHELTER,100 RINK AVENUE,LITZENBERGER PARK,50.488495728,-104.649873537
,PUBLIC ELEMENTARY SCHOOL,CENTENNIAL - PUBLIC ELEMENTARY SCHOOL,6903 DALGLIESH DRIVE,CENTENNIAL - PUBLIC ELEMENTARY SCHOOL,50.4912084330001,-104.680370424
,BASKETBALL,DR. GEORGE FERGUSON PARK - BASKETBALL,117 BROTHERTON AVENUE,DR. GEORGE FERGUSON PARK,50.451923638,-104.556083883
,BASKETBALL,LESLIE PARK - BASKETBALL,3820 VICTORIA AVENUE,LESLIE PARK,50.4474388030001,-104.63480846
,OUTDOOR RINK SHELTER,ELSIE DORSEY PARK - OUTDOOR RINK SHELTER,4199 CASTLE ROAD,ELSIE DORSEY PARK,50.4103402530001,-104.59804403
,PLAYGROUND,WESTHILL PARK - PLAYGROUND 8103 SHERWOOD DR,8103 SHERWOOD DRIVE,WESTHILL PARK,50.4812448100001,-104.697690836
,PUBLIC ELEMENTARY SCHOOL,DIEPPE - PUBLIC ELEMENTARY SCHOOL,145 DOROTHY STREET,DIEPPE - PUBLIC ELEMENTARY SCHOOL,50.4587154870001,-104.680316239
,BASKETBALL,PARKLAND PARK - BASKETBALL,3210 E PARKLAND DRIVE,PARKLAND PARK,50.4392416320001,-104.539092957
,OUTDOOR RINK UNBOARDED,FUHRMANN PARK - OUTDOOR RINK UNBOARDED,170 FUHRMANN CRESCENT,FUHRMANN PARK,50.48710686,-104.657787039
,OUTDOOR RINK SHELTER,ST. FRANCIS PARK - OUTDOOR RINK SHELTER,6015 MIKKELSON DRIVE,ST. FRANCIS PARK,50.465365863,-104.666903491
,PLAYGROUND,HERCHMER SCHOOL - PLAYGROUND 1132 MCTAVISH ST,1132 MCTAVISH STREET,HERCHMER SCHOOL,50.460837665,-104.635136626
,OUTDOOR TENNIS,NORTHEAST PARK - OUTDOOR TENNIS,2010 8TH AVENUE N,NORTHEAST PARK,50.4823047500001,-104.611291425
,BALL DIAMOND,ST. FRANCIS PARK SW - BALL DIAMOND BS #159,6010 4TH AVENUE,ST. FRANCIS PARK SW,50.463525099,-104.666810168
,BALL DIAMOND,HENRY JANZEN PARK - BALL DIAMOND BS #196,280 RINK AVENUE,HENRY JANZEN PARK,50.488464831,-104.65818934
,PLAYGROUND,PASQUA NEIGHBOURHOOD RECREATION CENTRE - PLAYGROUND 263 LEWVAN DR,263 LEWVAN DRIVE,PASQUA NEIGHBOURHOOD RECREATION CENTRE,50.474152319,-104.640302869
,BALL DIAMOND,A.C.T. BALL PARK SSE - BALL DIAMOND BS #270,460 ELPHINSTONE STREET,A.C.T. BALL PARK SSE,50.471573247,-104.632279222
,BALL DIAMOND,RAMBLER PARK  FASTBALL CENTRAL - BALL DIAMOND FASTBALL NE (CANADA GAMES 2005 DIAMOND),5215 13TH AVENUE,RAMBLER PARK  FASTBALL CENTRAL,50.4446927820001,-104.656746262
,LIBRARY,ALBERT BRANCH LIBRARY,1401 ROBINSON STREET,ALBERT BRANCH LIBRARY,50.4565423710001,-104.623536042
,UNIVERSITY OF REGINA,LUTHER COLLEGE,3769 WASCANA PARKWAY,UNIVERSITY OF REGINA,50.418092244,-104.585537586
,OUTDOOR TENNIS,MILLER HIGH SCHOOL - OUTDOOR TENNIS,1027 COLLEGE AVENUE,MILLER HIGH SCHOOL,50.4389234800001,-104.595689728
,PUBLIC ELEMENTARY SCHOOL,HARVEST CITY CHRISTIAN - PUBLIC ELEMENTARY SCHOOL,2202 8TH AVENUE N,HARVEST CITY CHRISTIAN - PUBLIC ELEMENTARY SCHOOL,50.4826135760001,-104.612331832
,OUTDOOR TENNIS,DOUGLAS PARK - OUTDOOR TENNIS,3025 MCDONALD STREET,DOUGLAS PARK,50.4285144500001,-104.577144026
,PLAYGROUND,MABLE BROWN PARK - PLAYGROUND 225 MIKKELSON DR,255 MIKKELSON DRIVE,MABLE BROWN PARK,50.4668910440001,-104.681692687
,PLAYGROUND,DR. A.E. PERRY PARK - PLAYGROUND 40 COWIE RD,40 COWIE ROAD,DR. A.E. PERRY PARK,50.402384398,-104.630991947
,PLAYGROUND,MCNAUGHTON PARK - PLAYGROUND 54 MCNAUGHTON AVE,54 MCNAUGHTON AVENUE,MCNAUGHTON PARK,50.4817946470001,-104.647906036
,PLAYGROUND,ST. ANGELA MERICI SCHOOL - PLAYGROUND 6823 GILLMORE DR,6823 GILLMORE DRIVE,ST. ANGELA MERICI SCHOOL,50.5015326870001,-104.678209642
,PLAYGROUND,ST. JOAN OF ARC SCHOOL - PLAYGROUND 10 DEMPSEY AVE,10 DEMPSEY AVENUE,ST. JOAN OF ARC SCHOOL,50.4767016100001,-104.669602693
,REC_NBHD FACILITY,PASQUA NEIGHBOURHOOD RECREATION CENTRE - REC_NBHD FACILITY,263 LEWVAN DRIVE,PASQUA NEIGHBOURHOOD RECREATION CENTRE,50.4743116000001,-104.640600714
,ATHLETIC FIELD,RUGBY PARK NORTHEAST MULTI - ATHLETIC FIELD MULTI-USE ATHLETIC FIELD,4025 25TH AVENUE,RUGBY PARK NORTHEAST MULTI,50.417884599,-104.636857876
,PLAYGROUND,WOODLAND GROVE PARK - PLAYGROUND 3507 ARBOR GROVE DR,3507 ARBOR GROVE DRIVE,WOODLAND GROVE PARK,50.4237576730001,-104.530269235
,BASKETBALL,ST. ANDREW SCHOOL - BASKETBALL,535 E DOUGLAS AVENUE,ST. ANDREW SCHOOL,50.4325907460001,-104.576921291
,PARK WATER FEATURE,LAKERIDGE PARK - PARK WATER FEATURE,5560 LEIBEL CRESCENT,LAKERIDGE PARK,50.50171514,-104.658601646
,BALL DIAMOND,DOUGLAS PARK SCHOOL NW - BALL DIAMOND BS #63,635 E DOUGLAS AVENUE,DOUGLAS PARK SCHOOL NW,50.4319557220001,-104.57439365
,BALL DIAMOND,HENRY BRAUN PARK NW - BALL DIAMOND BS #113,710 GRAHAM ROAD,HENRY BRAUN PARK NW,50.462380265,-104.534431706
,BASKETBALL,JOLLY PARK - BASKETBALL,2714 E SWAIN PLACE,JOLLY PARK,50.4361926480001,-104.544915033
,SEPARATE ELEMENTARY SCHOOL,ST. FRANCIS - SEPARATE ELEMENTARY SCHOOL,45 MIKKELSON DRIVE,ST. FRANCIS - SEPARATE ELEMENTARY SCHOOL,50.4648229540001,-104.665636049
,PUBLIC ELEMENTARY SCHOOL,DR. L. M. HANNA - PUBLIC ELEMENTARY SCHOOL,55 DAVIN CRESCENT,DR. L. M. HANNA - PUBLIC ELEMENTARY SCHOOL,50.4894837350001,-104.62998736
,OUTDOOR RINK BOARDED,RUTH BUCK PARK - OUTDOOR RINK BOARDED,6310 7TH AVENUE N,RUTH BUCK PARK,50.4766028240001,-104.672465189
,PLAYGROUND,PARKRIDGE PARK - PLAYGROUND 1243 ROSSIE DR,1243 ROSSIE DRIVE,PARKRIDGE PARK,50.4603181530001,-104.53313136
,WASCANA CENTRE,QUEEN BUILDING,2810 BROAD STREET,WASCANA CENTRE,50.4343496330001,-104.606042261
,SPRAYPAD,GOCKI PARK - SPRAYPAD 2230 LINDSAY ST & 14TH AVE,2230 LINDSAY STREET,GOCKI PARK,50.4428012910001,-104.586153046
,BALL DIAMOND,CONNAUGHT SCHOOL SW - BALL DIAMOND BS #124,2124 ELPHINSTONE STREET,CONNAUGHT SCHOOL SW,50.444115567,-104.632353806
,OUTDOOR RINK UNBOARDED,ST. FRANCIS PARK - OUTDOOR RINK UNBOARDED,6015 MIKKELSON DRIVE,ST. FRANCIS PARK,50.4652250950001,-104.667206425
,OUTDOOR RINK UNBOARDED,STEWART RUSSELL PARK - OUTDOOR RINK UNBOARDED,1912 E 7TH AVENUE,STEWART RUSSELL PARK,50.459029097,-104.556088586
,BALL DIAMOND,SHEPPARD PARK/GLADYS MCDONALD - BALL DIAMOND BS #251,255 N GARNET STREET,SHEPPARD PARK/GLADYS MCDONALD,50.4799555150001,-104.626332774
,PLAYGROUND,ST. PETER SCHOOL - PLAYGROUND 150 ARGYLE ST,150 ARGYLE STREET,ST. PETER SCHOOL,50.476411619,-104.633694054
,PLAYGROUND,DICKINSON PARK - PLAYGROUND 2010 12TH AVE N,2010 12TH AVENUE N,DICKINSON PARK,50.4966793900001,-104.610763401
,BASKETBALL,HOLY ROSARY SCHOOL - BASKETBALL,2160 CAMERON STREET,HOLY ROSARY SCHOOL,50.4441210210001,-104.626745221
,BALL DIAMOND,ST. FRANCIS SCHOOL SE - BALL DIAMOND BS #142,45 MIKKELSON DRIVE,ST. FRANCIS SCHOOL SE,50.464302423,-104.664863152
,PUBLIC ELEMENTARY SCHOOL,JACK MACKENZIE - PUBLIC ELEMENTARY SCHOOL,3860 BUCKINGHAM DRIVE,JACK MACKENZIE - PUBLIC ELEMENTARY SCHOOL,50.429849226,-104.528680286
,REC_NBHD FACILITY,REGINA SPORTPLEX  - REC_NBHD FACILITY,1717 ELPHINSTONE STREET,REGINA SPORTPLEX,50.451094949,-104.630229522
,PLAYGROUND,WILFRED WALKER SCHOOL - PLAYGROUND 2102 E WAGMAN DR,2102 E WAGMAN DRIVE,WILFRED WALKER SCHOOL,50.4396519030001,-104.552547913
,OUTDOOR POOL,MASSEY - OUTDOOR POOL,70 MASSEY ROAD,MASSEY,50.4134283010001,-104.610379116
,PARK WATER FEATURE,WASCANA VIEW PARK - PARK WATER FEATURE,3025 WASCANA CIRCLE,WASCANA VIEW PARK,50.421315254,-104.540843079
,BALL DIAMOND,RUTH PAWSON PARK - BALL DIAMOND BS #253,18 WEEKES CRESCENT,RUTH PAWSON PARK,50.4969183420001,-104.604915889
,ATHLETIC FIELD,HENRY JANZEN MULTI - ATHLETIC FIELD MULTI-USE ATHLETIC FIELD,280 RINK AVENUE,HENRY JANZEN MULTI,50.489942838,-104.656519636
,PLAYGROUND,W.S. HAWRYLAK SCHOOL - PLAYGROUND 2530 E ASSINIBOINE AVE,2530 E ASSINIBOINE AVENUE,W.S. HAWRYLAK SCHOOL,50.422413852,-104.547614291
,BALL DIAMOND,COVENTRY PARK - BALL DIAMOND BS #151,20 COVENTRY ROAD,COVENTRY PARK,50.4609079740001,-104.645774179
,BALL DIAMOND,ROSEMONT PARK - BALL DIAMOND BS #156,1101 WALKER STREET,ROSEMONT PARK,50.4609180530001,-104.661621866
,BALL DIAMOND,RAMBLER PARK  SLO PITCH SW - BALL DIAMOND BS #182 SLO PITCH SW,5215 13TH AVENUE,RAMBLER PARK  SLO PITCH SW,50.4437085470001,-104.660255263
,BASKETBALL,DR. A.E. PERRY SCHOOL - BASKETBALL,93 LINCOLN DRIVE,DR. A.E. PERRY SCHOOL,50.4023994030001,-104.632589079
,OUTDOOR RINK SHELTER,ASSINIBOINE PARK - OUTDOOR RINK SHELTER,3355 ROBINSON STREET,ASSINIBOINE PARK,50.425075076,-104.622675788
,PLAYGROUND,ST. JOSAPHAT SCHOOL N - PLAYGROUND 140 GREENWOOD CRES,140 GREENWOOD CRESCENT,ST. JOSAPHAT SCHOOL N,50.4762830780001,-104.680632769
,BASKETBALL,DAVIN SCHOOL - BASKETBALL,2401 RETALLACK STREET,DAVIN SCHOOL,50.4400933380001,-104.621915028
,PLAYGROUND,SHANNON PARK - PLAYGROUND 525 SHANNON RD,525 SHANNON ROAD,SHANNON PARK,50.3980452750001,-104.607543071
,ATHLETIC FIELD,RUGBY PARK NORTHWEST MULTI - ATHLETIC FIELD MULTI-USE ATHLETIC FIELD,4025 25TH AVENUE,RUGBY PARK NORTHWEST MULTI,50.417904938,-104.638010911
,BALL DIAMOND,BIRCHWOOD PARK NW - BALL DIAMOND BS #4,10 NORRIS ROAD,BIRCHWOOD PARK NW,50.401078167,-104.602463822
,OUTDOOR TENNIS,GARDINER PARK - OUTDOOR TENNIS,424 UNIVERSITY PARK DRIVE,GARDINER PARK,50.437594973,-104.553847355
,BASKETBALL,ST. JOSAPHAT SCHOOL PARK - BASKETBALL,140 GREENWOOD CRESCENT,ST. JOSAPHAT SCHOOL PARK,50.476101843,-104.680551997
,PLAYGROUND,CRESCENT PARK - PLAYGROUND 1109 E 14TH AVE,1109 E 14TH AVENUE,CRESCENT PARK,50.441755373,-104.566671697
,BALL DIAMOND,DAVIN SCHOOL - BALL DIAMOND BS #127,2401 RETALLACK STREET,DAVIN SCHOOL,50.4400872680001,-104.621739476
,PUBLIC ELEMENTARY SCHOOL,W. S. HAWRYLAK - PUBLIC ELEMENTARY SCHOOL,2530 E ASSINIBOINE AVENUE,W. S. HAWRYLAK - PUBLIC ELEMENTARY SCHOOL,50.4222211620001,-104.547291996
,FOUNTAIN,QUEEN ELIZABETH II COURT - FOUNTAIN,2476 VICTORIA AVENUE,QUEEN ELIZABETH II COURT,50.447530477,-104.615870263
,OUTDOOR RINK UNBOARDED,STAN OXELGREN PARK - OUTDOOR RINK UNBOARDED,126 SANGSTER BOULEVARD,STAN OXELGREN PARK,50.4896494370001,-104.633808691
,ATHLETIC FIELD,KINSMEN SOUTH SOCCER - ATHLETIC FIELD SOCCER ATHLETIC FIELD,3310 LAKEVIEW AVENUE,KINSMEN SOUTH SOCCER,50.423210199,-104.630976141
,PUBLIC ELEMENTARY SCHOOL,WASCANA - PUBLIC ELEMENTARY SCHOOL,4210 4TH AVENUE,WASCANA - PUBLIC ELEMENTARY SCHOOL,50.463737822,-104.642061475
,BALL DIAMOND,HOWELL PARK - BALL DIAMOND BS #102,2705 E HOWELL DRIVE,HOWELL PARK,50.4619401140001,-104.544819278
,OUTDOOR RINK SHELTER,DR. A.E. PERRY PARK - OUTDOOR RINK SHELTER,40 COWIE ROAD,DR. A.E. PERRY PARK,50.4021319390001,-104.633108386
,FIRE,FIRE HALL NO. 4,3855 DEWDNEY AVENUE,FIRE HALL,50.454999452,-104.636174038
,ATHLETIC FIELD,SHELDON WILLIAMS MULTI - ATHLETIC FIELD MULTI-USE ATHLETIC FIELD,2601 CORONATION STREET,SHELDON WILLIAMS MULTI,50.4364262700001,-104.63489309
,OUTDOOR RINK SHELTER,FUHRMANN PARK - OUTDOOR RINK SHELTER,170 FUHRMANN CRESCENT,FUHRMANN PARK,50.487005056,-104.657888577
,CURLING CLUB,CALEDONIAN - CURLING CLUB,2225 SANDRA SCHMIRLER WAY,CALEDONIAN,50.442761476,-104.651251101
,PLAYGROUND,ST. GREGORY PARK - PLAYGROUND 310 UPLAND DR,310 UPLAND DRIVE,ST. GREGORY PARK,50.4931444910001,-104.610260056
,ATHLETIC FIELD,PATRICIA PARK  - ATHLETIC FIELD SOCCER ATHLETIC FIELD,435 ELPHINSTONE STREET,PATRICIA PARK,50.4712393060001,-104.630476316
,PUBLIC ELEMENTARY SCHOOL,MACNEILL - PUBLIC ELEMENTARY SCHOOL,6215 WHELAN DRIVE,MACNEILL - PUBLIC ELEMENTARY SCHOOL,50.4982373620001,-104.670330608
,BALL DIAMOND,ST. PETER SCHOOL - BALL DIAMOND BS #260,150 ARGYLE STREET,ST. PETER SCHOOL,50.4761723500001,-104.635096019
,PLAYGROUND,ST. GABRIEL - PLAYGROUND 3860 BUCKINGHAM DRIVE,3860 BUCKINGHAM DRIVE,ST. GABRIEL,50.430290621,-104.527342182
,PLAYGROUND,CONNAUGHT SCHOOL - PLAYGROUND 2124 ELPHINSTONE ST,2124 ELPHINSTONE STREET,CONNAUGHT SCHOOL,50.4452699180001,-104.632325819
,OUTDOOR TENNIS,BALFOUR HIGH SCHOOL - OUTDOOR TENNIS,1245 COLLEGE AVENUE,BALFOUR HIGH SCHOOL,50.4394429450001,-104.600252794
,ATHLETIC FIELD,CRESCENT PARK - ATHLETIC FIELD SOCCER ATHLETIC FIELD,1109 E 14TH AVENUE,CRESCENT PARK,50.4421008,-104.567495587
,BALL DIAMOND,BENSON PARK - BALL DIAMOND BS #179,4550 8TH AVENUE,BENSON PARK,50.4577352310001,-104.64570066
,OUTDOOR RINK UNBOARDED,KEN JENKINS PARK - OUTDOOR RINK UNBOARDED,5382 2ND AVENUE N,KEN JENKINS PARK,50.4733881510001,-104.657529235
,BALL DIAMOND,PACERS SPORTS PARK  ROOKIES 1 - BALL DIAMOND,5000 E ARCOLA AVENUE,PACERS SPORTS PARK  ROOKIES 1,50.4127004580001,-104.503967238
,BALL DIAMOND,SACRED HEART SCHOOL - BALL DIAMOND,1314 ELPHINSTONE STREET,SACRED HEART SCHOOL,50.457379555,-104.632359744
,OUTDOOR TENNIS,THOM COLLEGIATE - OUTDOOR TENNIS,265 N ARGYLE STREET,THOM COLLEGIATE,50.4803503160001,-104.630727865
,BALL DIAMOND,OPTIMIST PARK - BALL DIAMOND BS #178,5325 DEWDNEY AVENUE,OPTIMIST PARK,50.454651803,-104.656104143
,SEPARATE ELEMENTARY SCHOOL,JEAN VANIER - SEPARATE ELEMENTARY SCHOOL,2343 EDGAR STREET,JEAN VANIER - SEPARATE ELEMENTARY SCHOOL,50.441783323,-104.586482351
,PLAYGROUND,JUNIPER PARK - PLAYGROUND 1000 STOCKTON ST,1000 STOCKTON STREET,JUNIPER PARK,50.494459905,-104.647185183
,ATHLETIC FIELD,RICHARDSON PARK - ATHLETIC FIELD SOCCER ATHLETIC FIELD,156 SHANNON ROAD,RICHARDSON PARK,50.398387277,-104.614866873
,WASCANA CENTRE,TC DOUGLAS BUILDING AND MACKENZIE ART GALLERY,3475 ALBERT STREET,WASCANA CENTRE,50.425139942,-104.616403198
,PLAYGROUND,HALIFAX/2ND AVE. NORTH PARK - PLAYGROUND 402 HALIFAX ST,404 HALIFAX STREET,HALIFAX/2ND AVE. NORTH PARK,50.4721800020001,-104.603885388
,BALL DIAMOND,IMPERIAL SCHOOL - BALL DIAMOND BS #249,200 BROAD STREET,IMPERIAL SCHOOL,50.4748920690001,-104.608916032
,ARENA,AL RITCHIE MEMORIAL - ARENA,2230 LINDSAY STREET,AL RITCHIE MEMORIAL,50.4436710530001,-104.585880706
,BASKETBALL,ST. MICHAEL SCHOOL - BASKETBALL,431 HAMILTON STREET,ST. MICHAEL SCHOOL,50.471986412,-104.6087863
,BALL DIAMOND,STEWART RUSSELL SCHOOL SOUTH - BALL DIAMOND BS #111,1920 E 7TH AVENUE,STEWART RUSSELL SCHOOL SOUTH,50.4590702360001,-104.555096549
,BALL DIAMOND,COLUMBUS PARK SSW - BALL DIAMOND BS #54,4235 MCCALLUM AVENUE,COLUMBUS PARK SSW,50.431523934,-104.642247385
,OUTDOOR TENNIS,HIND PARK - OUTDOOR TENNIS,20 HIND STREET,HIND PARK,50.4859185330001,-104.68076815
,UNIVERSITY OF REGINA,LIBRARY BUILDING,3769 WASCANA PARKWAY,UNIVERSITY OF REGINA,50.4188876850001,-104.590266864
,SEASONAL WASHROOM,KINSMEN PARK SOUTH - SEASONAL WASHROOM,3310 LAKEVIEW AVENUE,KINSMEN PARK SOUTH,50.42347355,-104.632622697
,ATHLETIC FIELD,LUCY ELEY PARK - ATHLETIC FIELD SOCCER ATHLETIC FIELD,1955 RETALLACK STREET,LUCY ELEY PARK,50.4480597450001,-104.62172083
,BALL DIAMOND,DOUGLAS PARK NW - BALL DIAMOND BS #106,3025 MCDONALD STREET,DOUGLAS PARK NW,50.4280189090001,-104.582559055
,PLAYGROUND,MERLIN PARK 3 - PLAYGROUND 35 LAWSON ST,35 LAWSON STREET,MERLIN PARK 3,50.484287405,-104.624830859
,PUBLIC ELEMENTARY SCHOOL,ELSIE MIRONUK - PUBLIC ELEMENTARY SCHOOL,20 WAKEFIELD CRESCENT,ELSIE MIRONUK - PUBLIC ELEMENTARY SCHOOL,50.4787028140001,-104.649486508
,PLAYGROUND,EASTVIEW PARK - PLAYGROUND 945 BRODER ST,945 BRODER STREET,EASTVIEW PARK,50.463466758,-104.590294927
,PUBLIC ELEMENTARY SCHOOL,ARGYLE - PUBLIC ELEMENTARY SCHOOL,2941 LAKEVIEW AVENUE,ARGYLE - PUBLIC ELEMENTARY SCHOOL,50.4207590760001,-104.625923203
,PUBLIC HIGH SCHOOL,F. W. JOHNSON COLLEGIATE - PUBLIC HIGH SCHOOL,400 FINES DRIVE,F. W. JOHNSON COLLEGIATE - PUBLIC HIGH SCHOOL,50.4503126160001,-104.546707183
,OUTDOOR RINK OTHER,SPEED SKATING OVAL - OUTDOOR RINK OTHER,555 N MONTREAL STREET,SPEED SKATING OVAL,50.485602611,-104.596899679
,OUTDOOR RINK UNBOARDED,CRESCENT PARK - OUTDOOR RINK UNBOARDED,1109 E 14TH AVENUE,CRESCENT PARK,50.441618185,-104.567631062
,OUTDOOR TENNIS,SCOTT COLLEGIATE - OUTDOOR TENNIS,3350 7TH AVENUE,SCOTT COLLEGIATE,50.458562902,-104.630367514
,WASCANA CENTRE,CNIB BUILDING,2550 BROAD STREET,WASCANA CENTRE,50.438266625,-104.607536095
,PLAYGROUND,LAKERIDGE MR8 - PLAYGROUND 4527 ELLARD WAY,4527 ELLARD WAY,LAKERIDGE MR8,50.5040879040001,-104.646349885
,ATHLETIC FIELD,CORONATION PARK SCHOOL - ATHLETIC FIELD SOCCER ATHLETIC FIELD,3105 4TH AVENUE N,CORONATION PARK SCHOOL,50.4751268940001,-104.624238339
,PLAYGROUND,DOUGLAS PARK SCHOOL S - PLAYGROUND 621 E DOUGLAS AVE,635 E DOUGLAS AVENUE,DOUGLAS PARK SCHOOL S,50.4325766590001,-104.574431255
,BALL DIAMOND,ST. FRANCIS PARK NW - BALL DIAMOND BS #157,6015 MIKKELSON DRIVE,ST. FRANCIS PARK NW,50.4648234210001,-104.668087573
,OUTDOOR RINK SHELTER,DIEPPE SCHOOL - OUTDOOR RINK SHELTER,145 DOROTHY STREET,DIEPPE SCHOOL,50.459317834,-104.680872497
,ATHLETIC FIELD,ST. MARY SCHOOL - ATHLETIC FIELD SOCCER ATHLETIC FIELD,140 N MCINTOSH STREET,ST. MARY SCHOOL,50.4783856560001,-104.654740893
,HOSPITAL,WASCANA REHABILITATION CENTRE,2180 23RD AVENUE,WASCANA REHABILITATION CENTRE,50.425060998,-104.611157576
,OUTDOOR TENNIS,MARTIN COLLEGIATE - OUTDOOR TENNIS,1100 MCINTOSH STREET,MARTIN COLLEGIATE,50.46191988,-104.654989862
,ATHLETIC FIELD,CAMPBELL COLLEGIATE - ATHLETIC FIELD SOCCER ATHLETIC FIELD,102 MASSEY ROAD,CAMPBELL COLLEGIATE,50.4117754370001,-104.611016022
,PUBLIC ELEMENTARY SCHOOL,HENRY JANZEN - PUBLIC ELEMENTARY SCHOOL,222 RINK AVENUE,HENRY JANZEN - PUBLIC ELEMENTARY SCHOOL,50.488622638,-104.657010378
,BALL DIAMOND,PACERS SPORTS PARK  ROOKIES 2 - BALL DIAMOND,5000 E ARCOLA AVENUE,PACERS SPORTS PARK  ROOKIES 2,50.4118499620001,-104.503928593
,WASCANA CENTRE,WASCANA SWIMMING POOL,2355 COLLEGE AVENUE,WASCANA CENTRE,50.4385126500001,-104.613104867
,PUBLIC ELEMENTARY SCHOOL,CORONATION PARK - PUBLIC ELEMENTARY SCHOOL,3105 4TH AVENUE N,CORONATION PARK - PUBLIC ELEMENTARY SCHOOL,50.475019257,-104.624624673
,BALL DIAMOND,READY PARK/ST. MARGUERITE - BALL DIAMOND BS #70,3043 E ARENS ROAD,READY PARK/ST. MARGUERITE,50.43700992,-104.540858123
,BALL DIAMOND,HAULTAIN SCHOOL - BALL DIAMOND BS #291,1033 EDGAR STREET,HAULTAIN SCHOOL,50.4615688750001,-104.587707386
,ATHLETIC FIELD,KEN JENKINS SOCCER - ATHLETIC FIELD SOCCER ATHLETIC FIELD,210 MCINTOSH STREET,KEN JENKINS SOCCER,50.4743127470001,-104.656342178
,PUBLIC HIGH SCHOOL,MARTIN COLLEGIATE - PUBLIC HIGH SCHOOL,1100 MCINTOSH STREET,MARTIN COLLEGIATE - PUBLIC HIGH SCHOOL,50.4617787620001,-104.654584539
,BALL DIAMOND,EASTVIEW PARK - BALL DIAMOND,945 BRODER STREET,EASTVIEW PARK,50.465269354,-104.590657191
,PLAYGROUND,WASCANA VIEW PARK - PLAYGROUND 3025 WASCANA CIR,9401 WASCANA MEWS,WASCANA VIEW PARK,50.416827342,-104.541252171
,PLAYGROUND,ELSIE MIRONUCK SCHOOL - PLAYGROUND 20 WAKEFIELD CRES,20 WAKEFIELD CRESCENT,ELSIE MIRONUCK SCHOOL,50.478366404,-104.649240119
,BASKETBALL,WILFRED HUNT SCHOOL - BASKETBALL,101 MAYFIELD ROAD,WILFRED HUNT SCHOOL,50.4297448470001,-104.562750339
,FIRE,FIRE HALL NO. 3,2640 31ST AVENUE,TOM YARNTON FIRE HALL,50.4104556010001,-104.619450144
,UNIVERSITY OF REGINA,SIFC BUILDING,1 FIRST NATIONS WAY,UNIVERSITY OF REGINA,50.4193727570001,-104.582141362
,ATHLETIC FIELD,MOUNT PLEASANT SOUTH SOCCER - ATHLETIC FIELD SOCCER ATHLETIC FIELD,750 N WINNIPEG STREET,MOUNT PLEASANT SOUTH SOCCER,50.489543144,-104.595894971
,PLAYGROUND,GLEN ELM PARK SE - PLAYGROUND 1501 BOND ST,1601 BOND STREET,GLEN ELM PARK SE,50.452798435,-104.565300948
,SIAST CAMPUS,SIAST PARKING STRUCTURE,4500 WASCANA PARKWAY,SIAST CAMPUS,50.407561189,-104.580639553
,BALL DIAMOND,ST. THERESA SCHOOL - BALL DIAMOND BS #86,2707 E 7TH AVENUE,ST. THERESA SCHOOL,50.4578051600001,-104.543922834
,BASKETBALL,CONNAUGHT SCHOOL - BASKETBALL,2124 ELPHINSTONE STREET,CONNAUGHT SCHOOL,50.4446549250001,-104.632136389
,BALL DIAMOND,RAMBLER PARK  FASTBALL E - BALL DIAMOND FASTBALL NEE (CANADA GAMES 2005 DIAMOND),5215 13TH AVENUE,RAMBLER PARK  FASTBALL E,50.4449105310001,-104.655227436
,OUTDOOR RINK BOARDED,GLENCAIRN PARK - OUTDOOR RINK BOARDED,2626 E DEWDNEY AVENUE,GLENCAIRN PARK,50.4568764300001,-104.541382455
,BALL DIAMOND,ST. JOSAPHAT SCHOOL PARK NW - BALL DIAMOND BS #209,110 GREENWOOD CRESCENT,ST. JOSAPHAT SCHOOL PARK NW,50.4770911210001,-104.681063087
,PLAYGROUND,ROSEMONT SCHOOL - PLAYGROUND 841 HORACE ST,841 HORACE STREET,ROSEMONT SCHOOL,50.464030054,-104.658726869
,OUTDOOR RINK SHELTER,DAVIN SCHOOL - OUTDOOR RINK SHELTER,2401 RETALLACK STREET,DAVIN SCHOOL,50.439685974,-104.621502928
,CURLING CLUB,HIGHLAND - CURLING CLUB,348 BROAD STREET,HIGHLAND,50.472974251,-104.607207533
,PLAYGROUND,SANDRA SCHMIRLER TOT LOT - PLAYGROUND 3130 E WOODHAMS DR,3130 E WOODHAMS DRIVE,SANDRA SCHMIRLER TOT LOT,50.4298474860001,-104.536040633
,SANITARY LANDFILL,SANITARY LANDFILL,1101 N FLEET STREET,SANITARY LANDFILL,50.4906698670001,-104.547939394
,PLAYGROUND,PEART PARK - PLAYGROUND 2851 OTTAWA ST,2851 OTTAWA STREET,PEART PARK,50.4349677850001,-104.600234901
,ATHLETIC FIELD,ROSEMONT SCHOOL - ATHLETIC FIELD SOCCER ATHLETIC FIELD,841 HORACE STREET,ROSEMONT SCHOOL,50.4636885230001,-104.657633688
,LIBRARY,CENTRAL LIBRARY,2311 12TH AVENUE,CENTRAL LIBRARY,50.448463571,-104.614415989
,BALL DIAMOND,STEWART RUSSELL SCHOOL NORTH - BALL DIAMOND BS #90,1912 E 7TH AVENUE,STEWART RUSSELL SCHOOL NORTH,50.4602300190001,-104.556031698
,BASKETBALL,ALBERT SCHOOL - BASKETBALL,1340 ROBINSON STREET,ALBERT SCHOOL,50.457636429,-104.624586921
,PLAYGROUND,LAKEVIEW PARK - PLAYGROUND 2910 ATHOL ST,2910 ATHOL STREET,LAKEVIEW PARK,50.4321817430001,-104.628411386
,ATHLETIC FIELD,MCLURG SCHOOL - ATHLETIC FIELD SOCCER ATHLETIC FIELD,125 PAYNTER CRESCENT,MCLURG SCHOOL,50.4727560570001,-104.679222932
,LIBRARY,REGENT PLACE BRANCH LIBRARY,107 ALBERT STREET,REGENT PLACE BRANCH LIBRARY,50.4766849410001,-104.61732358
,BALL DIAMOND,LEWVAN FIELDS/ST. JAMES PARK - BALL DIAMOND BS #164,4315 COLLEGE AVENUE,LEWVAN FIELDS/ST. JAMES PARK,50.440600051,-104.642664894
,PUBLIC ELEMENTARY SCHOOL,CONNAUGHT - PUBLIC ELEMENTARY SCHOOL,2124 ELPHINSTONE STREET,CONNAUGHT - PUBLIC ELEMENTARY SCHOOL,50.4444812260001,-104.631793037
,BALL DIAMOND,DOUGLAS PARK NE - BALL DIAMOND BS #105,3025 MCDONALD STREET,DOUGLAS PARK NE,50.4280322380001,-104.58102503
,PLAYGROUND,HENRY BRAUN SCHOOL - PLAYGROUND 710 GRAHAM RD,710 GRAHAM ROAD,HENRY BRAUN SCHOOL,50.4623591530001,-104.535616323
,UNIVERSITY OF REGINA,CLASSROOMS,3769 WASCANA PARKWAY,UNIVERSITY OF REGINA,50.4192804480001,-104.591433325
,OUTDOOR RINK BOARDED,UNIVERSITY PARK - OUTDOOR RINK BOARDED,165 WINDFIELD ROAD,UNIVERSITY PARK,50.4314422030001,-104.563248886
,BASKETBALL,COCHRANE HIGH SCHOOL - BASKETBALL,1069 E 14TH AVENUE,COCHRANE HIGH SCHOOL,50.4436361480001,-104.567202929
,BASKETBALL,MACNEILL SCHOOL - BASKETBALL,6215 WHELAN DRIVE,MACNEILL SCHOOL,50.4982132150001,-104.671010262
,BASKETBALL,WESTHILL PARK - BASKETBALL,8103 SHERWOOD DRIVE,WESTHILL PARK,50.480082021,-104.699807772
,WASCANA CENTRE,COMMUNITY GARDENS BUILDING,3303 GRANT ROAD,WASCANA CENTRE,50.407021349,-104.597578929
,SEPARATE ELEMENTARY SCHOOL,ST. AUGUSTINE - SEPARATE ELEMENTARY SCHOOL,2343 EDGAR STREET,ST. AUGUSTINE - SEPARATE ELEMENTARY SCHOOL,50.4418271500001,-104.5873638
,MALL,AVON SHOPPING CENTRE,2601 AVONHURST DRIVE,AVON SHOPPING CENTRE,50.4699944850001,-104.620654135
,LIBRARY,SHERWOOD VILLAGE BRANCH LIBRARY,6121 ROCHDALE BOULEVARD,SHERWOOD VILLAGE BRANCH LIBRARY,50.4952176800001,-104.668969037
,SEPARATE ELEMENTARY SCHOOL,ST. ANDREW - SEPARATE ELEMENTARY SCHOOL,535 E DOUGLAS AVENUE,ST. ANDREW - SEPARATE ELEMENTARY SCHOOL,50.4322614170001,-104.576743486
,BASKETBALL,ST. THERESA SCHOOL - BASKETBALL,2707 E 7TH AVENUE,ST. THERESA SCHOOL,50.458038511,-104.543315501
,OUTDOOR POOL,MAPLE LEAF - OUTDOOR POOL,1120 14TH AVENUE,MAPLE LEAF,50.4443705100001,-104.596642584
,SEPARATE ELEMENTARY SCHOOL,ST. JOSAPHAT - SEPARATE ELEMENTARY SCHOOL,140 GREENWOOD CRESCENT,ST. JOSAPHAT - SEPARATE ELEMENTARY SCHOOL,50.47589643,-104.680676081
,ATHLETIC FIELD,A.E. WILSON SOCCER - ATHLETIC FIELD SOCCER ATHLETIC FIELD,1010 MCCARTHY BOULEVARD,A.E. WILSON SOCCER,50.4575508130001,-104.675264306
,WASCANA CENTRE,ROYAL SASKATCHEWAN MUSEUM,2445 ALBERT STREET,WASCANA CENTRE,50.4397553420001,-104.616577752
,BALL DIAMOND,GLENCAIRN PARK/JUDGE BRYANT - BALL DIAMOND,2626 E DEWDNEY AVENUE,GLENCAIRN PARK/JUDGE BRYANT,50.4564448560001,-104.542115466
,PUBLIC ELEMENTARY SCHOOL,REGINA CHRISTIAN - PUBLIC ELEMENTARY SCHOOL,2505 23RD AVENUE,REGINA CHRISTIAN - PUBLIC ELEMENTARY SCHOOL,50.4223121040001,-104.616693528
,ATHLETIC FIELD,RUGBY PARK SOUTHWEST MULTI - ATHLETIC FIELD MULTI-USE ATHLETIC FIELD,4025 25TH AVENUE,RUGBY PARK SOUTHWEST MULTI,50.4167530510001,-104.637436765
,OUTDOOR RINK SHELTER,M.J. COLDWELL PARK - OUTDOOR RINK SHELTER,115 FAIRVIEW ROAD,M.J. COLDWELL PARK,50.4897918650001,-104.610706558
,SEPARATE ELEMENTARY SCHOOL,ST. CATHERINE - SEPARATE ELEMENTARY SCHOOL,150 BROTHERTON AVENUE,ST. CATHERINE - SEPARATE ELEMENTARY SCHOOL,50.4530675250001,-104.553809426
,LIBRARY,PRINCE OF WALES BRANCH LIBRARY,2188 BRODER STREET,PRINCE OF WALES BRANCH LIBRARY,50.4441272590001,-104.591239923
,BALL DIAMOND,GEORGE LEE SCHOOL - BALL DIAMOND BS #199,180 WELLS STREET,GEORGE LEE SCHOOL,50.48904679,-104.648825534
,BALL DIAMOND,PARKDALE PARK - BALL DIAMOND BS #155,901 PRINCESS STREET,PARKDALE PARK,50.4642871190001,-104.6343493
,OUTDOOR RINK SHELTER,MCMURCHY PARK - OUTDOOR RINK SHELTER,250 N GARNET STREET,MCMURCHY PARK,50.479827346,-104.62849451
,BALL DIAMOND,DR. A.E. PERRY PARK - BALL DIAMOND BS #32,40 COWIE ROAD,DR. A.E. PERRY PARK,50.4012677910001,-104.63237819
,OTHER SCHOOL,LUTHER HIGH SCHOOL - 1500 ROYAL ST.,1550 ROYAL STREET,LUTHER HIGH SCHOOL - 1500 ROYAL ST.,50.4538920620001,-104.651721358
,OUTDOOR TENNIS,VARSITY PARK - OUTDOOR TENNIS,2635 E PHILIP ROAD,VARSITY PARK,50.4233110980001,-104.54659212
,BASKETBALL,ST. GABRIEL - BASKETBALL,3860 BUCKINGHAM DRIVE,ST. GABRIEL,50.4304968920001,-104.527223527
,BALL DIAMOND,GRASSICK PLAYGROUND - BALL DIAMOND BS #154,901 GARNET STREET,GRASSICK PLAYGROUND,50.4631893530001,-104.626485222
,BALL DIAMOND,QUEEN ST. PARK/ETHEL MILLIKEN - BALL DIAMOND BS #30 (AKA=ETHEL MILLIKEN SCHOOL),4410 QUEEN STREET,QUEEN ST. PARK/ETHEL MILLIKEN,50.4095780320001,-104.637649369
,BASKETBALL,LAKEVIEW SCHOOL - BASKETBALL,3100 20TH AVENUE,LAKEVIEW SCHOOL,50.4327208380001,-104.626506071
,OUTDOOR RINK UNBOARDED,MCVEETY PARK - OUTDOOR RINK UNBOARDED,1851 JUBILEE AVENUE,MCVEETY PARK,50.4205225010001,-104.606946825
,OUTDOOR RINK UNBOARDED,ROSEMONT SCHOOL PARK - OUTDOOR RINK UNBOARDED,5310 4TH AVENUE,ROSEMONT SCHOOL PARK,50.463115079,-104.656659073
,ATHLETIC FIELD,BALFOUR HIGH SCHOOL - ATHLETIC FIELD SOCCER ATHLETIC FIELD,1245 COLLEGE AVENUE,BALFOUR HIGH SCHOOL,50.4383093880001,-104.599468576
,BASKETBALL,CENTENNIAL SCHOOL - BASKETBALL,6903 DALGLIESH DRIVE,CENTENNIAL SCHOOL,50.4912495620001,-104.680725887
,ATHLETIC FIELD,ARGYLE SCHOOL - ATHLETIC FIELD SOCCER ATHLETIC FIELD,2941 LAKEVIEW AVENUE,ARGYLE SCHOOL,50.4205793960001,-104.625877677
,SPRAYPAD,EASTVIEW PARK - SPRAYPAD 945 BRODER ST @ 4TH AVE,945 BRODER STREET,EASTVIEW PARK,50.4636149680001,-104.590474488
,BASKETBALL,IMPERIAL SCHOOL - BASKETBALL,200 BROAD STREET,IMPERIAL SCHOOL,50.475435712,-104.607673139
,ATHLETIC FIELD,ST. GREGORY MULTI - ATHLETIC FIELD MULTI-USE ATHLETIC FIELD,310 UPLAND DRIVE,ST. GREGORY MULTI,50.493219175,-104.611296157
,OUTDOOR RINK SHELTER,WESTHILL/JOANNE GOULET GOLF COURSE - OUTDOOR RINK SHELTER,8045 KESTRAL DRIVE,WESTHILL/JOANNE GOULET GOLF COURSE,50.4781663520001,-104.696905078
,BASKETBALL,WASCANA SCHOOL - BASKETBALL,4210 4TH AVENUE,WASCANA SCHOOL,50.4640039770001,-104.641702384
,PLAYGROUND,BENSON PARK - PLAYGROUND 4550 8TH AVE,4550 8TH AVENUE,BENSON PARK,50.4570381190001,-104.646454541
,PLAYGROUND,MCLURG SCHOOL - PLAYGROUND 125 PAYNTER CRES,125 PAYNTER CRESCENT,MCLURG SCHOOL,50.4730123880001,-104.680323128
,BALL DIAMOND,ST. BERNADETTE SCHOOL - BALL DIAMOND BS #205,727 N MCINTOSH STREET,ST. BERNADETTE SCHOOL,50.488503253,-104.651458276
,BALL DIAMOND,RAMBLER PARK  FASTBALL SWW - BALL DIAMOND,5215 13TH AVENUE,RAMBLER PARK  FASTBALL SWW,50.4432711310001,-104.663182554
,BALL DIAMOND,THOMSON SCHOOL - BALL DIAMOND BS #88,2033 TORONTO STREET,THOMSON SCHOOL,50.4457054900001,-104.597978082
,BALL DIAMOND,COLUMBUS PARK SW - BALL DIAMOND BS #53,2940 PASQUA STREET,COLUMBUS PARK SW,50.4318411,-104.642542075
,SEPARATE ELEMENTARY SCHOOL,ST. MICHAEL - SEPARATE ELEMENTARY SCHOOL,431 HAMILTON STREET,ST. MICHAEL - SEPARATE ELEMENTARY SCHOOL,50.4717933270001,-104.608511576
,OTHER SCHOOL,SASKATCHEWAN INSTITUTE OF APPLIED ARTS SCIENCES AND TECHNOLOGY (S.I.A.S.T.) - WASCANA PARKWAY,4500 WASCANA PARKWAY,SASKATCHEWAN INSTITUTE OF APPLIED ARTS SCIENCES AND TECHNOLOGY (S.I.A.S.T.) - WASCANA PARKWAY,50.406753392,-104.582479866
,BALL DIAMOND,HERCHMER SCHOOL S - BALL DIAMOND BS #133,1132 MCTAVISH STREET,HERCHMER SCHOOL S,50.4600088480001,-104.634367307
,SPRAYPAD,VARSITY PARK - SPRAYPAD 2635 E PHILIP RD,2635 E PHILIP ROAD,VARSITY PARK,50.4229486440001,-104.546731948
,OUTDOOR RINK SHELTER,MOUNT PLEASANT SPORT PARK - OUTDOOR RINK SHELTER,555 N MONTREAL STREET,MOUNT PLEASANT SPORT PARK,50.4861084020001,-104.597285075
,BALL DIAMOND,ATHABASCA SCHOOL - BALL DIAMOND BS #57,3901 PRINCESS DRIVE,ATHABASCA SCHOOL,50.43572285,-104.639054622
,PLAYGROUND,OLD #1 FIREHALL - PLAYGROUND 1654 11TH AVENUE,1654 11TH AVENUE,OLD #1 FIREHALL,50.4506730850001,-104.604686809
,ATHLETIC FIELD,TURNER PARK - ATHLETIC FIELD SOCCER ATHLETIC FIELD,130 BENTLEY DRIVE,TURNER PARK,50.453873048,-104.545902185
,ATHLETIC FIELD,JUNIPER PARK - ATHLETIC FIELD,1000 STOCKTON STREET,JUNIPER PARK,50.494375732,-104.646211509
,PUBLIC HIGH SCHOOL,BALFOUR COLLEGIATE - PUBLIC HIGH SCHOOL,1245 COLLEGE AVENUE,BALFOUR COLLEGIATE - PUBLIC HIGH SCHOOL,50.4396633110001,-104.59910732
,PLAYGROUND,ST. MATTHEW SCHOOL - PLAYGROUND 4710 CASTLE RD,4710 CASTLE ROAD,ST. MATTHEW SCHOOL,50.4046517090001,-104.604824477
,SPRAYPAD,IMPERIAL PARK - SPRAYPAD 305 ROSE ST,305 ROSE STREET,IMPERIAL PARK,50.4737275900001,-104.607624247
,OUTDOOR SKATEBOARD PARK,REGINA SKATEPLAZA - OUTDOOR SKATEBOARD PARK,2901 POWERHOUSE DRIVE,REGINA SKATEPLAZA,50.433436956,-104.593782699
,ATHLETIC FIELD,CRAIGIE PARK  - ATHLETIC FIELD SOCCER ATHLETIC FIELD,40 TREMAINE AVENUE,CRAIGIE PARK,50.4926390670001,-104.644772323
,OUTDOOR RINK SHELTER,BLOCK 11B PARK - OUTDOOR RINK SHELTER,945 REYNOLDS STREET,BLOCK 11B PARK,50.463495214,-104.588895982
,BALL DIAMOND,KIWANIS WATERFALL PARK NW - BALL DIAMOND BS #50,2755 ELPHINSTONE STREET,KIWANIS WATERFALL PARK NW,50.4384784150001,-104.63023725
,PLAYGROUND,DR. GEORGE FERGUSON PARK W - PLAYGROUND 129 BROTHERTON AVE,117 BROTHERTON AVENUE,DR. GEORGE FERGUSON PARK W,50.45138733,-104.556839106
,PLAYGROUND,ST. MARY SCHOOL - PLAYGROUND 140 N MCINTOSH ST,140 N MCINTOSH STREET,ST. MARY SCHOOL,50.4780454360001,-104.653483193
,OUTDOOR RINK SHELTER,MABLE BROWN PARK - OUTDOOR RINK SHELTER,255 MIKKELSON DRIVE,MABLE BROWN PARK,50.466579251,-104.681934183
,PLAYGROUND,RICK HANSEN OPTIMIST - PLAYGROUND 1010 MCCARTHY BLVD,1010 MCCARTHY BOULEVARD,RICK HANSEN OPTIMIST,50.4600718240001,-104.675573891
,PLAYGROUND,REALTORS PARK - PLAYGROUND 4310 MONTAGUE ST,4310 MONTAGUE STREET,REALTORS PARK,50.4095704320001,-104.631960887
,BALL DIAMOND,MAPLE RIDGE PARK/ST. ANGELA - BALL DIAMOND BS #216,6749 MAPLE RIDGE DRIVE,MAPLE RIDGE PARK/ST. ANGELA,50.5001105950001,-104.679322972
,OTHER SCHOOL,FIRST NATIONS UNIVERSITY OF CANADA - REGINA,1 FIRST NATIONS WAY,FIRST NATIONS UNIVERSITY OF CANADA - REGINA,50.418530553,-104.583161873
,BALL DIAMOND,GLEN ELM PARK - BALL DIAMOND BS #67,1601 BOND STREET,GLEN ELM PARK,50.452520211,-104.56758977
,UNIVERSITY OF REGINA,MAINTENANCE BUILDING,3769 WASCANA PARKWAY,UNIVERSITY OF REGINA,50.4144485410001,-104.588360166
,WASCANA CENTRE,WINTER WATERFOWL DISPLAY BUILDING,520 E ASSINIBOINE AVENUE,WASCANA CENTRE,50.4245591870001,-104.577289231
,BALL DIAMOND,RAMBLER PARK  BASEBALL NWW - BALL DIAMOND,5215 13TH AVENUE,RAMBLER PARK  BASEBALL NWW,50.444857181,-104.662298384
,BALL DIAMOND,ST. FRANCIS PARK SE - BALL DIAMOND BS #160,6015 MIKKELSON DRIVE,ST. FRANCIS PARK SE,50.4640682240001,-104.66796385
,PLAYGROUND,AL PICKARD PARK - PLAYGROUND 343 N PICKARD ST,343 N PICKARD STREET,AL PICKARD PARK,50.482248295,-104.657009544
,ATHLETIC FIELD,DOMINION PARK  - ATHLETIC FIELD SOCCER ATHLETIC FIELD,2735 LACON STREET,DOMINION PARK,50.4353909490001,-104.568846786
,ATHLETIC FIELD,MILLER MULTI - ATHLETIC FIELD MULTI-USE ATHLETIC FIELD,1027 COLLEGE AVENUE,MILLER MULTI,50.4388100040001,-104.596893905
,BALL DIAMOND,MCDERMID SCHOOL - BALL DIAMOND BS #250,139 TORONTO STREET,MCDERMID SCHOOL,50.4758267320001,-104.597049617
,OUTDOOR RINK BOARDED,LESLIE PARK - OUTDOOR RINK BOARDED,3820 VICTORIA AVENUE,LESLIE PARK,50.447841462,-104.634710044
,OUTDOOR RINK UNBOARDED,GRASSICK PLAYGROUND - OUTDOOR RINK UNBOARDED,901 GARNET STREET,GRASSICK PLAYGROUND,50.4640838660001,-104.626028245
,ATHLETIC FIELD,ARCOLA SCHOOL  - ATHLETIC FIELD,2301 ABBOTT ROAD,ARCOLA SCHOOL,50.4426678400001,-104.575905053
,OUTDOOR RINK UNBOARDED,AL PICKARD PARK - OUTDOOR RINK UNBOARDED,343 N PICKARD STREET,AL PICKARD PARK,50.482670177,-104.65716307
,OUTDOOR RINK BOARDED,ROSEMONT SCHOOL PARK - OUTDOOR RINK BOARDED,5310 4TH AVENUE,ROSEMONT SCHOOL PARK,50.4634386330001,-104.656584149
,PUBLIC ELEMENTARY SCHOOL,RUTH PAWSON - PUBLIC ELEMENTARY SCHOOL,40 WEEKES CRESCENT,RUTH PAWSON - PUBLIC ELEMENTARY SCHOOL,50.496132318,-104.605260753
,ATHLETIC FIELD,DIEPPE SCHOOL - ATHLETIC FIELD SOCCER ATHLETIC FIELD,145 DOROTHY STREET,DIEPPE SCHOOL,50.458705836,-104.679652366
,PUBLIC ELEMENTARY SCHOOL,IMPERIAL - PUBLIC ELEMENTARY SCHOOL,200 BROAD STREET,IMPERIAL - PUBLIC ELEMENTARY SCHOOL,50.4754887390001,-104.60793896
,BALL DIAMOND,DOUGLAS PARK SCHOOL NE - BALL DIAMOND BS #64,635 E DOUGLAS AVENUE,DOUGLAS PARK SCHOOL NE,50.431945693,-104.573331628
,BALL DIAMOND,L'ARCHE PARK/ARGYLE SCHOOL - BALL DIAMOND BS #1,3215 LAKEVIEW AVENUE,L'ARCHE PARK/ARGYLE SCHOOL,50.420698562,-104.626741578
,PLAYGROUND,GRANT ROAD SCHOOL - PLAYGROUND 2501 GRANT RD,2501 GRANT ROAD,GRANT ROAD SCHOOL,50.4029937080001,-104.61222619
,PLAYGROUND,ROTHWELL PARK - PLAYGROUND 1201 ROTHWELL ST,1201 ROTHWELL STREET,ROTHWELL PARK,50.45867302,-104.57010765
,BALL DIAMOND,DOVER PARK - BALL DIAMOND,1250 DOVER AVENUE,DOVER PARK,50.482890803,-104.597581631
,ATHLETIC FIELD,REALTORS EAST SOCCER - ATHLETIC FIELD SOCCER ATHLETIC FIELD,4310 MONTAGUE STREET,REALTORS EAST SOCCER,50.4100781660001,-104.630890803
,SEPARATE HIGH SCHOOL,ARCHBISHOP M.C. O'NEILL HIGH SCHOOL - SEPARATE HIGH SCHOOL,134 ARGYLE STREET,ARCHBISHOP M.C. O'NEILL HIGH SCHOOL - SEPARATE HIGH SCHOOL,50.477473391,-104.634080371
,BASKETBALL,ROSEMONT SCHOOL - BASKETBALL,841 HORACE STREET,ROSEMONT SCHOOL,50.4633685900001,-104.658876378
,PLAYGROUND,HAMPSHIRE PARK - PLAYGROUND 6410 HEFFERNAN DR,6410 HEFFERNAN DRIVE,HAMPSHIRE PARK,50.4929909750001,-104.673537124
,BALL DIAMOND,NORTH EAST PARK NW - BALL DIAMOND BS #279 (AKA=REGINA MINOR GIRLS BALL),1925 9TH AVENUE N,NORTH EAST PARK NW,50.4840545750001,-104.609430358
,BASKETBALL,ST. BERNADETTE SCHOOL - BASKETBALL,727 N MCINTOSH STREET,ST. BERNADETTE SCHOOL,50.489149636,-104.651704264
,PLAYGROUND,PRINCE WILLIAM PARK - PLAYGROUND 3860 BUCKINGHAM DR,3295 WIMBLEDON DRIVE,PRINCE WILLIAM PARK,50.4309957030001,-104.530670744
,PLAYGROUND,WASCANA VIEW PARK - PLAYGROUND 3025 WASCANA CIR,6056 WASCANA COURT,WASCANA VIEW PARK,50.4173195180001,-104.534478996
,OUTDOOR RINK UNBOARDED,LITZENBERGER PARK - OUTDOOR RINK UNBOARDED,100 RINK AVENUE,LITZENBERGER PARK,50.4887416930001,-104.649678345
,BALL DIAMOND,KINSMEN PARK SOUTH - BALL DIAMOND BS #42,3310 LAKEVIEW AVENUE,KINSMEN PARK SOUTH,50.422851763,-104.629459956
,WASCANA CENTRE,SOUND STAGE,1831 COLLEGE AVENUE,WASCANA CENTRE,50.4398885360001,-104.607950133
,ATHLETIC FIELD,ST. ANNE PARK - ATHLETIC FIELD SOCCER ATHLETIC FIELD,342 N HALIFAX STREET,ST. ANNE PARK,50.4829673740001,-104.605078695
,ATHLETIC FIELD,FIREHALL - ATHLETIC FIELD SOCCER ATHLETIC FIELD,281 RINK AVENUE,FIREHALL,50.4877271620001,-104.659626317
,BALL DIAMOND,ST. JOSAPHAT SCHOOL SW - BALL DIAMOND BS #208,140 GREENWOOD CRESCENT,ST. JOSAPHAT SCHOOL SW,50.4756592250001,-104.681725957
,BALL DIAMOND,O'NEILL HIGH SCHOOL - BALL DIAMOND BS #252,134 ARGYLE STREET,O'NEILL HIGH SCHOOL,50.4769213480001,-104.634144871
,WASCANA CENTRE,PRODUCTION GREENHOUSE,520 E ASSINIBOINE AVENUE,WASCANA CENTRE,50.4253905680001,-104.5767667
,UNIVERSITY OF REGINA,RIDDELL CENTRE AND STUDENT CENTRE,3769 WASCANA PARKWAY,UNIVERSITY OF REGINA,50.4166533390001,-104.591115249
,BALL DIAMOND,ALPORT PARK - BALL DIAMOND BS #265,28 ALPORT CRESCENT,ALPORT PARK,50.4959115510001,-104.600853975
,BALL DIAMOND,A.C.T. BALL PARK NE - BALL DIAMOND BS #273,460 ELPHINSTONE STREET,A.C.T. BALL PARK NE,50.472149884,-104.632304532
,PLAYGROUND,PASQUA/7TH AVE. PARK - PLAYGROUND 1301 PASQUA ST,1301 PASQUA STREET,PASQUA/7TH AVE. PARK,50.457994548,-104.640142435
,SEPARATE HIGH SCHOOL,MICHAEL A. RIFFEL HIGH SCHOOL - SEPARATE HIGH SCHOOL,5757 ROCHDALE BOULEVARD,MICHAEL A. RIFFEL HIGH SCHOOL - SEPARATE HIGH SCHOOL,50.4949099010001,-104.662563936
,PLAYGROUND,LAKERIDGE PARK S - PLAYGROUND 5560 LEIBEL CRES,1225 N HARRISON WAY,LAKERIDGE PARK S,50.4985972250001,-104.660739792
,PLAYGROUND,GLEN ELM PARK NW - PLAYGROUND 1501 BOND ST,1601 BOND STREET,GLEN ELM PARK NW,50.4532044690001,-104.567349723
,ATHLETIC FIELD,TAYLOR FIELD PRACTICE FIELD - ATHLETIC FIELD,2940 10TH AVENUE,TAYLOR FIELD PRACTICE FIELD,50.4524113670001,-104.624378263
,ATHLETIC FIELD,DESHAYE SCHOOL - ATHLETIC FIELD SOCCER ATHLETIC FIELD,37 CAMERON CRESCENT,DESHAYE SCHOOL,50.412003881,-104.623618466
,BALL DIAMOND,MOUNT PLEASANT SPORTS PARK - BALL DIAMOND BS #268,750 N WINNIPEG STREET,MOUNT PLEASANT SPORTS PARK,50.49120773,-104.601278369
,PLAYGROUND,GEORGE LEE SCHOOL - PLAYGROUND 180 WELLS ST,180 WELLS STREET,GEORGE LEE SCHOOL,50.4883197770001,-104.647339707
,BASKETBALL,LAKERIDGE SPORTS PARK - BASKETBALL,5451 ROCHDALE BOULEVARD,LAKERIDGE SPORTS PARK,50.495338679,-104.659631174
,BASKETBALL,PASQUA NEIGHBOURHOOD RECREATION CENTRE - BASKETBALL,263 LEWVAN DRIVE,PASQUA NEIGHBOURHOOD RECREATION CENTRE,50.4743242340001,-104.640326204
,OUTDOOR RINK BOARDED,GRASSICK PLAYGROUND - OUTDOOR RINK BOARDED,901 GARNET STREET,GRASSICK PLAYGROUND,50.464053139,-104.626455479
,BALL DIAMOND,W.S. HAWRYLAK SCHOOL - BALL DIAMOND BS #75,2530 E ASSINIBOINE AVENUE,W.S. HAWRYLAK SCHOOL,50.4221048680001,-104.548305692
,PLAYGROUND,KINSMEN PARK SOUTH - PLAYGROUND 3310 LAKEVIEW AVE,3310 LAKEVIEW AVENUE,KINSMEN PARK SOUTH,50.4237922980001,-104.631648317
,BALL DIAMOND,MCLURG SCHOOL - BALL DIAMOND BS #200,125 PAYNTER CRESCENT,MCLURG SCHOOL,50.4729098390001,-104.678832726
,SEPARATE ELEMENTARY SCHOOL,DESHAYE - SEPARATE ELEMENTARY SCHOOL,37 CAMERON CRESCENT,DESHAYE - SEPARATE ELEMENTARY SCHOOL,50.411974871,-104.624073311
,SEPARATE ELEMENTARY SCHOOL,ST. PETER - SEPARATE ELEMENTARY SCHOOL,150 ARGYLE STREET,ST. PETER - SEPARATE ELEMENTARY SCHOOL,50.4764694020001,-104.634115338
,BASKETBALL,RUTH PAWSON SCHOOL - BASKETBALL,40 WEEKES CRESCENT,RUTH PAWSON SCHOOL,50.496299622,-104.604955398
,BASKETBALL,DR. HANNA SCHOOL - BASKETBALL,55 DAVIN CRESCENT,DR. HANNA SCHOOL,50.4891036290001,-104.630198371
,BALL DIAMOND,PACERS SPORTS PARK  MIDGET CLASS 1 - BALL DIAMOND,5000 E ARCOLA AVENUE,PACERS SPORTS PARK  MIDGET CLASS 1,50.412221253,-104.505540585
,ATHLETIC FIELD,ROBERT USHER MULTI - ATHLETIC FIELD MULTI-USE ATHLETIC FIELD,1660 9TH AVENUE N,ROBERT USHER MULTI,50.4853299330001,-104.604091866
,BALL DIAMOND,MCVEETY PARK - BALL DIAMOND,1851 JUBILEE AVENUE,MCVEETY PARK,50.4197423350001,-104.606293315
,BALL DIAMOND,SHEPPARD PARK/ST. PHILLIP - BALL DIAMOND BS #261,20 SHEPPARD STREET,SHEPPARD PARK/ST. PHILLIP,50.479909805,-104.623854342
,PLAYGROUND,CAREY PARK - PLAYGROUND 120 CAREY ST,120 CAREY STREET,CAREY PARK,50.4763300330001,-104.639137827
,OUTDOOR RINK UNBOARDED,MIKE BADHAM PARK - OUTDOOR RINK UNBOARDED,2606 GRANT ROAD,MIKE BADHAM PARK,50.40164301,-104.610701096
,HOSPITAL,PASQUA HOSPITAL,4101 DEWDNEY AVENUE,PASQUA HOSPITAL,50.4541984890001,-104.638632333
,ATHLETIC FIELD,LEBOLDUS MULTI - ATHLETIC FIELD SOCCER ATHLETIC FIELD,2440 25TH AVENUE,LEBOLDUS MULTI,50.4201939040001,-104.615498824
,BALL DIAMOND,ST. JOSAPHAT SCHOOL PARK NE - BALL DIAMOND BS #210,110 GREENWOOD CRESCENT,ST. JOSAPHAT SCHOOL PARK NE,50.4770985320001,-104.680048443
,PLAYGROUND,PRINCE OF WALES PARK - PLAYGROUND 3800 E CUMBERLAND RD,3800 E CUMBERLAND ROAD,PRINCE OF WALES PARK,50.4375100350001,-104.528289639
,BASKETBALL,RUTH M. BUCK SCHOOL - BASKETBALL,6330 7TH AVENUE N,RUTH M. BUCK SCHOOL,50.4765658520001,-104.67104798
,PLAYGROUND,CAMERON PARK - PLAYGROUND 71 CAMERON ST,71 CAMERON STREET,CAMERON PARK,50.4113582360001,-104.624416825
,REC_NBHD FACILITY,SOUTH LEISURE CENTRE - REC_NBHD FACILITY,4310 MONTAGUE STREET,SOUTH LEISURE CENTRE,50.4093657230001,-104.631560156
,BASKETBALL,EASTVIEW PARK - BASKETBALL,945 BRODER STREET,EASTVIEW PARK,50.463731926,-104.590077457
,PLAYGROUND,HENRY BRAUN SCHOOL - PLAYGROUND 710 GRAHAM RD,710 GRAHAM ROAD,HENRY BRAUN SCHOOL,50.4621754470001,-104.535741036
,PLAYGROUND,M.J. COLDWELL PARK - PLAYGROUND 115 FAIRVIEW RD,115 FAIRVIEW ROAD,M.J. COLDWELL PARK,50.4905217180001,-104.6111957
,PUBLIC ELEMENTARY SCHOOL,M.J. COLDWELL - PUBLIC ELEMENTARY SCHOOL,103 FAIRVIEW ROAD,M.J. COLDWELL - PUBLIC ELEMENTARY SCHOOL,50.4908027110001,-104.611853747
,UNIVERSITY OF REGINA,ISM BUILDING,4141 WASCANA PARKWAY,UNIVERSITY OF REGINA,50.4150030430001,-104.59139576
,BASKETBALL,REGINA SPORTPLEX - BASKETBALL,1717 ELPHINSTONE STREET,REGINA SPORTPLEX,50.450635542,-104.627894013
,BALL DIAMOND,RAMBLER PARK  FASTBALL SE - BALL DIAMOND,5215 13TH AVENUE,RAMBLER PARK  FASTBALL SE,50.4434859900001,-104.655652375
,LIBRARY,CONNAUGHT BRANCH LIBRARY,3435 13TH AVENUE,CONNAUGHT BRANCH LIBRARY,50.4452797040001,-104.630741956
,PLAYGROUND,VENTURE PARK - PLAYGROUND 7907 VENTURE RD,7907 VENTURE ROAD,VENTURE PARK,50.4784665160001,-104.695376936
,BALL DIAMOND,COLUMBUS PARK NE - BALL DIAMOND BS #52,2940 PASQUA STREET,COLUMBUS PARK NE,50.4327638550001,-104.641792412
,SEPARATE ELEMENTARY SCHOOL,ST. BERNADETTE - SEPARATE ELEMENTARY SCHOOL,727 N MCINTOSH STREET,ST. BERNADETTE - SEPARATE ELEMENTARY SCHOOL,50.4887992430001,-104.651859487
,BASKETBALL,ST. MARY SCHOOL - BASKETBALL,140 N MCINTOSH STREET,ST. MARY SCHOOL,50.478155772,-104.654068311
,BALL DIAMOND,SANGSTER PARK/DR. HANNA SCHOOL - BALL DIAMOND BS #246,496 SANGSTER BOULEVARD,SANGSTER PARK/DR. HANNA SCHOOL,50.4893381830001,-104.628102305
,ATHLETIC FIELD,VARSITY PARK - ATHLETIC FIELD SOCCER ATHLETIC FIELD,2635 E PHILIP ROAD,VARSITY PARK,50.4238792990001,-104.546437486
,BASKETBALL,THOMSON SCHOOL - BASKETBALL,2033 TORONTO STREET,THOMSON SCHOOL,50.4467067100001,-104.598750739
,OUTDOOR RINK BOARDED,MIKE BADHAM PARK - OUTDOOR RINK BOARDED,2606 GRANT ROAD,MIKE BADHAM PARK,50.401645978,-104.611114307
,BALL DIAMOND,RAMBLER PARK  FASTBALL W - BALL DIAMOND FASTBALL NE (CANADA GAMES 2005 DIAMOND),5215 13TH AVENUE,RAMBLER PARK  FASTBALL W,50.4449942300001,-104.658248695
,PUBLIC ELEMENTARY SCHOOL,GLADYS MCDONALD - PUBLIC ELEMENTARY SCHOOL,335 N GARNET STREET,GLADYS MCDONALD - PUBLIC ELEMENTARY SCHOOL,50.4809442210001,-104.625930315
,BALL DIAMOND,HERCHMER SCHOOL N - BALL DIAMOND BS #128,1132 MCTAVISH STREET,HERCHMER SCHOOL N,50.4612664630001,-104.634468576
,PUBLIC ELEMENTARY SCHOOL,HENRY BRAUN - PUBLIC ELEMENTARY SCHOOL,710 GRAHAM ROAD,HENRY BRAUN - PUBLIC ELEMENTARY SCHOOL,50.4619477260001,-104.534979959
,PLAYGROUND,CENTENNIAL SCHOOL - PLAYGROUND 6903 DALGLIESH DR,6903 DALGLIESH DRIVE,CENTENNIAL SCHOOL,50.4908234820001,-104.680830461
,PLAYGROUND,PATTY CAKE PLAY PARK - PLAYGROUND 1581 ROBINSON ST,1575 ROBINSON STREET,PATTY CAKE PLAY PARK,50.4535961860001,-104.623650726
,BALL DIAMOND,ST. MARY SCHOOL N - BALL DIAMOND,140 N MCINTOSH STREET,ST. MARY SCHOOL N,50.4787065530001,-104.655264605
,OUTDOOR RINK SHELTER,IMPERIAL PARK - OUTDOOR RINK SHELTER,305 ROSE STREET,IMPERIAL PARK,50.473804149,-104.607318249
,OUTDOOR RINK BOARDED,LAKEVIEW PARK - OUTDOOR RINK BOARDED,2910 ATHOL STREET,LAKEVIEW PARK,50.4322078430001,-104.628712907
,ATHLETIC FIELD,QUEEN ELIZABETH JUBILEE MULTI - ATHLETIC FIELD MULTI-USE ATHLETIC FIELD,121 E BROADWAY AVENUE,QUEEN ELIZABETH JUBILEE MULTI,50.4372693050001,-104.580968734
,PLAYGROUND,LES SHERMAN PARK NORTH - PLAYGROUND 4055 15TH AVE,2404 ELPHINSTONE STREET,LES SHERMAN PARK NORTH,50.4407490570001,-104.63453422
,BASKETBALL,ROSEMONT PARK - BASKETBALL,1101 WALKER STREET,ROSEMONT PARK,50.460067935,-104.662291985
,PLAYGROUND,A.E. WILSON PARK (EAST) - MOUNT ROYAL - PLAYGROUND 6102 BRUNSKILL PL,6102 BRUNSKILL PLACE,A.E. WILSON PARK (EAST) - MOUNT ROYAL,50.459237548,-104.667933962
,PLAYGROUND,ECOLE MONSEIGNEUR DE LAVAL - PLAYGROUND 1601 COWAN CRES,1601 COWAN CRESCENT,ECOLE MONSEIGNEUR DE LAVAL,50.4174341340001,-104.603534908
,BASKETBALL,W.S. HAWRYLAK SCHOOL - BASKETBALL,2530 E ASSINIBOINE AVENUE,W.S. HAWRYLAK SCHOOL,50.422273584,-104.546749353
,PLAYGROUND,ST. PIUS SCHOOL - PLAYGROUND 3301 GARNET ST,3301 GARNET STREET,ST. PIUS SCHOOL,50.4265073120001,-104.625399161
,OUTDOOR RINK SHELTER,MARION MCVEETY SCHOOL - OUTDOOR RINK SHELTER,1851 JUBILEE AVENUE,MARION MCVEETY SCHOOL,50.420809939,-104.606995836
,BALL DIAMOND,ST. GREGORY PARK - BALL DIAMOND BS #257,310 UPLAND DRIVE,ST. GREGORY PARK,50.4922141340001,-104.61195832
,BALL DIAMOND,QUEEN ST. PARK/ETHEL MILLIKEN - BALL DIAMOND BS #31 (AKA=ETHEL MILLIKEN SCHOOL),4410 QUEEN STREET,QUEEN ST. PARK/ETHEL MILLIKEN,50.409008117,-104.638772112
,OUTDOOR TENNIS,SHELDON WILLIAMS COLLEGIATE - OUTDOOR TENNIS,2601 CORONATION STREET,SHELDON WILLIAMS COLLEGIATE,50.4356730170001,-104.634341515
,PLAYGROUND,RICHMOND PLACE ENVIRONMENTAL RESERVE - PLAYGROUND 1803 E ASSINIBOINE AVE,1803 E ASSINIBOINE AVENUE,RICHMOND PLACE ENVIRONMENTAL RESERVE,50.4213667020001,-104.555112636
,ATHLETIC FIELD,MARTIN COLLEGIATE NORTH - ATHLETIC FIELD SOCCER ATHLETIC FIELD,1100 MCINTOSH STREET,MARTIN COLLEGIATE NORTH,50.4624762510001,-104.654460535
,PLAYGROUND,DIEPPE SCHOOL W - PLAYGROUND 145 DOROTHY ST,145 DOROTHY STREET,DIEPPE SCHOOL W,50.458584322,-104.68087018
,BALL DIAMOND,RUTH BUCK PARK - BALL DIAMOND BS #192,6208 SHERWOOD DRIVE,RUTH BUCK PARK,50.4794705850001,-104.673832194
,ATHLETIC FIELD,IMPERIAL SCHOOL - ATHLETIC FIELD SOCCER ATHLETIC FIELD,200 BROAD STREET,IMPERIAL SCHOOL,50.475171839,-104.608532585
,PUBLIC ELEMENTARY SCHOOL,MCDERMID - PUBLIC ELEMENTARY SCHOOL,139 TORONTO STREET,MCDERMID - PUBLIC ELEMENTARY SCHOOL,50.4761122740001,-104.597723307
,PLAYGROUND,GRASSICK PLAYGROUND - PLAYGROUND 901 GARNET ST,901 GARNET STREET,GRASSICK PLAYGROUND,50.4642317670001,-104.625846185
,ATHLETIC FIELD,ST. MICHAEL SCHOOL - ATHLETIC FIELD SOCCER ATHLETIC FIELD,431 HAMILTON STREET,ST. MICHAEL SCHOOL,50.4719316760001,-104.608384157
,PUBLIC ELEMENTARY SCHOOL,ETHEL MILLIKEN - PUBLIC ELEMENTARY SCHOOL,4510 QUEEN STREET,ETHEL MILLIKEN - PUBLIC ELEMENTARY SCHOOL,50.4083732730001,-104.637791664
,OUTDOOR RINK SHELTER,GLEN ELM PARK - OUTDOOR RINK SHELTER,1601 BOND STREET,GLEN ELM PARK,50.4533366370001,-104.567155702
,BALL DIAMOND,DR. FERGUSON PARK - BALL DIAMOND BS #65,129 BROTHERTON AVENUE,DR. FERGUSON PARK,50.4517375820001,-104.555042996
,OUTDOOR RINK UNBOARDED,WILLISTON PARK - OUTDOOR RINK UNBOARDED,30 WILLISTON DRIVE,WILLISTON PARK,50.4812806420001,-104.677655757
,PUBLIC HIGH SCHOOL,THOM COLLEGIATE - PUBLIC HIGH SCHOOL,265 N ARGYLE STREET,THOM COLLEGIATE - PUBLIC HIGH SCHOOL,50.4805933230001,-104.630893442
,ATHLETIC FIELD,GRASSICK PARK MULTI - ATHLETIC FIELD MULTI-USE ATHLETIC FIELD,5325 DEWDNEY AVENUE,GRASSICK PARK MULTI,50.453276149,-104.661444686
,PUBLIC ELEMENTARY SCHOOL,ROSEMONT - PUBLIC ELEMENTARY SCHOOL,841 HORACE STREET,ROSEMONT - PUBLIC ELEMENTARY SCHOOL,50.463573888,-104.658269616
,BASKETBALL,KITCHNER SCHOOL - BASKETBALL,840 ATHOL STREET,KITCHNER SCHOOL,50.465126453,-104.629243171
,BALL DIAMOND,MARTIN COLLEGIATE - BALL DIAMOND BS #135,1100 MCINTOSH STREET,MARTIN COLLEGIATE,50.462674425,-104.65638554
,BASKETBALL,DESHAYE SCHOOL - BASKETBALL,37 CAMERON CRESCENT,DESHAYE SCHOOL,50.4124099490001,-104.624151281
,FIRE,FIRE HALL NO. 1,2585 13TH AVENUE,WILLIAM WHITE FIRE HALL,50.4452991360001,-104.61761912
,REC_NBHD FACILITY,UPLANDS COMMUNITY CENTRE - REC_NBHD FACILITY,40 WEEKES CRESCENT,UPLANDS COMMUNITY CENTRE,50.49583598,-104.605048778
,PLAYGROUND,RUTH M. BUCK SCHOOL - PLAYGROUND,6330 7TH AVENUE N,RUTH M. BUCK SCHOOL,50.4760696720001,-104.670478774
,OTHER SCHOOL,ECOLE MONSEIGNEUR DE LAVAL - 1601 COWAN CR.,1601 COWAN CRESCENT,ECOLE MONSEIGNEUR DE LAVAL - 1601 COWAN CR.,50.417681154,-104.603302732
,PLAYGROUND,KEN JENKINS SCHOOL - PLAYGROUND 5382 2ND AVE N,5382 2ND AVENUE N,KEN JENKINS SCHOOL,50.4728852600001,-104.657753256
,PLAYGROUND,ELSIE DORSEY PARK - PLAYGROUND 4199 CASTLE RD,4199 CASTLE ROAD,ELSIE DORSEY PARK,50.4102584920001,-104.597790978
,MALL,VICTORIA SQUARE MALL,2223 E VICTORIA AVENUE,VICTORIA SQUARE MALL,50.4449495170001,-104.551778501
,ATHLETIC FIELD,WALKER SCHOOL - ATHLETIC FIELD SOCCER ATHLETIC FIELD,1315 CAMPBELL STREET,WALKER SCHOOL,50.457335818,-104.662576506
,BALL DIAMOND,KIWANIS WATERFALL PARK NE - BALL DIAMOND BS #49,2755 ELPHINSTONE STREET,KIWANIS WATERFALL PARK NE,50.4381593370001,-104.6294556
,ARENA,JACK HAMILTON - ARENA,1010 MCCARTHY BOULEVARD,JACK HAMILTON,50.4620555810001,-104.673659639
,BALL DIAMOND,A.C.T. BALL PARK NW - BALL DIAMOND BS #274,460 ELPHINSTONE STREET,A.C.T. BALL PARK NW,50.472616353,-104.635577103
,ATHLETIC FIELD,SHEPPARD PARK - ATHLETIC FIELD SOCCER ATHLETIC FIELD,255 N GARNET STREET,SHEPPARD PARK,50.4801008260001,-104.625922731
,BALL DIAMOND,KINSMEN PARK NORTH NW - BALL DIAMOND BS #185,850 PASQUA STREET,KINSMEN PARK NORTH NW,50.4658828810001,-104.642852424
,SEPARATE ELEMENTARY SCHOOL,ST. TIMOTHY - SEPARATE ELEMENTARY SCHOOL,280 SANGSTER BOULEVARD,ST. TIMOTHY - SEPARATE ELEMENTARY SCHOOL,50.490925754,-104.632798006
,OUTDOOR RINK SHELTER,ROSEMONT PARK - OUTDOOR RINK SHELTER,1101 WALKER STREET,ROSEMONT PARK,50.4609663110001,-104.661862723
,OUTDOOR RINK SHELTER,RUTH BUCK PARK - OUTDOOR RINK SHELTER,6310 7TH AVENUE N,RUTH BUCK PARK,50.4764149540001,-104.672850729
,BALL DIAMOND,ST. DOMINIC SAVIO SCHOOL - BALL DIAMOND BS #82,195 WINDFIELD ROAD,ST. DOMINIC SAVIO SCHOOL,50.4318785020001,-104.561931203
,HOSPITAL,REGINA GENERAL HOSPITAL,1440 14TH AVENUE,REGINA GENERAL HOSPITAL,50.443963667,-104.601302148
,ATHLETIC FIELD,MASSEY EAST MULTI - ATHLETIC FIELD SOCCER ATHLETIC FIELD,70 MASSEY ROAD,MASSEY EAST MULTI,50.414646996,-104.610459923
,OUTDOOR RINK UNBOARDED,QUEEN ST. PARK - OUTDOOR RINK UNBOARDED,4410 QUEEN STREET,QUEEN ST. PARK,50.409388365,-104.638125968
,WASCANA CENTRE,CBC BUILDING,2440 BROAD STREET,WASCANA CENTRE,50.439124754,-104.607920876
,OUTDOOR TENNIS,REALTORS PARK - OUTDOOR TENNIS,222 SUNSET DRIVE,REALTORS PARK,50.4096820650001,-104.633314517
,PLAYGROUND,MARION MCVEETY SCHOOL S - PLAYGROUND 38 TURGEON CRES,38 TURGEON CRESCENT,MARION MCVEETY SCHOOL S,50.4199897220001,-104.605515919
,ATHLETIC FIELD,LESLIE LAWNBOWLING PARK GREEN "C" (EAST CENTER) - ATHLETIC FIELD MULTI-USE ATHLETIC FIELD,3820 VICTORIA AVENUE,LESLIE LAWNBOWLING PARK GREEN "C" (EAST CENTER),50.447569048,-104.636223066
,PLAYGROUND,GREENBURG PARK - PLAYGROUND 1956 BRODER ST,1956 BRODER STREET,GREENBURG PARK,50.4477997800001,-104.591165479
,ATHLETIC FIELD,ARLINGTON - ATHLETIC FIELD SOCCER ATHLETIC FIELD,35 GROOME AVENUE,ARLINGTON,50.3993651760001,-104.627269295
,BASKETBALL,SHELDON WILLIAMS COLLEGIATE - BASKETBALL,2601 CORONATION STREET,SHELDON WILLIAMS COLLEGIATE,50.435642391,-104.634389944
,PLAYGROUND,QUEEN ELIZABETH JUBILEE PARK - PLAYGROUND 111 E BROADWAY AVE,121 E BROADWAY AVENUE,QUEEN ELIZABETH JUBILEE PARK,50.436366089,-104.581655898
,WASCANA CENTRE,WALTER SCOTT BUILDING,3085 ALBERT STREET,WASCANA CENTRE,50.430007872,-104.616572696
,PLAYGROUND,ST. JEROME SCHOOL - PLAYGROUND 770 RINK AVE,770 RINK AVENUE,ST. JEROME SCHOOL,50.4882464440001,-104.681454465
,BASKETBALL,MARION MCVEETY SCHOOL - BASKETBALL,38 TURGEON CRESCENT,MARION MCVEETY SCHOOL,50.4203218000001,-104.605921023
,OUTDOOR RINK UNBOARDED,MCDERMID SCHOOL - OUTDOOR RINK UNBOARDED,139 TORONTO STREET,MCDERMID SCHOOL,50.4767511150001,-104.597546361
,BASKETBALL,QUEEN ELIZABETH JUBILEE PARK - BASKETBALL,111 E BROADWAY AVENUE,QUEEN ELIZABETH JUBILEE PARK,50.4372312020001,-104.580060207
,BASKETBALL,ST. GREGORY SCHOOL - BASKETBALL,302 UPLAND DRIVE,ST. GREGORY SCHOOL,50.4925459440001,-104.610999017
,OUTDOOR RINK SHELTER,MCLURG SCHOOL PARK - OUTDOOR RINK SHELTER,201 FULTON DRIVE,MCLURG SCHOOL PARK,50.4726260940001,-104.677381697
,BALL DIAMOND,ROSEMONT SCHOOL PARK - BALL DIAMOND BS #137,5310 4TH AVENUE,ROSEMONT SCHOOL PARK,50.4640312240001,-104.656887815
,PLAYGROUND,WASCANA SCHOOL - PLAYGROUND 4210 4TH AVE,4210 4TH AVENUE,WASCANA SCHOOL,50.4636969730001,-104.642881158
,BASKETBALL,ST. CATHERINE SCHOOL - BASKETBALL,150 BROTHERTON AVENUE,ST. CATHERINE SCHOOL,50.453138708,-104.554314921
,PLAYGROUND,GOCKI PARK - PLAYGROUND 2230 LINDSAY ST,2230 LINDSAY STREET,GOCKI PARK,50.442725549,-104.586031216
,ATHLETIC FIELD,LAKERIDGE SPORTS PARK/RIFFEL MULTI - ATHLETIC FIELD MULTI-USE ATHLETIC FIELD,5657 ROCHDALE BOULEVARD,LAKERIDGE SPORTS PARK/RIFFEL MULTI,50.4943537920001,-104.661014577
,ATHLETIC FIELD,QU'APPELLE SOCCER - ATHLETIC FIELD SOCCER ATHLETIC FIELD,1301 PARKER AVENUE,QU'APPELLE SOCCER,50.412646512,-104.600276243
,PLAYGROUND,DAVIN SCHOOL - PLAYGROUND 2401 RETALLACK ST,2401 RETALLACK STREET,DAVIN SCHOOL,50.4399355960001,-104.622259647
,ATHLETIC FIELD,WILLISTON PARK  - ATHLETIC FIELD SOCCER ATHLETIC FIELD,30 WILLISTON DRIVE,WILLISTON PARK,50.4819306940001,-104.679097304
,ATHLETIC FIELD,DOUGLAS PARK WEST SOCCER - ATHLETIC FIELD SOCCER ATHLETIC FIELD,3025 MCDONALD STREET,DOUGLAS PARK WEST SOCCER,50.4307973130001,-104.58254757
,OUTDOOR RINK BOARDED,STAN OXELGREN PARK - OUTDOOR RINK BOARDED,126 SANGSTER BOULEVARD,STAN OXELGREN PARK,50.489657906,-104.633308052
,SPRAYPAD,GLEN ELM PARK - SPRAYPAD 1501 BOND ST @ 9TH AVE,1601 BOND STREET,GLEN ELM PARK,50.4532797750001,-104.567535054
,BASKETBALL,DAVIN SCHOOL - BASKETBALL,2401 RETALLACK STREET,DAVIN SCHOOL,50.4406786920001,-104.62137999
,PUBLIC ELEMENTARY SCHOOL,WALKER - PUBLIC ELEMENTARY SCHOOL,5637 7TH AVENUE,WALKER - PUBLIC ELEMENTARY SCHOOL,50.4580652120001,-104.662384168
,BALL DIAMOND,ROTHWELL FIELDS - BALL DIAMOND BS #99 OR 100 OR 101,1197 PARK STREET,ROTHWELL FIELDS,50.460274187,-104.566999939
,SIAST CAMPUS,SIAST HEATING PLANT,4500 WASCANA PARKWAY,SIAST CAMPUS,50.408337127,-104.580569935
,BASKETBALL,CORE COMMUNITY PARK - BASKETBALL,1205 11TH AVENUE,CORE COMMUNITY PARK,50.450194142,-104.59799899
,PLAYGROUND,STEWART RUSSELL SCHOOL - PLAYGROUND 1920 E 7TH AVE,1920 E 7TH AVENUE,STEWART RUSSELL SCHOOL,50.458884696,-104.55448654
,PARK WATER FEATURE,ROCHDALE PARK - PARK WATER FEATURE,6829 CUNNINGHAM DRIVE,ROCHDALE PARK,50.497148166,-104.676822448
,PLAYGROUND,ST. MARK PARK - PLAYGROUND 1855 ROTHWELL ST,1855 ROTHWELL STREET,ST. MARK PARK,50.4494963530001,-104.570017243
,OUTDOOR RINK BOARDED,SHERWOOD PARK - OUTDOOR RINK BOARDED,20 WAKEFIELD CRESCENT,SHERWOOD PARK,50.479438052,-104.648767194
,PLAYGROUND,ROSEMONT PARK  - PLAYGROUND 1101 WALKER STREET,1101 WALKER STREET,ROSEMONT PARK,50.4603134310001,-104.66139011
,BALL DIAMOND,THERESA STEVENSON PARK - BALL DIAMOND BS #86,1399 N LAKERIDGE ROAD,THERESA STEVENSON PARK,50.5013978540001,-104.654435348
,BALL DIAMOND,RAMBLER PARK  SLO PITCH SSW - BALL DIAMOND BS #181 SLO PITCH SSW,5215 13TH AVENUE,RAMBLER PARK  SLO PITCH SSW,50.4423725140001,-104.660854013
,PLAYGROUND,KIWANIS PARK - PLAYGROUND 2755 ELPHINSTONE ST,2755 ELPHINSTONE STREET,KIWANIS PARK,50.4362056360001,-104.629589368
,BALL DIAMOND,PONY PARK E - BALL DIAMOND BS #292,3202 MCKINLEY AVENUE,PONY PARK E,50.4699150760001,-104.627088016
,PLAYGROUND,THERESA STEVENSON PARK - PLAYGROUND 1399 N LAKERIDGE RD,1598 N MCINTOSH STREET,THERESA STEVENSON PARK,50.5029021890001,-104.652402383
,BASKETBALL,THOMSON SCHOOL - BASKETBALL,2033 TORONTO STREET,THOMSON SCHOOL,50.446713866,-104.598773743
,OUTDOOR TENNIS,DR. MARTIN LEBOLDUS HIGH SCHOOL - OUTDOOR TENNIS,2440 25TH AVENUE,DR. MARTIN LEBOLDUS HIGH SCHOOL,50.419048617,-104.615487956
,BALL DIAMOND,UNIVERSITY PARK - BALL DIAMOND BS #72,121 MAYFIELD ROAD,UNIVERSITY PARK,50.4304080460001,-104.5625816
,OUTDOOR RINK BOARDED,IMPERIAL PARK - OUTDOOR RINK BOARDED,305 ROSE STREET,IMPERIAL PARK,50.4736187950001,-104.606960995
,BALL DIAMOND,NORTH EAST PARK SSW - BALL DIAMOND BS #283 (AKA=REGINA MINOR GIRLS BALL),2010 8TH AVENUE N,NORTH EAST PARK SSW,50.482243263,-104.609844801
,BALL DIAMOND,ST. PIUS SCHOOL - BALL DIAMOND BS #41,3301 GARNET STREET,ST. PIUS SCHOOL,50.427713683,-104.624859901
,BALL DIAMOND,CURRIE FIELD - BALL DIAMOND BS #289,750 N WINNIPEG STREET,CURRIE FIELD,50.4879869650001,-104.596145331
,PLAYGROUND,MASSEY PARK - PLAYGROUND 2355 PARLIAMENT AVE,2355 PARLIAMENT AVENUE,MASSEY PARK,50.413631546,-104.611000038
,BASKETBALL,REALTORS PARK - BASKETBALL,4310 MONTAGUE STREET,REALTORS PARK,50.4095822720001,-104.631715403
,REC_NBHD FACILITY,GLENCAIRN NEIBOURHOOD RECREATION CENTRE - REC_NBHD FACILITY,2626 E DEWDNEY AVENUE,GLENCAIRN NEIBOURHOOD RECREATION CENTRE,50.4554520070001,-104.54337621
,BALL DIAMOND,COLUMBUS PARK SE - BALL DIAMOND BS #55,3110 PASQUA STREET,COLUMBUS PARK SE,50.4310787040001,-104.641446162
,PLAYGROUND,ST. GREGORYSCHOOL - PLAYGROUND 302 UPLAND DR,302 UPLAND DRIVE,ST. GREGORYSCHOOL,50.492418753,-104.609910635
,PUBLIC ELEMENTARY SCHOOL,ALBERT - PUBLIC ELEMENTARY SCHOOL,1340 ROBINSON STREET,ALBERT - PUBLIC ELEMENTARY SCHOOL,50.45758041,-104.624513889
,BASKETBALL,DESHAYE SCHOOL - BASKETBALL,37 CAMERON CRESCENT,DESHAYE SCHOOL,50.412393765,-104.624147084
,ATHLETIC FIELD,HARDING PARK  - ATHLETIC FIELD SOCCER ATHLETIC FIELD,2952 HARDING STREET,HARDING PARK,50.4313205890001,-104.549212164
,PLAYGROUND,A.C.T. BALL PARK - PLAYGROUND 460 ELPHINSTONE ST,3801 3RD AVENUE N,A.C.T. BALL PARK,50.4725766450001,-104.633576768
,BALL DIAMOND,ST. TIMOTHY SCHOOL - BALL DIAMOND BS #264,280 SANGSTER BOULEVARD,ST. TIMOTHY SCHOOL,50.490647278,-104.632572651
,BALL DIAMOND,ST. ANDREW SCHOOL E - BALL DIAMOND BS #78,535 E DOUGLAS AVENUE,ST. ANDREW SCHOOL E,50.431864358,-104.576300545
,BALL DIAMOND,SHERWOOD PARK/ELSIE MIRONUCK - BALL DIAMOND BS #204,20 WAKEFIELD CRESCENT,SHERWOOD PARK/ELSIE MIRONUCK,50.4799030730001,-104.650316145
,ATHLETIC FIELD,DOUGLAS PARK SCHOOL - ATHLETIC FIELD SOCCER ATHLETIC FIELD,635 E DOUGLAS AVENUE,DOUGLAS PARK SCHOOL,50.4327913710001,-104.573742151
,ATHLETIC FIELD,LESLIE LAWNBOWLING PARK GREEN "B" (WEST CENTER) - ATHLETIC FIELD MULTI-USE ATHLETIC FIELD,3820 VICTORIA AVENUE,LESLIE LAWNBOWLING PARK GREEN "B" (WEST CENTER),50.447559255,-104.637159079
,BALL DIAMOND,W.F. READY SCHOOL - BALL DIAMOND BS #69,2710 HELMSING STREET,W.F. READY SCHOOL,50.4381291670001,-104.540077175
,BALL DIAMOND,ST. ANNE PARK - BALL DIAMOND BS #256,342 N HALIFAX STREET,ST. ANNE PARK,50.4826549490001,-104.604422542
,PLAYGROUND,ATHABASCA SCHOOL - PLAYGROUND 3901 PRINCESS DR,3901 PRINCESS DRIVE,ATHABASCA SCHOOL,50.435689821,-104.63852154
,PUBLIC ELEMENTARY SCHOOL,W. H. FORD - PUBLIC ELEMENTARY SCHOOL,480 RINK AVENUE,W. H. FORD - PUBLIC ELEMENTARY SCHOOL,50.4885697330001,-104.669427756
,BALL DIAMOND,SHELDON WILLIAMS COLLEGIATE - BALL DIAMOND BS #33,2601 CORONATION STREET,SHELDON WILLIAMS COLLEGIATE,50.4362088120001,-104.633662344
,UNIVERSITY OF REGINA,LANGUAGE INSTITUTE,3769 WASCANA PARKWAY,UNIVERSITY OF REGINA,50.418855852,-104.588397599
,BALL DIAMOND,KINSMEN PARK NORTH NE - BALL DIAMOND BS #168,850 PASQUA STREET,KINSMEN PARK NORTH NE,50.4657841900001,-104.641523426
,LIBRARY,GLEN ELM BRANCH LIBRARY,1601 E DEWDNEY AVENUE,GLEN ELM BRANCH LIBRARY,50.454610775,-104.560206583
,UNIVERSITY OF REGINA,INFORMATION TECHNOLOGY BUILDING,4141 WASCANA PARKWAY,UNIVERSITY OF REGINA,50.4134469540001,-104.58972186
,BASKETBALL,DOUGLAS PARK SCHOOL - BASKETBALL,635 E DOUGLAS AVENUE,DOUGLAS PARK SCHOOL,50.4323166600001,-104.574880623
,ARENA,JACK W. STAPLES - ARENA,444 N BROAD STREET,JACK W. STAPLES,50.4827558330001,-104.607292542
,OUTDOOR RINK UNBOARDED,READY PARK - OUTDOOR RINK UNBOARDED,3043 E ARENS ROAD,READY PARK,50.4367023170001,-104.54088622
,WASCANA CENTRE,WASCANA PLACE ADMINISTRATION BUILDING,2960 WASCANA DRIVE,WASCANA CENTRE,50.432484317,-104.60673058
,PLAYGROUND,ST. FRANCIS SCHOOL W - PLAYGROUND 45 MIKKELSON DR,45 MIKKELSON DRIVE,ST. FRANCIS SCHOOL W,50.4648315810001,-104.666161686
,OTHER SCHOOL,WESTERN CHRISTIAN COLLEGE AND HIGH SCHOOL - 4400 4TH AVE.,4400 4TH AVENUE,WESTERN CHRISTIAN COLLEGE AND HIGH SCHOOL - 4400 4TH AVE.,50.4633647400001,-104.644893412
,ATHLETIC FIELD,MACNEILL SCHOOL - ATHLETIC FIELD SOCCER ATHLETIC FIELD,6215 WHELAN DRIVE,MACNEILL SCHOOL,50.4978638520001,-104.669747833
,OUTDOOR RINK UNBOARDED,LESLIE PARK - OUTDOOR RINK UNBOARDED,3820 VICTORIA AVENUE,LESLIE PARK,50.4475286530001,-104.634386247
,BASKETBALL,ATHABASCA SCHOOL - BASKETBALL,3901 PRINCESS DRIVE,ATHABASCA SCHOOL,50.436067285,-104.638496442
,SEPARATE HIGH SCHOOL,MILLER COMPREHENSIVE HIGH SCHOOL - SEPARATE HIGH SCHOOL,1027 COLLEGE AVENUE,MILLER COMPREHENSIVE HIGH SCHOOL - SEPARATE HIGH SCHOOL,50.439654621,-104.596603078
,OUTDOOR RINK UNBOARDED,HIND PARK - OUTDOOR RINK UNBOARDED,20 HIND STREET,HIND PARK,50.4858903160001,-104.680761735
,BALL DIAMOND,KINSMEN PARK NORTH SE - BALL DIAMOND BS #167,850 PASQUA STREET,KINSMEN PARK NORTH SE,50.4647786180001,-104.64150562
,BALL DIAMOND,HARDING PARK - BALL DIAMOND BS #107,2952 HARDING STREET,HARDING PARK,50.432993137,-104.549291416
,PLAYGROUND,RUTH M. BUCK SCHOOL - PLAYGROUND,6330 7TH AVENUE N,RUTH M. BUCK SCHOOL,50.4760842580001,-104.671837848
,PLAYGROUND,HASTINGS PARK - PLAYGROUND 216 HASTINGS CRES,216 HASTINGS CRESCENT,HASTINGS PARK,50.4820862620001,-104.673555932
,PLAYGROUND,RUTH PAWSON SCHOOL - PLAYGROUND 40 WEEKES CRES,40 WEEKES CRESCENT,RUTH PAWSON SCHOOL,50.49566932,-104.604549451
,PLAYGROUND,WASCANA VIEW PARK - PLAYGROUND 3025 WASCANA CIR,3025 WASCANA CIRCLE,WASCANA VIEW PARK,50.4201561960001,-104.539587898
,UNIVERSITY OF REGINA,HEATING PLANT,3769 WASCANA PARKWAY,UNIVERSITY OF REGINA,50.415236371,-104.588424361
,PUBLIC ELEMENTARY SCHOOL,DOUGLAS PARK - PUBLIC ELEMENTARY SCHOOL,635 E DOUGLAS AVENUE,DOUGLAS PARK - PUBLIC ELEMENTARY SCHOOL,50.4323021970001,-104.57435821
,BALL DIAMOND,LAKEVIEW SCHOOL SE - BALL DIAMOND BS #17,3100 20TH AVENUE,LAKEVIEW SCHOOL SE,50.4319128430001,-104.625627274
,BALL DIAMOND,THOM COLLEGIATE - BALL DIAMOND BS #263,265 N ARGYLE STREET,THOM COLLEGIATE,50.480071545,-104.629370832
,PLAYGROUND,KIWANIS PARK EXT. - PLAYGROUND 2475 ELPHINSTONE ST,2475 ELPHINSTONE STREET,KIWANIS PARK EXT.,50.4390114660001,-104.627882782
,BALL DIAMOND,ALBERT SCHOOL - BALL DIAMOND BS #120,1340 ROBINSON STREET,ALBERT SCHOOL,50.458109441,-104.62424216
,ATHLETIC FIELD,MCDERMID SCHOOL - ATHLETIC FIELD SOCCER ATHLETIC FIELD,139 TORONTO STREET,MCDERMID SCHOOL,50.4766939090001,-104.59730054
,ATHLETIC FIELD,MARTIN COLLEGIATE SOUTH - ATHLETIC FIELD SOCCER ATHLETIC FIELD,1100 MCINTOSH STREET,MARTIN COLLEGIATE SOUTH,50.461551646,-104.656093382
,UNIVERSITY OF REGINA,CAMPION COLLEGE,3769 WASCANA PARKWAY,UNIVERSITY OF REGINA,50.4182592350001,-104.586981944
,POLICE,NORTH CENTRAL COMMUNITY SERVICE CENTRE,3350 7TH AVENUE,NORTH CENTRAL COMMUNITY SERVICE CENTRE,50.4586230130001,-104.628602732
,BALL DIAMOND,M.J. COLDWELL SCHOOL - BALL DIAMOND BS #241,103 FAIRVIEW ROAD,M.J. COLDWELL SCHOOL,50.4906227720001,-104.612380487
,PUBLIC ELEMENTARY SCHOOL,LAKEVIEW - PUBLIC ELEMENTARY SCHOOL,3100 20TH AVENUE,LAKEVIEW - PUBLIC ELEMENTARY SCHOOL,50.4323745010001,-104.626042709
,PLAYGROUND,OXFORD PARK - PLAYGROUND 1512 E 8TH AVE,1512 E 8TH AVENUE,OXFORD PARK,50.4570544950001,-104.560605675
,BALL DIAMOND,ST. AUGUSTINE SCHOOL - BALL DIAMOND BS #79,2343 EDGAR STREET,ST. AUGUSTINE SCHOOL,50.4414753720001,-104.585969402
,PUBLIC HIGH SCHOOL,WINSTON KNOLL COLLEGIATE - PUBLIC HIGH SCHOOL,5253 ROCHDALE BOULEVARD,WINSTON KNOLL COLLEGIATE - PUBLIC HIGH SCHOOL,50.495247233,-104.656146122
,SEASONAL WASHROOM,MOUNT PLEASANT KAPLAN FIELD WASHROOM - SEASONAL WASHROOM,750 N WINNIPEG STREET,MOUNT PLEASANT KAPLAN FIELD WASHROOM,50.4882273410001,-104.600803316
,SEPARATE ELEMENTARY SCHOOL,SACRED HEART - SEPARATE ELEMENTARY SCHOOL,1314 ELPHINSTONE STREET,SACRED HEART - SEPARATE ELEMENTARY SCHOOL,50.4575157680001,-104.631809405
,BALL DIAMOND,HAYWORTH CR. PARK/CENTENNIAL - BALL DIAMOND BS #194,750 RINK AVENUE,HAYWORTH CR. PARK/CENTENNIAL,50.4913367760001,-104.681664747
,OUTDOOR POOL,REGENT - OUTDOOR POOL,560 ELPHINSTONE STREET,REGENT,50.4702560600001,-104.633296307
,PLAYGROUND,MCNAB PARK - PLAYGROUND 4802 11TH AVE,4802 11TH AVENUE,MCNAB PARK,50.449413705,-104.647541004
,BALL DIAMOND,ST. JEROME PARK - BALL DIAMOND BS #206,750 RINK AVENUE,ST. JEROME PARK,50.488015024,-104.680844663
,ATHLETIC FIELD,LUTHER HIGH SCHOOL - ATHLETIC FIELD,1515 ROYAL STREET,LUTHER HIGH SCHOOL,50.4527614190001,-104.649969313
,UNIVERSITY OF REGINA,EDUCATION BUILDING,3769 WASCANA PARKWAY,UNIVERSITY OF REGINA,50.4168002420001,-104.589589112
,BALL DIAMOND,DOVER PARK - BALL DIAMOND,1250 DOVER AVENUE,DOVER PARK,50.482930061,-104.598566935
,PLAYGROUND,GARDINER PARK EXT MR2 - PLAYGROUND 1320 TRUESDALE DRIVE,1320 E TRUESDALE DRIVE,GARDINER PARK EXT MR2,50.4433794670001,-104.556507089
,BALL DIAMOND,ST. FRANCIS PARK NE - BALL DIAMOND BS #158,6015 MIKKELSON DRIVE,ST. FRANCIS PARK NE,50.4647422930001,-104.666912707
,ATHLETIC FIELD,HOWELL MULTI - ATHLETIC FIELD MULTI-USE ATHLETIC FIELD,2705 E HOWELL DRIVE,HOWELL MULTI,50.4617233470001,-104.543004182
,BALL DIAMOND,NORTH EAST PARK NWW - BALL DIAMOND BS #280 (AKA=REGINA MINOR GIRLS BALL),2015 9TH AVENUE N,NORTH EAST PARK NWW,50.4840582340001,-104.610522375
,PLAYGROUND,REVES PARK - PLAYGROUND 3175 HARDING ST,3175 HARDING STREET,REVES PARK,50.4297737680001,-104.53947027
,WASCANA CENTRE,LEGISLATIVE BUILDING,2405 LEGISLATIVE DRIVE,WASCANA CENTRE,50.432463172,-104.615146425
,PLAYGROUND,BOTHWELL PARK - PLAYGROUND 94 BOTHWELL CRES,94 BOTHWELL CRESCENT,BOTHWELL PARK,50.4926497750001,-104.598166879
,OUTDOOR RINK SHELTER,GOCKI PARK - OUTDOOR RINK SHELTER,2230 LINDSAY STREET,GOCKI PARK,50.4431249370001,-104.587580891
,ATHLETIC FIELD,REALTORS WEST SOCCER - ATHLETIC FIELD SOCCER ATHLETIC FIELD,222 SUNSET DRIVE,REALTORS WEST SOCCER,50.4100226400001,-104.634189893
,PLAYGROUND,HENRY JANZEN SCHOOL - PLAYGROUND 222 RINK AVE,222 RINK AVENUE,HENRY JANZEN SCHOOL,50.4879988660001,-104.6562891
,INDOOR POOL,NORTHWEST LEISURE CENTRE - INDOOR POOL,1127 N ARNASON STREET,NORTHWEST LEISURE CENTRE,50.4954738200001,-104.679568637
,BALL DIAMOND,MIKE BADHAM PARK - BALL DIAMOND BS #12,2606 GRANT ROAD,MIKE BADHAM PARK,50.4025247610001,-104.610370257
,ATHLETIC FIELD,LAKEWOOD MULTI - ATHLETIC FIELD MULTI-USE ATHLETIC FIELD,6024 WHELAN DRIVE,LAKEWOOD MULTI,50.5021076410001,-104.670313387
,PLAYGROUND,ST. DOMINIC SAVIO SCHOOL - PLAYGROUND 195 WINDFIELD RD,195 WINDFIELD ROAD,ST. DOMINIC SAVIO SCHOOL,50.4321311470001,-104.562376613
,ATHLETIC FIELD,LES SHERMAN SOCCER - ATHLETIC FIELD SOCCER ATHLETIC FIELD,2404 ELPHINSTONE STREET,LES SHERMAN SOCCER,50.4419299800001,-104.634925639
,PLAYGROUND,LUCY ELEY PARK - PLAYGROUND 1915 RETALLACK ST,1955 RETALLACK STREET,LUCY ELEY PARK,50.4477954480001,-104.622010089
,OUTDOOR RINK BOARDED,BLOCK 11B PARK - OUTDOOR RINK BOARDED,945 REYNOLDS STREET,BLOCK 11B PARK,50.4638355170001,-104.588994429
,PLAYGROUND,BASTEDO PARK - PLAYGROUND 87 MCSHERRY CRES,87 MCSHERRY CRESCENT,BASTEDO PARK,50.4728932500001,-104.670905021
,PLAYGROUND,UNIVERSITY PARK - PLAYGROUND 25 MICHENER DR,165 WINDFIELD ROAD,UNIVERSITY PARK,50.4311053270001,-104.561974234
,BASKETBALL,GOCKI PARK - BASKETBALL,2230 LINDSAY STREET,GOCKI PARK,50.4436570810001,-104.587584718
,PLAYGROUND,TURNER PARK - PLAYGROUND 130 BENTLEY DR,130 BENTLEY DRIVE,TURNER PARK,50.4539075340001,-104.546676988
,ATHLETIC FIELD,KEN JENKINS MULTI - ATHLETIC FIELD MULTI-USE ATHLETIC FIELD,210 MCINTOSH STREET,KEN JENKINS MULTI,50.4743807410001,-104.655748199
,ATHLETIC FIELD,WILFRED WALKER MULTI - ATHLETIC FIELD MULTI-USE ATHLETIC FIELD,1910 E WAGMAN DRIVE,WILFRED WALKER MULTI,50.4398491750001,-104.555051079
,ATHLETIC FIELD,STEWART RUSSELL PARK - ATHLETIC FIELD SOCCER ATHLETIC FIELD,1912 E 7TH AVENUE,STEWART RUSSELL PARK,50.4598790940001,-104.554923228
,ATHLETIC FIELD,DOUGLAS PARK (LEIBEL) - ATHLETIC FIELD MULTI-USE ATHLETIC FIELD,3025 MCDONALD STREET,DOUGLAS PARK (LEIBEL),50.4275241750001,-104.579972105
,ATHLETIC FIELD,DALGLIESH - ATHLETIC FIELD SOCCER ATHLETIC FIELD,50 DALGLIESH DRIVE,DALGLIESH,50.4861630390001,-104.649835019
,PUBLIC ELEMENTARY SCHOOL,JUDGE BRYANT - PUBLIC ELEMENTARY SCHOOL,2828 E DEWDNEY AVENUE,JUDGE BRYANT - PUBLIC ELEMENTARY SCHOOL,50.4556158250001,-104.541976706
,BALL DIAMOND,QUEEN ELIZABETH JUBILEE PARK - BALL DIAMOND BS #98,111 E BROADWAY AVENUE,QUEEN ELIZABETH JUBILEE PARK,50.4369012430001,-104.579914414
,OUTDOOR RINK BOARDED,DR. A.E. PERRY SCHOOL - OUTDOOR RINK BOARDED,93 LINCOLN DRIVE,DR. A.E. PERRY SCHOOL,50.401987766,-104.632805671
,PLAYGROUND,BRINKWORTH PARK - PLAYGROUND 2150 ALEXANDRA ST,2109 YORK STREET,BRINKWORTH PARK,50.445326595,-104.644804052
,SEPARATE ELEMENTARY SCHOOL,ST. THERESA - SEPARATE ELEMENTARY SCHOOL,2707 E 7TH AVENUE,ST. THERESA - SEPARATE ELEMENTARY SCHOOL,50.4582451750001,-104.543512681
,PLAYGROUND,MCDERMID SCHOOL - PLAYGROUND 125 TORONTO ST,139 TORONTO STREET,MCDERMID SCHOOL,50.4767647020001,-104.598028812
,PLAYGROUND,DALGLIESH PARK - PLAYGROUND 50 DALGLIESH DR,50 DALGLIESH DRIVE,DALGLIESH PARK,50.4864311190001,-104.648951626
,ATHLETIC FIELD,ST. TIMOTHY MULTI - ATHLETIC FIELD MULTI-USE ATHLETIC FIELD,280 SANGSTER BOULEVARD,ST. TIMOTHY MULTI,50.4906593380001,-104.63359016
,FIRE,FIRE HALL NO. 2,1700 9TH AVENUE N,WILLIAM MOFFAT FIRE HALL,50.4846930740001,-104.605753675
,ATHLETIC FIELD,ST. BERNADETTE SCHOOL - ATHLETIC FIELD SOCCER ATHLETIC FIELD,727 N MCINTOSH STREET,ST. BERNADETTE SCHOOL,50.488797242,-104.651169491
,PUBLIC ELEMENTARY SCHOOL,WILFRED HUNT - PUBLIC ELEMENTARY SCHOOL,101 MAYFIELD ROAD,WILFRED HUNT - PUBLIC ELEMENTARY SCHOOL,50.4296931010001,-104.562706535
,ATHLETIC FIELD,BASTEDO PARK  - ATHLETIC FIELD SOCCER ATHLETIC FIELD,87 MCSHERRY CRESCENT,BASTEDO PARK,50.4724445260001,-104.671827817
,PLAYGROUND,DOUGLAS PARK SCHOOL N - PLAYGROUND 621 E DOUGLAS AVE,635 E DOUGLAS AVENUE,DOUGLAS PARK SCHOOL N,50.432972814,-104.574670644
,ATHLETIC FIELD,LESLIE LAWNBOWLING PARK GREEN "A" (WEST END) - ATHLETIC FIELD MULTI-USE ATHLETIC FIELD,3820 VICTORIA AVENUE,LESLIE LAWNBOWLING PARK GREEN "A" (WEST END),50.447561023,-104.6377266
,PLAYGROUND,LITZENBERGER PARK - PLAYGROUND 100 RINK AVE,100 RINK AVENUE,LITZENBERGER PARK,50.4888563470001,-104.649211544
,BALL DIAMOND,A.C.T. BALL PARK SE - BALL DIAMOND BS #271,460 ELPHINSTONE STREET,A.C.T. BALL PARK SE,50.4720142880001,-104.633506838
,POLICE,REGINA POLICE SERVICE,1717 OSLER STREET,REGINA POLICE SERVICE,50.4513190550001,-104.604406907
,PLAYGROUND,MASSEY SCHOOL - PLAYGROUND 131 MASSEY ROAD,131 MASSEY ROAD,MASSEY SCHOOL,50.410905137,-104.607891713
,OUTDOOR RINK UNBOARDED,DR. A.E. PERRY SCHOOL - OUTDOOR RINK UNBOARDED,93 LINCOLN DRIVE,DR. A.E. PERRY SCHOOL,50.4021194650001,-104.632506839
,SEPARATE ELEMENTARY SCHOOL,ST. MATTHEW - SEPARATE ELEMENTARY SCHOOL,4710 CASTLE ROAD,ST. MATTHEW - SEPARATE ELEMENTARY SCHOOL,50.4044871820001,-104.60455716
,BASKETBALL,DIEPPE SCHOOL - BASKETBALL,145 DOROTHY STREET,DIEPPE SCHOOL,50.458523239,-104.679616975
,BALL DIAMOND,DESHAYE SCHOOL - BALL DIAMOND BS #9,37 CAMERON CRESCENT,DESHAYE SCHOOL,50.4121380860001,-104.622802242
,ATHLETIC FIELD,ST. FRANCIS SCHOOL - ATHLETIC FIELD SOCCER ATHLETIC FIELD,45 MIKKELSON DRIVE,ST. FRANCIS SCHOOL,50.464556869,-104.665800039
,ATHLETIC FIELD,PRINCE OF WALES PARK - ATHLETIC FIELD,3800 E CUMBERLAND ROAD,PRINCE OF WALES PARK,50.4385114520001,-104.529490633
,PLAYGROUND,PARKLAND PARK - PLAYGROUND 3210 E PARKLAND DR,3210 E PARKLAND DRIVE,PARKLAND PARK,50.4394294030001,-104.538017215
,PLAYGROUND,HOLY ROSARY SCHOOL - PLAYGROUND 2160 CAMERON ST,2160 CAMERON STREET,HOLY ROSARY SCHOOL,50.4441175190001,-104.626796946
,OUTDOOR RINK BOARDED,READY PARK - OUTDOOR RINK BOARDED,3043 E ARENS ROAD,READY PARK,50.436403651,-104.540468898
,BALL DIAMOND,LES SHERMAN PARK NORTH - BALL DIAMOND BS #153,4055 15TH AVENUE,LES SHERMAN PARK NORTH,50.4412597,-104.638971472
,WASCANA CENTRE,KRAMER IMAX THEATRE,2901 POWERHOUSE DRIVE,WASCANA CENTRE,50.432836728,-104.593878854
,BALL DIAMOND,RAMBLER PARK  SLO PITCH SW - BALL DIAMOND,5215 13TH AVENUE,RAMBLER PARK  SLO PITCH SW,50.4433225020001,-104.661676463
,SEASONAL WASHROOM,MOUNT PLEASANT SOCCER WASHROOM - SEASONAL WASHROOM,750 N WINNIPEG STREET,MOUNT PLEASANT SOCCER WASHROOM,50.4898006820001,-104.596984818
,PUBLIC HIGH SCHOOL,SHELDON-WILLIAMS COLLEGIATE - PUBLIC HIGH SCHOOL,2601 CORONATION STREET,SHELDON-WILLIAMS COLLEGIATE - PUBLIC HIGH SCHOOL,50.4364135470001,-104.634732957
,BALL DIAMOND,STEWART RUSSELL SCHOOL CENTRAL - BALL DIAMOND BS #91,1912 E 7TH AVENUE,STEWART RUSSELL SCHOOL CENTRAL,50.4595651130001,-104.556012365
,BASKETBALL,HENRY BRAUN SCHOOL - BASKETBALL,710 GRAHAM ROAD,HENRY BRAUN SCHOOL,50.4617497690001,-104.534373783
,REC_NBHD FACILITY,NORTHWEST LEISURE CENTRE - REC_NBHD FACILITY,1127 N ARNASON STREET,NORTHWEST LEISURE CENTRE,50.4954587110001,-104.67964139
,PLAYGROUND,ST. CATHERINE SCHOOL - PLAYGROUND 150 BROTHERTON AVE,150 BROTHERTON AVENUE,ST. CATHERINE SCHOOL,50.4527308600001,-104.554346789
,UNIVERSITY OF REGINA,PHYSICAL ACTIVITY CENTRE,3769 WASCANA PARKWAY,UNIVERSITY OF REGINA,50.417236357,-104.586938263
,PLAYGROUND,VICTORIA PARK - PLAYGROUND 2190 VICTORIA AVE,2190 VICTORIA AVENUE,VICTORIA PARK,50.4474602100001,-104.611673311
,BALL DIAMOND,MACNEILL SCHOOL - BALL DIAMOND BS #215,6215 WHELAN DRIVE,MACNEILL SCHOOL,50.497984505,-104.670228152
,PLAYGROUND,WASCANA PARK - CANDY CANE  - PLAYGROUND WASCANA CENTRE,601 19TH AVENUE,WASCANA PARK - CANDY CANE,50.4337946430001,-104.588422783
,BALL DIAMOND,LES SHERMAN PARK NORTH - BALL DIAMOND BS #180,2404 ELPHINSTONE STREET,LES SHERMAN PARK NORTH,50.4402488690001,-104.633929954
,OUTDOOR RINK BOARDED,GOCKI PARK - OUTDOOR RINK BOARDED,2230 LINDSAY STREET,GOCKI PARK,50.443499435,-104.587548226
,MALL,CORNWALL CENTRE,2102 11TH AVENUE,CORNWALL CENTRE,50.4510822820001,-104.611255565
,PARK WATER FEATURE,KIWANIS WATERFALL PARK - PARK WATER FEATURE,2755 ELPHINSTONE STREET,KIWANIS WATERFALL PARK,50.4354576440001,-104.628802871
,PLAYGROUND,CAEN PARK - PLAYGROUND 3010 PRINCESS ST,3010 PRINCESS STREET,CAEN PARK,50.4313372110001,-104.636623573
,ATHLETIC FIELD,LORIMER PARK - ATHLETIC FIELD SOCCER ATHLETIC FIELD,19 LORIMER CRESCENT,LORIMER PARK,50.4814483820001,-104.637514522
,ATHLETIC FIELD,W.H. FORD PASSIVE - ATHLETIC FIELD,6129 DALGLIESH DRIVE,W.H. FORD PASSIVE,50.49113127,-104.670687402
,OUTDOOR RINK UNBOARDED,M.J. COLDWELL PARK - OUTDOOR RINK UNBOARDED,115 FAIRVIEW ROAD,M.J. COLDWELL PARK,50.49058532,-104.610748694
,OUTDOOR TENNIS,CAMPBELL COLLEGIATE - OUTDOOR TENNIS,102 MASSEY ROAD,CAMPBELL COLLEGIATE,50.4129878940001,-104.612172102
,BASKETBALL,ST. PIUS SCHOOL - BASKETBALL,3301 GARNET STREET,ST. PIUS SCHOOL,50.4269056940001,-104.625709914
,INDOOR TENNIS,REGINA SPORTPLEX - INDOOR TENNIS,1717 ELPHINSTONE STREET,REGINA SPORTPLEX,50.4506729230001,-104.630116541
,INDOOR POOL,SANDRA SCHMIRLER LEISURE CENTRE - INDOOR POOL,3130 E WOODHAMS DRIVE,SANDRA SCHMIRLER LEISURE CENTRE,50.4296647790001,-104.535472829
,ATHLETIC FIELD,WASCANA SCHOOL - ATHLETIC FIELD SOCCER ATHLETIC FIELD,4210 4TH AVENUE,WASCANA SCHOOL,50.464229979,-104.642138877
,BALL DIAMOND,ST. MARY SCHOOL S - BALL DIAMOND,140 N MCINTOSH STREET,ST. MARY SCHOOL S,50.4776718680001,-104.655233658
,BALL DIAMOND,CRESCENT PARK - BALL DIAMOND BS #94,1109 E 14TH AVENUE,CRESCENT PARK,50.4416527590001,-104.568392983
,WASCANA CENTRE,WASCANA REHABILITATION CENTRE,2180 23RD AVENUE,WASCANA CENTRE,50.425189672,-104.610933678
,PLAYGROUND,STAN OXELGREN PARK - PLAYGROUND 126 SANGSTER BLVD,126 SANGSTER BOULEVARD,STAN OXELGREN PARK,50.4894236640001,-104.635105823
,FIRE,FIRE HALL NO. 5,2700 E ARENS ROAD,HAROLD T. BUTTON FIRE HALL,50.44071954,-104.544830509
,PLAYGROUND,SCHWEITZER PARK - PLAYGROUND 2715 HELMSING ST,2715 HELMSING STREET,SCHWEITZER PARK,50.4359547390001,-104.538017725
,BALL DIAMOND,ALBERT SCOTT/SCOTT COLLEGIATE NE - BALL DIAMOND BS #140,3355 6TH AVENUE,ALBERT SCOTT/SCOTT COLLEGIATE NE,50.459669487,-104.62852686
,OUTDOOR RINK UNBOARDED,MCNAB PARK - OUTDOOR RINK UNBOARDED,4802 11TH AVENUE,MCNAB PARK,50.449476588,-104.647058087
,BASKETBALL,ST. MARGUERITE BOURGEOYS SCHOOL - BASKETBALL,2910 E SHOOTER DRIVE,ST. MARGUERITE BOURGEOYS SCHOOL,50.4364591390001,-104.541357784
,ATHLETIC FIELD,MOUNT PLEASANT MINI PITCH - ATHLETIC FIELD SOCCER ATHLETIC FIELD,750 N WINNIPEG STREET,MOUNT PLEASANT MINI PITCH,50.486725129,-104.596506679
,PLAYGROUND,ALBERT SCHOOL - PLAYGROUND 1340 ROBINSON ST,1340 ROBINSON STREET,ALBERT SCHOOL,50.457470361,-104.624881253
,PLAYGROUND,REGENT POOL PARK - PLAYGROUND 560 ELPHINSTONE ST,560 ELPHINSTONE STREET,REGENT POOL PARK,50.4702569620001,-104.633860022
,SEPARATE HIGH SCHOOL,DR. MARTIN LEBOLDUS HIGH SCHOOL - SEPARATE HIGH SCHOOL,2330 25TH AVENUE,DR. MARTIN LEBOLDUS HIGH SCHOOL - SEPARATE HIGH SCHOOL,50.420000299,-104.614503712
,BASKETBALL,MCLURG SCHOOL - BASKETBALL,125 PAYNTER CRESCENT,MCLURG SCHOOL,50.4725323110001,-104.680223261
,OUTDOOR RINK SHELTER,KEN JENKINS SCHOOL - OUTDOOR RINK SHELTER,5382 2ND AVENUE N,KEN JENKINS SCHOOL,50.4732784670001,-104.657125949
,BASKETBALL,HOLY ROSARY SCHOOL - BASKETBALL,2160 CAMERON STREET,HOLY ROSARY SCHOOL,50.4445361000001,-104.626558813
,MALL,NORTHGATE MALL,353 N ALBERT STREET,NORTHGATE MALL,50.4829506360001,-104.61531299
,BASKETBALL,DR. FERGUSON PARK - BASKETBALL,129 BROTHERTON AVENUE,DR. FERGUSON PARK,50.452145681,-104.555903858
,PLAYGROUND,REGINA RUGBY FIELDS - PLAYGROUND 4025 25TH AVE,4025 25TH AVENUE,REGINA RUGBY FIELDS,50.417344385,-104.638822079
,BASKETBALL,CORONATION PARK SCHOOL - BASKETBALL,3105 4TH AVENUE N,CORONATION PARK SCHOOL,50.4747692550001,-104.625314282
,BALL DIAMOND,SHEPPARD PARK/ST. PHILLIP - BALL DIAMOND BS #262,20 SHEPPARD STREET,SHEPPARD PARK/ST. PHILLIP,50.479918108,-104.625003764
,BALL DIAMOND,PACERS SPORTS PARK  MOSQUITO 2 - BALL DIAMOND,5000 E ARCOLA AVENUE,PACERS SPORTS PARK  MOSQUITO 2,50.4134634150001,-104.504843271
,OUTDOOR TENNIS,LAKEWOOD PARK - OUTDOOR TENNIS,6024 WHELAN DRIVE,LAKEWOOD PARK,50.4994118710001,-104.66801334
,OUTDOOR RINK UNBOARDED,MCLURG SCHOOL PARK - OUTDOOR RINK UNBOARDED,201 FULTON DRIVE,MCLURG SCHOOL PARK,50.4727851360001,-104.677516333
,BALL DIAMOND,RUTH BUCK PARK - BALL DIAMOND,6310 7TH AVENUE N,RUTH BUCK PARK,50.4771849900001,-104.670658383
,PLAYGROUND,GARUIK PARK - PLAYGROUND 281 TRIFUNOV CRES,281 TRIFUNOV CRESCENT,GARUIK PARK,50.491834162,-104.638217208
,REC_NBHD FACILITY,EASTVIEW NEIGHBOURHOOD CENTRE - REC_NBHD FACILITY,615 6TH AVENUE,EASTVIEW NEIGHBOURHOOD CENTRE,50.4596046790001,-104.589434968
,SIAST CAMPUS,SIAST BUILDING,4500 WASCANA PARKWAY,SIAST CAMPUS,50.4081147460001,-104.581809771
,PLAYGROUND,ETHEL MILLIKEN SCHOOL - PLAYGROUND 4510 QUEEN ST,4510 QUEEN STREET,ETHEL MILLIKEN SCHOOL,50.4080188070001,-104.637256196
,SEPARATE ELEMENTARY SCHOOL,ST. JOAN OF ARC - SEPARATE ELEMENTARY SCHOOL,10 DEMPSEY AVENUE,ST. JOAN OF ARC - SEPARATE ELEMENTARY SCHOOL,50.476492588,-104.66882335
,BASKETBALL,GEORGE LEE SCHOOL - BASKETBALL,180 WELLS STREET,GEORGE LEE SCHOOL,50.4889817550001,-104.647582246
,BASKETBALL,GLEN ELM SCHOOL - BASKETBALL,1225 E 9TH AVENUE,GLEN ELM SCHOOL,50.4528885650001,-104.565970567
,OTHER SCHOOL,UNIVERSITY OF REGINA - CAMPION COLLEGE,3769 WASCANA PARKWAY,UNIVERSITY OF REGINA - CAMPION COLLEGE,50.418539175,-104.586936521
,PLAYGROUND,MCMURCHY PARK - PLAYGROUND 250 N GARNET ST,250 N GARNET STREET,MCMURCHY PARK,50.4799503130001,-104.627713408
,BALL DIAMOND,QUEEN'S PARK/CORONATION - BALL DIAMOND BS #247,2925 4TH AVENUE N,QUEEN'S PARK/CORONATION,50.4753964820001,-104.623022097
,BALL DIAMOND,ST. FRANCIS SCHOOL SW - BALL DIAMOND BS #143,45 MIKKELSON DRIVE,ST. FRANCIS SCHOOL SW,50.4642997380001,-104.666486393
,BALL DIAMOND,DOUGLAS PARK (COSMOS) - BALL DIAMOND BS #103,3025 MCDONALD STREET,DOUGLAS PARK (COSMOS),50.4289308820001,-104.579409416
,OUTDOOR RINK SHELTER,WILFRED WALKER SCHOOL - OUTDOOR RINK SHELTER,1910 E WAGMAN DRIVE,WILFRED WALKER SCHOOL,50.4404284000001,-104.556047567
,PLAYGROUND,MAPLE LEAF PARK - PLAYGROUND 1120 14TH AVE,1120 14TH AVENUE,MAPLE LEAF PARK,50.4444800000001,-104.597256338
,PLAYGROUND,SHERWOOD PARK - PLAYGROUND 20 WAKEFIELD CRES,20 WAKEFIELD CRESCENT,SHERWOOD PARK,50.479521849,-104.648129695
,ATHLETIC FIELD,RUGBY PARK SOUTHEAST MULTI - ATHLETIC FIELD MULTI-USE ATHLETIC FIELD,4025 25TH AVENUE,RUGBY PARK SOUTHEAST MULTI,50.416547284,-104.635723631
,PLAYGROUND,HUDSON PARK - PLAYGROUND 3890 PARLIAMENT AVE,3890 PARLIAMENT AVENUE,HUDSON PARK,50.4157458700001,-104.633083386
,OUTDOOR RINK SHELTER,A.E. WILSON PARK (WEST) - OUTDOOR RINK SHELTER,1010 MCCARTHY BOULEVARD,A.E. WILSON PARK (WEST),50.4603943210001,-104.676042099
,PLAYGROUND,ENGLEWOOD PARK - PLAYGROUND 165 PETERSMEYER ST,165 PETERSMEYER STREET,ENGLEWOOD PARK,50.4925948090001,-104.621727065
,UNIVERSITY OF REGINA,DAY CARE,3769 WASCANA PARKWAY,UNIVERSITY OF REGINA,50.4177569660001,-104.592164345
,FIRE,FIRE HALL NO. 6,303 RINK AVENUE,OMAR DIXON FIRE HALL,50.4878466690001,-104.661143244
,PLAYGROUND,ST. ANDREW SCHOOL - PLAYGROUND 535 E DOUGLAS AVE,535 E DOUGLAS AVENUE,ST. ANDREW SCHOOL,50.4324482530001,-104.57611753
,OUTDOOR RINK SHELTER,CORONATION PARK SCHOOL - OUTDOOR RINK SHELTER,3105 4TH AVENUE N,CORONATION PARK SCHOOL,50.475500014,-104.623977627
,BALL DIAMOND,COLUMBUS PARK SSE - BALL DIAMOND BS #58,3110 PASQUA STREET,COLUMBUS PARK SSE,50.430421906,-104.641265452
,SPRAYPAD,PARKRIDGE PARK - SPRAYPAD 1243 ROSSIE DR  @7TH AVE,1243 ROSSIE DRIVE,PARKRIDGE PARK,50.460386697,-104.532971961
,PLAYGROUND,CORE COMMUNITY PARK - PLAYGROUND 1801 MONTREAL ST,1205 11TH AVENUE,CORE COMMUNITY PARK,50.4500011390001,-104.598105816
,MALL,NORMANVIEW MALL,350 N MCCARTHY BOULEVARD,NORMANVIEW MALL,50.4824899870001,-104.666630093
,BALL DIAMOND,ARCOLA SCHOOL - BALL DIAMOND BS #61,2301 ABBOTT ROAD,ARCOLA SCHOOL,50.443118401,-104.576567733
,PUBLIC ELEMENTARY SCHOOL,DR. A. E. PERRY - PUBLIC ELEMENTARY SCHOOL,93 LINCOLN DRIVE,DR. A. E. PERRY - PUBLIC ELEMENTARY SCHOOL,50.4022905200001,-104.631934248
,BALL DIAMOND,RAMBLER PARK  SLO PITCH SEE - BALL DIAMOND BS #184 SLO PITCH SSE,5215 13TH AVENUE,RAMBLER PARK  SLO PITCH SEE,50.4429899360001,-104.657554485
,ATHLETIC FIELD,GLENCAIRN MULTI - ATHLETIC FIELD MULTI-USE ATHLETIC FIELD,2626 E DEWDNEY AVENUE,GLENCAIRN MULTI,50.456805552,-104.543511157
,PLAYGROUND,ARBOR GROVE PARK - PLAYGROUND 3436 OLIVE GROVE,3436 OLIVE GROVE,ARBOR GROVE PARK,50.42531117,-104.533307705
,OUTDOOR RINK SHELTER,GRASSICK PLAYGROUND - OUTDOOR RINK SHELTER,901 GARNET STREET,GRASSICK PLAYGROUND,50.4643627950001,-104.626056054
,BALL DIAMOND,MCNAB PARK - BALL DIAMOND BS #136,4802 11TH AVENUE,MCNAB PARK,50.4503277210001,-104.646942317
,MALL,SHERWOOD MALL,5875 ROCHDALE BOULEVARD,SHERWOOD MALL,50.4950746280001,-104.665647321
,ATHLETIC FIELD,MCNAB PARK - ATHLETIC FIELD SOCCER ATHLETIC FIELD,4802 11TH AVENUE,MCNAB PARK,50.4499014840001,-104.647561108
,OUTDOOR RINK SHELTER,STAN OXELGREN PARK - OUTDOOR RINK SHELTER,126 SANGSTER BOULEVARD,STAN OXELGREN PARK,50.4899590480001,-104.633608278
,PUBLIC ELEMENTARY SCHOOL,WILFRED WALKER - PUBLIC ELEMENTARY SCHOOL,2102 E WAGMAN DRIVE,WILFRED WALKER - PUBLIC ELEMENTARY SCHOOL,50.4399245920001,-104.553068304
,ATHLETIC FIELD,WESTHILL PARK - ATHLETIC FIELD SOCCER ATHLETIC FIELD,8103 SHERWOOD DRIVE,WESTHILL PARK,50.4804352040001,-104.69923806
,PLAYGROUND,CLERMONT PARK - PLAYGROUND 169 CANNON ST,169 CANNON STREET,CLERMONT PARK,50.4571671690001,-104.551509462
,OUTDOOR RINK BOARDED,M.J. COLDWELL PARK - OUTDOOR RINK BOARDED,115 FAIRVIEW ROAD,M.J. COLDWELL PARK,50.4902030200001,-104.610733445
,ATHLETIC FIELD,F.W. JOHNSON MULTI - ATHLETIC FIELD MULTI-USE ATHLETIC FIELD,400 FINES DRIVE,F.W. JOHNSON MULTI,50.4502650950001,-104.546192578
,BALL DIAMOND,HENRY BRAUN PARK E - BALL DIAMOND BS #112,3520 E 7TH AVENUE,HENRY BRAUN PARK E,50.461665655,-104.53284067
,PLAYGROUND,ST. BERNADETTE SCHOOL - PLAYGROUND 727 N MCINTOSH ST,727 N MCINTOSH STREET,ST. BERNADETTE SCHOOL,50.4887538520001,-104.652292851
,OUTDOOR RINK SHELTER,CRESCENT PARK - OUTDOOR RINK SHELTER,1109 E 14TH AVENUE,CRESCENT PARK,50.4413914520001,-104.567320035
,OUTDOOR RINK SHELTER,LAKEVIEW PARK - OUTDOOR RINK SHELTER,2910 ATHOL STREET,LAKEVIEW PARK,50.43187534,-104.628501307
,SEPARATE ELEMENTARY SCHOOL,ST. JEROME - SEPARATE ELEMENTARY SCHOOL,770 RINK AVENUE,ST. JEROME - SEPARATE ELEMENTARY SCHOOL,50.4884680060001,-104.681783954
,MALL,SOUTHLAND MALL,2715 GORDON ROAD,SOUTHLAND MALL,50.4027574130001,-104.622712265
,OUTDOOR RINK UNBOARDED,DR. FERGUSON PARK - OUTDOOR RINK UNBOARDED,129 BROTHERTON AVENUE,DR. FERGUSON PARK,50.4520739180001,-104.555617561
,ATHLETIC FIELD,OPTIMIST PARK MULTI - ATHLETIC FIELD MULTI-USE ATHLETIC FIELD,5221 DEWDNEY AVENUE,OPTIMIST PARK MULTI,50.453741268,-104.655012005
,BASKETBALL,MCDERMID SCHOOL - BASKETBALL,139 TORONTO STREET,MCDERMID SCHOOL,50.476407399,-104.598269784
,BASKETBALL,SCHWEITZER PARK - BASKETBALL,2715 HELMSING STREET,SCHWEITZER PARK,50.436075923,-104.538173591
,PLAYGROUND,WASCANA CREEK PARK - PLAYGROUND 3910 PRINCE OF WALES DR,3910 PRINCE OF WALES DRIVE,WASCANA CREEK PARK,50.41836148,-104.547400235
,PLAYGROUND,ST. FRANCIS SCHOOL SE - PLAYGROUND 45 MIKKELSON DR,45 MIKKELSON DRIVE,ST. FRANCIS SCHOOL SE,50.4649741760001,-104.665077139
,PLAYGROUND,PLAINSVIEW PARK - PLAYGROUND 61 PLAINSVIEW DR,61 PLAINSVIEW DRIVE,PLAINSVIEW PARK,50.39878014,-104.622101612
,OUTDOOR RINK SHELTER,NORTHWEST LEISURE CENTRE - OUTDOOR RINK SHELTER,6829 CUNNINGHAM DRIVE,NORTHWEST LEISURE CENTRE,50.4960821590001,-104.679457678
,BALL DIAMOND,PACERS SPORTS PARK  BANTAM - BALL DIAMOND,5000 E ARCOLA AVENUE,PACERS SPORTS PARK  BANTAM,50.413470079,-104.506411586
,OUTDOOR RINK UNBOARDED,LAKEVIEW PARK - OUTDOOR RINK UNBOARDED,2910 ATHOL STREET,LAKEVIEW PARK,50.432187205,-104.629139142
,BASKETBALL,WOODLAND GROVE PARK - BASKETBALL,3507 ARBOR GROVE DRIVE,WOODLAND GROVE PARK,50.4236974940001,-104.530496401
,ATHLETIC FIELD,THOMSON SCHOOL - ATHLETIC FIELD SOCCER ATHLETIC FIELD,2033 TORONTO STREET,THOMSON SCHOOL,50.445878109,-104.59839733
,BALL DIAMOND,NORTH EAST PARK N - BALL DIAMOND BS #280 (AKA=REGINA MINOR GIRLS BALL),1925 9TH AVENUE N,NORTH EAST PARK N,50.4840508760001,-104.608329465
,ATHLETIC FIELD,RUTH PAWSON SCHOOL - ATHLETIC FIELD SOCCER ATHLETIC FIELD,40 WEEKES CRESCENT,RUTH PAWSON SCHOOL,50.496751471,-104.605675184
,BALL DIAMOND,RAMBLER PARK  FASTBALL SEE - BALL DIAMOND,5215 13TH AVENUE,RAMBLER PARK  FASTBALL SEE,50.4432857880001,-104.653929882
,LIBRARY,SUNRISE BRANCH LIBRARY,3130 E WOODHAMS DRIVE,SUNRISE BRANCH LIBRARY,50.4296279200001,-104.536013944
,PLAYGROUND,LAKEWOOD PARK - PLAYGROUND 6024 WHELAN DR,6024 WHELAN DRIVE,LAKEWOOD PARK,50.499707888,-104.668234431
,OUTDOOR RINK UNBOARDED,W.S. HAWRYLAK SCHOOL - OUTDOOR RINK UNBOARDED,2530 E ASSINIBOINE AVENUE,W.S. HAWRYLAK SCHOOL,50.4224872200001,-104.54840969
,BALL DIAMOND,SACRED HEART SCHOOL - BALL DIAMOND,1314 ELPHINSTONE STREET,SACRED HEART SCHOOL,50.4581282290001,-104.632365074
,OUTDOOR RINK UNBOARDED,GLEN ELM PARK - OUTDOOR RINK UNBOARDED,1601 BOND STREET,GLEN ELM PARK,50.4530085170001,-104.567261734
,OUTDOOR RINK UNBOARDED,WESTHILL/JOANNE GOULET - OUTDOOR RINK UNBOARDED,8045 KESTRAL DRIVE,WESTHILL/JOANNE GOULET,50.4781466580001,-104.696739105
,REC_NBHD FACILITY,CORE RITCHIE NEIGHBOURHOOD CENTRE - REC_NBHD FACILITY,2230 LINDSAY STREET,CORE RITCHIE NEIGHBOURHOOD CENTRE,50.4435108280001,-104.586720175
,PLAYGROUND,NEW ALBERT PARK - PLAYGROUND 5002 MCTAVISH ST,5002 MCTAVISH STREET,NEW ALBERT PARK,50.398448531,-104.634951682
,ATHLETIC FIELD,LESLIE LAWNBOWLING PARK GREEN "D" (EAST END) - ATHLETIC FIELD MULTI-USE ATHLETIC FIELD,3820 VICTORIA AVENUE,LESLIE LAWNBOWLING PARK GREEN "D" (EAST END),50.4475609460001,-104.635665548
,BALL DIAMOND,TRANSCONA PLAYGROUND - BALL DIAMOND BS #162,725 EMPRESS STREET,TRANSCONA PLAYGROUND,50.46547293,-104.652859812
,PLAYGROUND,JOLLY PARK - PLAYGROUND 2714 E SWAIN PL,2714 E SWAIN PLACE,JOLLY PARK,50.435997462,-104.544759767
,OUTDOOR RINK UNBOARDED,MCMURCHY PARK - OUTDOOR RINK UNBOARDED,250 N GARNET STREET,MCMURCHY PARK,50.4802841090001,-104.628219073
,PUBLIC ELEMENTARY SCHOOL,MARION MCVEETY - PUBLIC ELEMENTARY SCHOOL,38 TURGEON CRESCENT,MARION MCVEETY - PUBLIC ELEMENTARY SCHOOL,50.4202215270001,-104.605537293
,PLAYGROUND,EASTGATE PARK PR2 - PLAYGROUND 3502 E EASTGATE DR,3502 E EASTGATE DRIVE,EASTGATE PARK PR2,50.4532560480001,-104.534730394
,REC_NBHD FACILITY,NEIL BALKWILL CIVIC ARTS CENTRE - REC_NBHD FACILITY,2404 ELPHINSTONE STREET,NEIL BALKWILL CIVIC ARTS CENTRE,50.4405036270001,-104.632798071
,PLAYGROUND,DAFFODIL PARK - PLAYGROUND 2128 DUFFERIN RD,2128 DUFFERIN ROAD,DAFFODIL PARK,50.4040950980001,-104.607291919
,ATHLETIC FIELD,ACADEMY PARK - ATHLETIC FIELD SOCCER ATHLETIC FIELD,2 ACADEMY PARK ROAD,ACADEMY PARK,50.409553229,-104.605792912
,BALL DIAMOND,PRINCE WILLIAM/JACK MACKENZIE SCHOOL - BALL DIAMOND,3860 BUCKINGHAM DRIVE,PRINCE WILLIAM/JACK MACKENZIE SCHOOL,50.430162668,-104.529540994
,PLAYGROUND,ARCOLA SCHOOL - PLAYGROUND 2315 ABBOTT RD,2315 ABBOTT ROAD,ARCOLA SCHOOL,50.4422979810001,-104.576739187
,PLAYGROUND,ROCHDALE PARK - PLAYGROUND 6829 CUNNINGHAM DR,6829 CUNNINGHAM DRIVE,ROCHDALE PARK,50.4957047770001,-104.679290781
,PLAYGROUND,COLEMAN PARK - PLAYGROUND 220 FINES DR,220 FINES DRIVE,COLEMAN PARK,50.449621403,-104.542854272
,BALL DIAMOND,F.W. JOHNSON HIGH SCHOOL - BALL DIAMOND,400 FINES DRIVE,F.W. JOHNSON HIGH SCHOOL,50.4513673880001,-104.547919321
,BASKETBALL,DR. HANNA SCHOOL - BASKETBALL,55 DAVIN CRESCENT,DR. HANNA SCHOOL,50.489649549,-104.630128242
,ATHLETIC FIELD,EASTVIEW PARK - ATHLETIC FIELD SOCCER ATHLETIC FIELD,945 BRODER STREET,EASTVIEW PARK,50.464483306,-104.590242925
,BASKETBALL,M.J. COLDWELL SCHOOL - BASKETBALL,103 FAIRVIEW ROAD,M.J. COLDWELL SCHOOL,50.490788325,-104.611996616
,BASKETBALL,JUDGE BRYANT SCHOOL - BASKETBALL,2828 E DEWDNEY AVENUE,JUDGE BRYANT SCHOOL,50.4561331900001,-104.542565791
,BALL DIAMOND,KIWANIS WATERFALL PARK SE - BALL DIAMOND BS #48,2755 ELPHINSTONE STREET,KIWANIS WATERFALL PARK SE,50.4373142150001,-104.62906972
,REC_NBHD FACILITY,NORTH EAST COMMUNITY CENTRE - REC_NBHD FACILITY,120 BROAD STREET,NORTH EAST COMMUNITY CENTRE,50.4763620850001,-104.607036038
,OUTDOOR TENNIS,MAHON - OUTDOOR TENNIS,130 BROTHERTON AVENUE,MAHON,50.4534214660001,-104.555049967
,OTHER SCHOOL,UNIVERSITY OF REGINA - WASCANA PARKWAY CAMPUS,3769 WASCANA PARKWAY,UNIVERSITY OF REGINA - WASCANA PARKWAY CAMPUS,50.4191477830001,-104.590341906
,OUTDOOR RINK UNBOARDED,ASSINIBOINE PARK - OUTDOOR RINK UNBOARDED,3355 ROBINSON STREET,ASSINIBOINE PARK,50.4250087780001,-104.622204354
,BALL DIAMOND,SHERWOOD PARK/ELSIE MIRONUCK - BALL DIAMOND BS #203,20 WAKEFIELD CRESCENT,SHERWOOD PARK/ELSIE MIRONUCK,50.4798965300001,-104.649196676
,OUTDOOR RINK SHELTER,RUTH PAWSON SCHOOL - OUTDOOR RINK SHELTER,40 WEEKES CRESCENT,RUTH PAWSON SCHOOL,50.4970100610001,-104.605140785
,OUTDOOR RINK UNBOARDED,MABLE BROWN PARK - OUTDOOR RINK UNBOARDED,255 MIKKELSON DRIVE,MABLE BROWN PARK,50.4666364820001,-104.682086997
,ARENA,CLARENCE MAHON - ARENA,130 BROTHERTON AVENUE,CLARENCE MAHON,50.4528698890001,-104.555289644
,ATHLETIC FIELD,MCLURG SCHOOL PARK - ATHLETIC FIELD SOCCER ATHLETIC FIELD,201 FULTON DRIVE,MCLURG SCHOOL PARK,50.4725370500001,-104.6782183
,ATHLETIC FIELD,ROTHWELL - ATHLETIC FIELD SOCCER ATHLETIC FIELD,1201 ROTHWELL STREET,ROTHWELL,50.4587230450001,-104.569385982
,SEPARATE ELEMENTARY SCHOOL,ST. LUKE - SEPARATE ELEMENTARY SCHOOL,625 ELPHINSTONE STREET,ST. LUKE - SEPARATE ELEMENTARY SCHOOL,50.4688794960001,-104.63038649
,ATHLETIC FIELD,OAKVIEW PARK  - ATHLETIC FIELD SOCCER ATHLETIC FIELD,84 OAKVIEW DRIVE,OAKVIEW PARK,50.4878570580001,-104.613665815
,BASKETBALL,REGINA CHRISTIAN SCHOOL - BASKETBALL,2505 23RD AVENUE,REGINA CHRISTIAN SCHOOL,50.4227051760001,-104.616740982
,OUTDOOR RINK SHELTER,MIKE BADHAM PARK - OUTDOOR RINK SHELTER,2606 GRANT ROAD,MIKE BADHAM PARK,50.4017344800001,-104.611412948
,PLAYGROUND,ST. ANGELA MERICI - PLAYGROUND 6823 GILLMORE DRIVE,6749 MAPLE RIDGE DRIVE,ST. ANGELA MERICI,50.5009772930001,-104.679739494
,ARENA,OPTIMIST - ARENA,222 SUNSET DRIVE,OPTIMIST,50.4091446780001,-104.633373825
,BASKETBALL,GRANT ROAD SCHOOL - BASKETBALL,2501 GRANT ROAD,GRANT ROAD SCHOOL,50.4024251370001,-104.611902987
,PUBLIC HIGH SCHOOL,SCOTT COLLEGIATE - PUBLIC HIGH SCHOOL,3350 7TH AVENUE,SCOTT COLLEGIATE - PUBLIC HIGH SCHOOL,50.4587334710001,-104.629574182
,BALL DIAMOND,WALKER SCHOOL - BALL DIAMOND BS #150,1315 CAMPBELL STREET,WALKER SCHOOL,50.457016954,-104.662225629
,PLAYGROUND,HOWELL PARK - PLAYGROUND 2705 E HOWELL DR,2705 E HOWELL DRIVE,HOWELL PARK,50.4611468410001,-104.544200368
,ATHLETIC FIELD,LAKEVIEW SCHOOL - ATHLETIC FIELD SOCCER ATHLETIC FIELD,3100 20TH AVENUE,LAKEVIEW SCHOOL,50.432101247,-104.626031804
,BALL DIAMOND,MCMURCHY PARK - BALL DIAMOND BS #266,250 N GARNET STREET,MCMURCHY PARK,50.4811328330001,-104.627556287
,BALL DIAMOND,ALBERT SCOTT/SCOTT COLLEGIATE NW - BALL DIAMOND BS #141,3355 6TH AVENUE,ALBERT SCOTT/SCOTT COLLEGIATE NW,50.4596626370001,-104.63085605
,PLAYGROUND,CARLTON PARK - PLAYGROUND 1450 CARLTON ST,1436 CARLTON STREET,CARLTON PARK,50.4562335730001,-104.671440503
,WASCANA CENTRE,SASKATCHEWAN SCIENCE CENTRE AND SPC,2901 POWERHOUSE DRIVE,WASCANA CENTRE,50.433209827,-104.594682191
,ATHLETIC FIELD,FUHRMANN PARK - ATHLETIC FIELD SOCCER ATHLETIC FIELD,170 FUHRMANN CRESCENT,FUHRMANN PARK,50.487157644,-104.657572194
,BASKETBALL,SACRED HEART SCHOOL - BASKETBALL,1314 ELPHINSTONE STREET,SACRED HEART SCHOOL,50.4580377940001,-104.631760021
,ATHLETIC FIELD,MCNIVEN PARK - ATHLETIC FIELD SOCCER ATHLETIC FIELD,1010 MCNIVEN AVENUE,MCNIVEN PARK,50.4184851400001,-104.595734022
,SEASONAL WASHROOM,RICK HANSEN OPTIMIST PLAYGROUND - SEASONAL WASHROOM,1010 MCCARTHY BOULEVARD,RICK HANSEN OPTIMIST PLAYGROUND,50.4602322860001,-104.675246118
,BALL DIAMOND,BALFOUR HIGH SCHOOL - BALL DIAMOND BS #62,1245 COLLEGE AVENUE,BALFOUR HIGH SCHOOL,50.439060081,-104.600323317
,BASKETBALL,STEWART RUSSELL PARK - BASKETBALL,1920 E 7TH AVENUE,STEWART RUSSELL PARK,50.4592756660001,-104.555758554
,BASKETBALL,QUEEN ST. PARK - BASKETBALL,4410 QUEEN STREET,QUEEN ST. PARK,50.4090276350001,-104.637804181
,SEASONAL WASHROOM,DOUGLAS PARK WASHROOM/CHANGE ROOM BUNKER - SEASONAL WASHROOM,3025 MCDONALD STREET,DOUGLAS PARK WASHROOM/CHANGE ROOM BUNKER,50.4284076390001,-104.578212012
,PLAYGROUND,HANSEN DR. PARK - PLAYGROUND 542 HANSEN DR,542 HANSEN DRIVE,HANSEN DR. PARK,50.47027022,-104.685038105
,BALL DIAMOND,KINSMEN PARK NORTH SW - BALL DIAMOND BS #166,850 PASQUA STREET,KINSMEN PARK NORTH SW,50.464644622,-104.642760117
,PLAYGROUND,JUDGE BRYANT SCHOOL - PLAYGROUND 2828 E DEWDNEY AVE,2828 E DEWDNEY AVENUE,JUDGE BRYANT SCHOOL,50.4559596670001,-104.542673423
,REC_NBHD FACILITY,ARCOLA EAST COMMUNITY CENTRE - REC_NBHD FACILITY,3860 BUCKINGHAM DRIVE,ARCOLA EAST COMMUNITY CENTRE,50.4295757800001,-104.526725045
,PLAYGROUND,RUTH PAWSON PARK - PLAYGROUND 20 WEEKES CRES,18 WEEKES CRESCENT,RUTH PAWSON PARK,50.4965107230001,-104.604051842
,ATHLETIC FIELD,O'NEILL MULTI - ATHLETIC FIELD MULTI-USE ATHLETIC FIELD,134 ARGYLE STREET,O'NEILL MULTI,50.4775124860001,-104.634865842
,BALL DIAMOND,NORTH EAST PARK SW - BALL DIAMOND,478 N BROAD STREET,NORTH EAST PARK SW,50.483396332,-104.609299738
,OUTDOOR TENNIS,MCLURG SCHOOL PARK - OUTDOOR TENNIS,201 FULTON DRIVE,MCLURG SCHOOL PARK,50.4723397980001,-104.677528357
,PLAYGROUND,WHELAN/RADWAY PARK - PLAYGROUND 1202 N RADWAY ST,1202 N RADWAY STREET,WHELAN/RADWAY PARK,50.4984757350001,-104.669406609
,BALL DIAMOND,MCVEETY PARK - BALL DIAMOND BS #29,1851 JUBILEE AVENUE,MCVEETY PARK,50.419732621,-104.607280481
,ATHLETIC FIELD,NEW ALBERT PARK - ATHLETIC FIELD SOCCER ATHLETIC FIELD,5002 MCTAVISH STREET,NEW ALBERT PARK,50.3986339800001,-104.636055364
,OUTDOOR RINK BOARDED,LITZENBERGER PARK - OUTDOOR RINK BOARDED,100 RINK AVENUE,LITZENBERGER PARK,50.4886929260001,-104.650144108
,PLAYGROUND,DOVER PARK - PLAYGROUND 1101 8TH AVE N,1101 8TH AVENUE N,DOVER PARK,50.483134363,-104.597047367
,SEASONAL WASHROOM,DOUGLAS PARK WASHROOM - SEASONAL WASHROOM,3025 MCDONALD STREET,DOUGLAS PARK WASHROOM,50.428121543,-104.578190832
,PLAYGROUND,ST. JOSAPHAT SCHOOL S - PLAYGROUND 140 GREENWOOD CRES,140 GREENWOOD CRESCENT,ST. JOSAPHAT SCHOOL S,50.4756402410001,-104.680665381
,PLAYGROUND,EWART PARK - PLAYGROUND 1564 N DEVONSHIRE DR,1564 N DEVONSHIRE DRIVE,EWART PARK,50.5043121780001,-104.667856842
,PLAYGROUND,DR. GEORGE FERGUSON PARK E - PLAYGROUND 129 BROTHERTON AVE,117 BROTHERTON AVENUE,DR. GEORGE FERGUSON PARK E,50.4513961390001,-104.556069137
,ATHLETIC FIELD,LES SHERMAN MULTI - ATHLETIC FIELD MULTI-USE ATHLETIC FIELD,2404 ELPHINSTONE STREET,LES SHERMAN MULTI,50.441637599,-104.634783586
,PLAYGROUND,PROCTER PARK - PLAYGROUND 100 PROCTER PL,100 PROCTER PLACE,PROCTER PARK,50.417080582,-104.614191788
,BALL DIAMOND,QUEEN'S PARK/CORONATION - BALL DIAMOND BS #242,2925 4TH AVENUE N,QUEEN'S PARK/CORONATION,50.4746297170001,-104.622979271
,MALL,GOLDEN MILE SHOPPING CENTRE,3846 ALBERT STREET,GOLDEN MILE SHOPPING CENTRE,50.4172557840001,-104.620232599
,PLAYGROUND,MAHON ARENA - PLAYGROUND 130 BROTHERTON AVE,130 BROTHERTON AVENUE,MAHON ARENA,50.4528426900001,-104.554572071
,ATHLETIC FIELD,DAVIN SCHOOL - ATHLETIC FIELD SOCCER ATHLETIC FIELD,2401 RETALLACK STREET,DAVIN SCHOOL,50.4404374710001,-104.620927261
,PLAYGROUND,JACK MACKENZIE/ST. GABRIEL SCHOOL - PLAYGROUND 3860 BUCKINGHAM DR,3860 BUCKINGHAM DRIVE,JACK MACKENZIE/ST. GABRIEL SCHOOL,50.4301881540001,-104.527630345
,PLAYGROUND,MCVEETY PARK - PLAYGROUND 1851 JUBILEE AVE,1851 JUBILEE AVENUE,MCVEETY PARK,50.4208297060001,-104.60660103
,PLAYGROUND,KITCHNER SCHOOL - PLAYGROUND 840 ATHOL ST,840 ATHOL STREET,KITCHNER SCHOOL,50.465931706,-104.629066559
,PLAYGROUND,GLADYS MCDONALD SCHOOL - PLAYGROUND 335 N GARNET ST,335 N GARNET STREET,GLADYS MCDONALD SCHOOL,50.4813337420001,-104.625882319
,WASCANA CENTRE,PARK PLACE RESTAURANT,3000 WASCANA DRIVE,WASCANA CENTRE,50.4310453030001,-104.606546506
,OUTDOOR RINK UNBOARDED,CORONATION PARK SCHOOL - OUTDOOR RINK UNBOARDED,3105 4TH AVENUE N,CORONATION PARK SCHOOL,50.475323513,-104.624128175
,OUTDOOR RINK SHELTER,UNIVERSITY PARK - OUTDOOR RINK SHELTER,165 WINDFIELD ROAD,UNIVERSITY PARK,50.4313008440001,-104.562760406
,OUTDOOR RINK UNBOARDED,W. WALKER PARK - OUTDOOR RINK UNBOARDED,1910 E WAGMAN DRIVE,W. WALKER PARK,50.4402795340001,-104.555841667
,UNIVERSITY OF REGINA,PTRC BUILDING,4141 WASCANA PARKWAY,UNIVERSITY OF REGINA,50.4144326040001,-104.590051521
,SPRAYPAD,QUEEN ELIZABETH JUBILEE PARK - SPRAYPAD 121 E BROADWAY AVE,121 E BROADWAY AVENUE,QUEEN ELIZABETH JUBILEE PARK,50.436332329,-104.581077852
,BASKETBALL,W.F. READY SCHOOL - BASKETBALL,2710 HELMSING STREET,W.F. READY SCHOOL,50.4374581310001,-104.540169822
,UNIVERSITY OF REGINA,TWO RESEARCH DR,4141 WASCANA PARKWAY,UNIVERSITY OF REGINA,50.4152990910001,-104.589834355
,ATHLETIC FIELD,MOUNT PLEASANT NORTH SOCCER - ATHLETIC FIELD SOCCER ATHLETIC FIELD,750 N WINNIPEG STREET,MOUNT PLEASANT NORTH SOCCER,50.4907978850001,-104.595954003
,PLAYGROUND,SACRED HEART SCHOOL - PLAYGROUND 1314 ELPHINSTONE ST,1314 ELPHINSTONE STREET,SACRED HEART SCHOOL,50.45806537,-104.631403856
,PUBLIC HIGH SCHOOL,COCHRANE HIGH SCHOOL - PUBLIC HIGH SCHOOL,1069 E 14TH AVENUE,COCHRANE HIGH SCHOOL - PUBLIC HIGH SCHOOL,50.4429594640001,-104.568228079
,SPRAYPAD,ROSEMONT PARK - SPRAYPAD 1101 WALKER ST  @ 6TH AVE,1101 WALKER STREET,ROSEMONT PARK,50.4601314650001,-104.66217102
,BALL DIAMOND,NORTH EAST PARK NE - BALL DIAMOND BS #281 (AKA=REGINA MINOR GIRLS BALL),1825 9TH AVENUE N,NORTH EAST PARK NE,50.4839448450001,-104.607122877
,OUTDOOR SKATEBOARD PARK,LAKERIDGE SPORTS PARK - OUTDOOR SKATEBOARD PARK,5451 ROCHDALE BOULEVARD,LAKERIDGE SPORTS PARK,50.4953850730001,-104.659056912
,,ARCHBISHOP O_NEILL COLLEGIATE -  REMOVED,134 ARGYLE STREET,ARCHBISHOP O_NEILL COLLEGIATE,50.478193473,-104.634453271
,BALL DIAMOND,LAKERIDGE SPORTS PARK/RIFFEL - BALL DIAMOND BS #214,5657 ROCHDALE BOULEVARD,LAKERIDGE SPORTS PARK/RIFFEL,50.4952232160001,-104.660600458
,OUTDOOR RINK SHELTER,MCDERMID SCHOOL - OUTDOOR RINK SHELTER,139 TORONTO STREET,MCDERMID SCHOOL,50.4769057380001,-104.597622454
,OUTDOOR RINK SHELTER,STEWART RUSSELL PARK - OUTDOOR RINK SHELTER,1912 E 7TH AVENUE,STEWART RUSSELL PARK,50.458907034,-104.556337605
,ARENA,WHEAT CITY KINSMEN - ARENA,560 ELPHINSTONE STREET,WHEAT CITY KINSMEN,50.4700505610001,-104.631976387
,PUBLIC ELEMENTARY SCHOOL,DAVIN - PUBLIC ELEMENTARY SCHOOL,2401 RETALLACK STREET,DAVIN - PUBLIC ELEMENTARY SCHOOL,50.4402420370001,-104.621550102
,BALL DIAMOND,LAKEVIEW PARK - BALL DIAMOND BS #44,2910 ATHOL STREET,LAKEVIEW PARK,50.4330760730001,-104.628583675
,PLAYGROUND,HIRD PARK - PLAYGROUND 6530 HIRD CRES,6530 HIRD CRESCENT,HIRD PARK,50.504247315,-104.673795436
,BALL DIAMOND,CONNAUGHT SCHOOL SE - BALL DIAMOND BS #123,2124 ELPHINSTONE STREET,CONNAUGHT SCHOOL SE,50.444128456,-104.631421074
,PLAYGROUND,SPRUCE MEADOWS - PLAYGROUND 3211 E TREGARVA DR.,3211 E TREGARVA DRIVE,SPRUCE MEADOWS,50.4418899130001,-104.536135714
,BALL DIAMOND,NORTH EAST PARK NEE - BALL DIAMOND,444 N BROAD STREET,NORTH EAST PARK NEE,50.4831714040001,-104.608085304
,LIBRARY,GEORGE BOTHWELL BRANCH LIBRARY,2715 GORDON ROAD,GEORGE BOTHWELL BRANCH LIBRARY,50.4023891740001,-104.622253357
,BALL DIAMOND,PACERS SPORTS PARK  MOSQUITO 1 - BALL DIAMOND,5000 E ARCOLA AVENUE,PACERS SPORTS PARK  MOSQUITO 1,50.4134595690001,-104.503940301
,PLAYGROUND,DOMINION PARK - PLAYGROUND 2735 LACON ST,2715 LACON STREET,DOMINION PARK,50.4355503790001,-104.568264388
,BALL DIAMOND,LEBOLDUS HIGH SCHOOL - BALL DIAMOND BS #18,2330 25TH AVENUE,LEBOLDUS HIGH SCHOOL,50.4211454620001,-104.614178416
,BALL DIAMOND,HOLY ROSARY PARK - BALL DIAMOND,3118 14TH AVENUE,HOLY ROSARY PARK,50.4441376920001,-104.6279607
,BALL DIAMOND,STOREY PARK - BALL DIAMOND BS #213,15 STOREY CRESCENT,STOREY PARK,50.4864895030001,-104.669049515
,OUTDOOR RINK SHELTER,JUDGE BRYANT SCHOOL - OUTDOOR RINK SHELTER,2626 E DEWDNEY AVENUE,JUDGE BRYANT SCHOOL,50.456679126,-104.541177489
,UNIVERSITY OF REGINA,LABORATORIES,3769 WASCANA PARKWAY,UNIVERSITY OF REGINA,50.4186815410001,-104.592037461
,PLAYGROUND,DIEPPE SCHOOL E - PLAYGROUND 145 DOROTHY ST,145 DOROTHY STREET,DIEPPE SCHOOL E,50.4583807280001,-104.679349782
,SEASONAL WASHROOM,KINSMEN PARK NORTH - SEASONAL WASHROOM,850 PASQUA STREET,KINSMEN PARK NORTH,50.465987291,-104.641982512
,BASKETBALL,GLADYS MCDONALD SCHOOL - BASKETBALL,335 N GARNET STREET,GLADYS MCDONALD SCHOOL,50.4811564450001,-104.626002147
